Lat,Lon,Transaction Name,Address,City,Full_Address
45.65276,-73.5685518,Galeries d'Anjou,7999 Blvd Les Galeries D'anjou,Montreal,7999 Blvd Les Galeries D'anjou Montreal
,,273- 293 Louis-Paré ,273- 293 Louis-Paré ,Montréal,273- 293 Louis-Paré  Montréal
43.68349457,-79.41785431,1467 Bathurst Street & 490 St Clair Avenue West,1467 Bathurst Street,Old Toronto,1467 Bathurst Street Old Toronto
43.69503165,-79.70507987,8000 Dixie Road,8000 Dixie Road,Brampton,8000 Dixie Road Brampton
43.46129295,-80.49240998,"The Estates, Heritage Place, Northfield Gardens, Ridgeway & Somerset",188 Margaret Avenue,Kitchener,188 Margaret Avenue Kitchener
43.5022913,-79.7039247,Dundas Street East,Dundas Street East,Oakville,Dundas Street East Oakville
49.0542717,-122.7020187,South Surrey Business Park,2920 188 St,Surrey,2920 188 St Surrey
43.2501131,-79.8100656,Centre on Barton,1227 Barton St E,Hamilton,1227 Barton St E Hamilton
49.27729797,-123.1346512,Martello Tower,1011 Beach Ave,Vancouver,1011 Beach Ave Vancouver
43.6537417,-79.3680252,"261 - 283 Queen Street East, 360 & 410 Richmond Street East and Brigden Place",Brigden Place,Old Toronto,Brigden Place Old Toronto
43.6981765,-79.5801481,100 - 110 Iron Street,100 - 110 Iron Street,Etobicoke,100 - 110 Iron Street Etobicoke
43.69728809,-79.57840157,110 Iron St,110 Iron St,Toronto,110 Iron St Toronto
43.70719977,-79.39796845,ePlace (Residential),Yonge St And Eglinton Ave E,Toronto,Yonge St And Eglinton Ave E Toronto
49.20985413,-123.0978928,Marine Drive Industrial Centre,8310 Prince Edward Street,Vancouver,8310 Prince Edward Street Vancouver
53.59009171,-113.6164169,Northport Business Park,12908 170 St NW,Edmonton,12908 170 St NW Edmonton
45.489582,-74.559841,41 Rue Marie-Curie,41 Rue Marie-Curie,Vaudreuil-Dorion,41 Rue Marie-Curie Vaudreuil-Dorion
43.85621984,-79.66742785,11231 & 11131 Huntington Road,11231 Huntington Road,Vaughan,11231 Huntington Road Vaughan
43.347838,-80.260242,20-65 Ripplewood Road,20 Ripplewood Road,Cambridge,20 Ripplewood Road Cambridge
43.9233,-79.5515,2955 King Rd,2955 King Rd,King,2955 King Rd King
43.88032068,-79.38551617,Major Mackenzie Dr E,Major Mackenzie Dr E,Richmond Hill,Major Mackenzie Dr E Richmond Hill
49.2657322,-123.0821416,Former MEC Headquarters,1077 GREAT NORTHERN WAY,Vancouver,1077 GREAT NORTHERN WAY Vancouver
49.32964325,-123.1719208,Villa Maris,2222 Bellevue Avenue,West Vancouver,2222 Bellevue Avenue West Vancouver
43.6592954,-79.3825676,388 Yonge Street,388 Yonge Street,Old Toronto,388 Yonge Street Old Toronto
45.34689363,-75.80711246,Bayshore Shopping Centre,100 Bayshore Drive,Nepean,100 Bayshore Drive Nepean
,,Toronto Buttonville Municipal Airport,2833 Sixteenth Avenue,Markham,2833 Sixteenth Avenue Markham
43.01424757,-81.24303452,Royal Oaks,1140 Adelaide St N,London,1140 Adelaide St N London
43.79253387,-79.629776,6100 Langstaff Road,6100 Langstaff Road,Vaughan,6100 Langstaff Road Vaughan
43.7808819,-79.7697326,Torbram Road,Torbram Road,Caledon,Torbram Road Caledon
49.2824062,-123.122483,815 Hornby Street,815 Hornby Street,Vancouver,815 Hornby Street Vancouver
43.6689447,-79.3796134,Jarvis Street Apartments,550 Jarvis St,Toronto,550 Jarvis St Toronto
45.4929279,-73.757509,35  Douglas-B. Floreani Street,35  Douglas-B. Floreani Street,Saint-Laurent,35  Douglas-B. Floreani Street Saint-Laurent
43.5381546,-79.88743591,8350 Lawson Rd,8350 Lawson Rd,Milton,8350 Lawson Rd Milton
43.54006986,-79.88538054,8350 Lawson Road,8350 Lawson Road,Milton,8350 Lawson Road Milton
43.73166275,-79.69984436,Confederation Freezers Summerlea ,250 Summerlea Rd,Brampton,250 Summerlea Rd Brampton
43.69154358,-79.50901031,333 Sidney Belsey Crescent,333 Sidney Belsey Crescent,York,333 Sidney Belsey Crescent York
43.82632078,-79.67803931,10223 Highway No. 50,10223 Highway No. 50,Vaughan,10223 Highway No. 50 Vaughan
51.18534313,-114.1721888,53 St & 144 Ave NW,400 Nolanlake Cove NW,Calgary,400 Nolanlake Cove NW Calgary
44.34409325,-79.63566065,Mapleview Dr E,Mapleview Dr E,Barrie,Mapleview Dr E Barrie
43.7169088,-79.8021602,10534 Hurontario Street,10534 Hurontario Street,Brampton,10534 Hurontario Street Brampton
43.6742228,-79.3879152,877 Yonge Street,877 Yonge Street,Old Toronto,877 Yonge Street Old Toronto
,,"357, 359 Richmond Street West & 120 - 128 Peter Street","357, 359 Richmond Street West & 120 - 128 Peter Street",Old Toronto,"357, 359 Richmond Street West & 120 - 128 Peter Street Old Toronto"
43.15655024,-80.33514023,15 Kraemer's Way,15 Kraemer's Way,Brantford,15 Kraemer's Way Brantford
43.8291404,-79.0946962,Brookdale Centre,1105 Kingston Rd,Pickering,1105 Kingston Rd Pickering
43.6452791,-79.3918163,99 Blue Jays Way,99 Blue Jays Way,Old Toronto,99 Blue Jays Way Old Toronto
43.72562027,-79.64698792,7555 Goreway Drive,7555 Goreway Drive,Mississauga,7555 Goreway Drive Mississauga
43.8375,-79.0473,Volkswagen Group Canada,777 Bayly St,Ajax,777 Bayly St Ajax
,,Mississauga Road & Bovaird Road West,Mississauga Road & Bovaird Road West,Brampton,Mississauga Road & Bovaird Road West Brampton
42.94950104,-81.16629791,2624 Jackson Rd,2624 Jackson Rd,London,2624 Jackson Rd London
43.70225231,-79.5707978,77 Belfield Road,77 Belfield Road,Etobicoke,77 Belfield Road Etobicoke
43.7799916,-79.2300814,10 and 30 Tuxedo Court,10 Tuxedo Ct,Toronto,10 Tuxedo Ct Toronto
,,"RR 33 & 35, TR 252","RR 33 & 35, TR 252",Rocky View County,"RR 33 & 35, TR 252 Rocky View County"
43.3915624,-80.4301051,"100, 120 & 170 Old Carriage Drive",100 Old Carriage Drive,Kitchener,100 Old Carriage Drive Kitchener
45.4126434,-74.513525,Ericsson Global ICT Data Center Montreal,35 Rue F -X -Tessier,Vaudreuil-Dorion,35 Rue F -X -Tessier Vaudreuil-Dorion
49.28595352,-123.1317902,1348 Barclay Street,1348 Barclay St,Vancouver,1348 Barclay St Vancouver
49.28153229,-123.0950317,Patricia Hotel,403 East Hastings Street,Vancouver,403 East Hastings Street Vancouver
45.6848522,-73.7701323,355 Anderson Street,355 Anderson Street,Terrebonne,355 Anderson Street Terrebonne
53.59000015,-113.6215515,17306 129 Ave NW,17306 129 Ave NW,Edmonton,17306 129 Ave NW Edmonton
43.74556351,-79.21123505,3434 Eglinton Avenue East,3434 Eglinton Avenue East,Scarborough,3434 Eglinton Avenue East Scarborough
43.68050385,-79.7208786,15 Resolution Drive,15 Resolution Dr,Brampton,15 Resolution Dr Brampton
43.4803864,-80.52420632,Bridgeport House,Bridgeport House,Waterloo,Bridgeport House Waterloo
43.6596287,-79.5972227,College Square,2630 Skymark Avenue,Mississauga,2630 Skymark Avenue Mississauga
43.8388388,-79.3833456,105 Commerce Valley Drive West,105 Commerce Valley Dr W,Markham,105 Commerce Valley Dr W Markham
43.650143,-79.3787242,110 Yonge Street,110 Yonge St,Toronto,110 Yonge St Toronto
43.58986379,-79.639457,180 Burnhamthorpe Road West,180 Burnhamthorpe Road West,Mississauga,180 Burnhamthorpe Road West Mississauga
,,Newton Omniplex Center,Newton Omniplex Center,Surrey,Newton Omniplex Center Surrey
50.86381149,-114.0250626,72 Streeet & 210 Avenue Southeast,210 Ave SE,Calgary,210 Ave SE Calgary
43.68483462,-79.39232183,Cineplex Entertainment,1303 Yonge St,Toronto,1303 Yonge St Toronto
43.83881275,-79.38160539,55 Commerce Valley Dr W,55 Commerce Valley Dr W,Markham,55 Commerce Valley Dr W Markham
43.7704047,-79.3262256,501 Consumers Road,501 Consumers Road,North York,501 Consumers Road North York
43.21793747,-79.67800903,903 Barton Street,903 Barton St,Hamilton,903 Barton St Hamilton
43.25695801,-79.85825348,Wellington Place,125 Wellington St N,Hamilton,125 Wellington St N Hamilton
49.83044819,-119.6143064,Carrington View,2220 Majoros Rd,West Kelowna,2220 Majoros Rd West Kelowna
44.45378982,-80.31728077,County Rd 19,County Rd 19,The Blue Mountains,County Rd 19 The Blue Mountains
43.12793322,-80.33476769,21 York Road,21 York Road,Brant,21 York Road Brant
43.12755585,-80.33367157,Confederation Freezers York,21 York Rd,Brantford,21 York Rd Brantford
43.6552204,-79.83704011,9763 Heritage Road,9763 Heritage Road,Brampton,9763 Heritage Road Brampton
49.1343903,-123.0630692,Riverport Flats,14088 Riverport Way,Richmond,14088 Riverport Way Richmond
43.8440163,-79.01363952,2198 Bayly Road,2198 Bayly Road,Ajax,2198 Bayly Road Ajax
43.86646732,-79.58436584,11011 Pine Valley Drive,11011 Pine Valley Drive,Vaughan,11011 Pine Valley Drive Vaughan
46.840994,-71.328769,L'Aristocrate,2300 Rue de Bilbao,Quebec,2300 Rue de Bilbao Quebec
42.944664,-81.2874527,Springbank Village,916 Wonderland Rd S,London,916 Wonderland Rd S London
45.367088,-75.940062,1020-1070 March Road,1020 March Road,Kanata,1020 March Road Kanata
,,48 Lowes Place & 50 Resources Road,48 Lowes Place & 50 Resources Road,Etobicoke,48 Lowes Place & 50 Resources Road Etobicoke
43.9864782,-79.4408681,5 - 70 Archerhill Court,5 - 70 Archerhill Court,Aurora,5 - 70 Archerhill Court Aurora
43.8365875,-79.3253527,100 Gough Road,100 Gough Road,Markham,100 Gough Road Markham
49.28557968,-123.1312943,945 Jervis Street,945 Jervis St,Vancouver,945 Jervis St Vancouver
45.5178295,-73.481134,Carrefour des Erables,2281 Rue Joliette,Longueuil,2281 Rue Joliette Longueuil
,,10112 119 St,10112 119 St,Edmonton,10112 119 St Edmonton
45.51483962,-73.71823375,57-615 Henri-Bourassa Boulevard West,57 Henri-Bourassa Boulevard West,Saint-Laurent,57 Henri-Bourassa Boulevard West Saint-Laurent
,,Bramrose Square,Bramrose Square,Brampton,Bramrose Square Brampton
50.4469841,-104.5515893,Victoria Square,2223 Victoria Ave E,Regina,2223 Victoria Ave E Regina
49.28967667,-123.1406326,Park West,1869 Comox St,Vancouver,1869 Comox St Vancouver
,,County Road No. 27,- County Road No. 27,Innisfil,- County Road No. 27 Innisfil
45.42076874,-75.69464111,The Carleton Suite Hotel,161 Laurier Avenue West,Ottawa,161 Laurier Avenue West Ottawa
45.4456035,-75.6374807,Montfort Manor,550 Langs Rd,Ottawa,550 Langs Rd Ottawa
49.3176941,-123.100162,"945-949, 955, 961 & 967-999 West 1st Street",945 West 1st Street,North Vancouver,945 West 1st Street North Vancouver
45.4063662,-75.704623,324 Cambridge Street,324 Cambridge Street,Ottawa,324 Cambridge Street Ottawa
43.16611225,-80.21826506,10 Abbott Court,10 Abbott Ct,Brantford,10 Abbott Ct Brantford
,,"6399, 6415 & 6435 Victoria Drive","6399, 6415 & 6435 Victoria Drive",Vancouver,"6399, 6415 & 6435 Victoria Drive Vancouver"
43.61657715,-79.48669434,2335 Lake Shore Boulevard West,2335 Lake Shore Blvd W,Toronto,2335 Lake Shore Blvd W Toronto
43.4923296,-79.6763659,Oakwoods Centre,1899  Ironoak Way,Oakville,1899  Ironoak Way Oakville
43.7346455,-79.38034272,2395 Bayview Avenue,2395 Bayview Avenue,North York,2395 Bayview Avenue North York
,,Mayfair Self Storage,1385 Crown Street,North Vancouver,1385 Crown Street North Vancouver
42.787391,-81.1635945,170 Edward St,170 Edward St,Saint Thomas,170 Edward St Saint Thomas
46.841449,-71.323296,Domaine des Méandres,2275 Rue Des Bienfaits,Quebec,2275 Rue Des Bienfaits Quebec
49.32926941,-123.1703186,The Shoreland Apartments,2190 Bellevue Avenue,West Vancouver,2190 Bellevue Avenue West Vancouver
53.0000681,-106.3908978,3790 Highway No. 7,3790 Highway No. 7,Vaughan,3790 Highway No. 7 Vaughan
,,8 Henri-Bourassa Boulevard West,8 Henri-Bourassa Boulevard West,Saint-Laurent,8 Henri-Bourassa Boulevard West Saint-Laurent
49.2896617,-123.1406857,Park West,1869 Comox Street,Vancouver,1869 Comox Street Vancouver
49.20855224,-123.0967798,403 E Kent Ave N,403 E Kent Ave N,Vancouver,403 E Kent Ave N Vancouver
43.793099,-79.2252377,601 - 607 Milner Avenue,601 Milner Avenue,Scarborough,601 Milner Avenue Scarborough
48.44977585,-123.515866,1060 Goldstream Ave,1060 Goldstream Ave,Langford,1060 Goldstream Ave Langford
43.59813305,-79.55295643,2189 Lakeshore Boulevard West,2189 Lakeshore Boulevard West,Etobicoke,2189 Lakeshore Boulevard West Etobicoke
43.80241013,-79.49703217,2160 & 2180 Highway No. 7,2160 Highway No. 7,Vaughan,2160 Highway No. 7 Vaughan
43.83362579,-79.05797577,1400 Squires Beach Rd,1400 Squires Beach Rd,Pickering,1400 Squires Beach Rd Pickering
49.2810615,-123.1196819,800 & 804 Granville Street,800 Granville Street,Vancouver,800 Granville Street Vancouver
49.20845413,-123.0954971,455 E Kent Ave N,455 E Kent Ave N,Vancouver,455 E Kent Ave N Vancouver
43.68365363,-79.72572374,Glidden Road,Glidden Road,Brampton,Glidden Road Brampton
43.70269082,-79.79322505,190 Bovaird Dr W,190 Bovaird Dr W,Brampton,190 Bovaird Dr W Brampton
45.4501,-75.7529,Habitat du Lac Leamy,46 Rue Bedard,Gatineau,46 Rue Bedard Gatineau
49.2717423,-123.0870216,960 EVANS,960 EVANS,Vancouver,960 EVANS Vancouver
43.4790839,-80.52588312,Preston House,Preston House,Waterloo,Preston House Waterloo
43.50661087,-79.86076355,6791 Regional Road No 25,6791 Regional Rd No 25,Milton,6791 Regional Rd No 25 Milton
43.513671,-79.882817,6791 Regional Road No. 25,6791 Regional Road No. 25,Milton,6791 Regional Road No. 25 Milton
43.75200272,-79.46533203,1100 Sheppard Avenue West,1100 Sheppard Avenue West,North York,1100 Sheppard Avenue West North York
43.83175077,-79.06395352,1734-1738 Orangebrook Court,1734 Orangebrook Court,Pickering,1734 Orangebrook Court Pickering
43.7240068,-79.6906159,240 Nuggett Court,240 Nuggett Court,Brampton,240 Nuggett Court Brampton
45.5792926,-73.608734,Coopérative de Solidarité les Voisins de Viau-Robert,Robert Boulevard,Saint-Léonard,Robert Boulevard Saint-Léonard
,,5360 & 5400 Thickson Road,5360 & 5400 Thickson Road,Whitby,5360 & 5400 Thickson Road Whitby
43.88928462,-79.37495327,Woodbine Ave ,Woodbine Ave,Markham,Woodbine Ave Markham
43.704143,-79.696183,390 Orenda Road,390 Orenda Road,Brampton,390 Orenda Road Brampton
49.202557,-122.660956,11310 KINGSTON ST,11310 KINGSTON ST,Maple Ridge,11310 KINGSTON ST Maple Ridge
49.26769638,-123.1051941,5 W 4th Ave,5 W 4th Ave,Vancouver,5 W 4th Ave Vancouver
,,"4700& 5200 & 6500 144th Avenue NW, 15505& 15390 Symons Valley Road NW",4700 144th Avenue NW,Calgary,4700 144th Avenue NW Calgary
43.16877365,-80.22593689,115 Sinclair Boulevard,115 Sinclair Blvd,Brantford,115 Sinclair Blvd Brantford
49.29130515,-123.1367941,Park Lane Towers,1825 Haro Street,Vancouver,1825 Haro Street Vancouver
51.158545,-114.4718348,Points West Living Cochrane,60 Fireside Gate,Cochrane,60 Fireside Gate Cochrane
43.70741283,-79.39034963,758 Mount Pleasant Road,758 Mount Pleasant Road,Old Toronto,758 Mount Pleasant Road Old Toronto
49.2859918,-123.1169132,435-437 West Pender Street,435-437 West Pender Street,Vancouver,435-437 West Pender Street Vancouver
49.2824713,-123.1186283,6137 GRANVILLE,6137 GRANVILLE,Vancouver,6137 GRANVILLE Vancouver
45.59445572,-73.54721693,5975-5995 de l'Authion Avenue,5975 de l'Authion Avenue,Mercier-Hochelaga-Maisonneuve,5975 de l'Authion Avenue Mercier-Hochelaga-Maisonneuve
43.79241985,-79.62785969,Countryside Drive,Countryside Drive,Brampton,Countryside Drive Brampton
43.93027115,-78.87722778,1221 Simcoe Street North,1221 Simcoe Street North,Oshawa,1221 Simcoe Street North Oshawa
45.6267026,-73.6556066,875 Montée Saint-Francois ,875 Montée Saint-Francois,Laval,875 Montée Saint-Francois Laval
49.2828959,-122.783195,1160 Inlet Street,1160 Inlet Street,Coquitlam,1160 Inlet Street Coquitlam
49.14410782,-122.8545609,Newton Omniplex,13290 78 Ave,Surrey,13290 78 Ave Surrey
45.47992288,-73.77884293,Terminal 2800,2800 Ave Andre,Dorval,2800 Ave Andre Dorval
43.68830354,-79.76266087,"130 Main Street North, 7 & 11 Church Street East & 6 Nelson Street East",7 Church Street East,Brampton,7 Church Street East Brampton
43.67122269,-79.83699036,10244 Mississauga Rd,10244 Mississauga Rd,Brampton,10244 Mississauga Rd Brampton
,,5885 boul. Cavendish,5885 boul. Cavendish,Côte St-Luc,5885 boul. Cavendish Côte St-Luc
43.72078323,-79.50558472,1505 - 1525 Wilson Avenue,1505 Wilson Avenue,North York,1505 Wilson Avenue North York
45.5042623,-75.7615328,des Grands-Jardins Avenue,8-71 Grands Jardins,Ville de Gatineau,8-71 Grands Jardins Ville de Gatineau
43.98473037,-79.25897685,12875 Ninth Line,12875 Ninth Line,Whitchurch-Stouffville,12875 Ninth Line Whitchurch-Stouffville
43.51128387,-79.62551117,920 Inverhouse Drive,920 Inverhouse Drive,Mississauga,920 Inverhouse Drive Mississauga
43.928028,-78.874208,Tower on the Green,1140 Mary St N,Oshawa,1140 Mary St N Oshawa
45.384182,-75.59140629,4055 and 4120 Russell Road,4055 Russell Road,Gloucester,4055 Russell Road Gloucester
49.2780745,-123.1281679,1200 HORNBY,1200 HORNBY,Vancouver,1200 HORNBY Vancouver
49.28842163,-123.1334381,Villa Cardello,1580 Haro St,Vancouver,1580 Haro St Vancouver
49.26183319,-123.0982513,Best Western Plus Uptown Hotel,205 Kingsway,Vancouver,205 Kingsway Vancouver
49.20730209,-123.1396332,Royal Villa ,8675 French St,Vancouver,8675 French St Vancouver
43.43590546,-80.51593018,Westwinds Apartments,10 Highland Crescent,Kitchener,10 Highland Crescent Kitchener
43.45009232,-79.66551208,Rockliffe Park Suites,135 Allan Street,Oakville,135 Allan Street Oakville
43.64809036,-79.39569855,147 Spadina Avenue,147 Spadina Ave,Toronto,147 Spadina Ave Toronto
49.03683853,-122.2313232,Parallel Marketplace ,1920 N Parallel Rd,Abbotsford,1920 N Parallel Rd Abbotsford
43.1599401,-79.2551692,165 Ontario Street,165 Ontario Street,Saint Catharines,165 Ontario Street Saint Catharines
43.8477577,-79.3641154,55 East Valhalla Drive,55 East Valhalla Drive,Markham,55 East Valhalla Drive Markham
43.84782452,-79.36232384,55 East Valhalla Drive,Cochrane Dr,Markham,Cochrane Dr Markham
43.83558,-79.4052526,Bayview Avenue,Bayview Avenue,Markham,Bayview Avenue Markham
43.6805798,-79.7171122,69 First Gulf Boulevard,69 First Gulf Boulevard,Brampton,69 First Gulf Boulevard Brampton
43.38178635,-80.40183258,140 Old Mill Road,140 Old Mill Rd,Cambridge,140 Old Mill Rd Cambridge
43.79389877,-79.63098454,Line Drive,Line Drive,Vaughan,Line Drive Vaughan
43.58989819,-79.8178076,15145 Steeles Avenue,15145 Steeles Avenue,Halton Hills,15145 Steeles Avenue Halton Hills
45.46369129,-73.33788157,1537 de Chambly Road,Bellerive Road,Carignan,Bellerive Road Carignan
45.78405762,-74.02796936,Foliot Furniture,721 Blvd Roland-Godard,Saint-Jerome,721 Blvd Roland-Godard Saint-Jerome
43.7799138,-79.5209466,12746 Jane Street,12746 Jane Street,Vaughan,12746 Jane Street Vaughan
43.40463638,-79.73047638,Mancor Industries,2485 Speers Rd,Oakville,2485 Speers Rd Oakville
31.76383105,-84.61210325,229 College Street,229 College Street,,229 College Street 
43.68833702,-79.35479031,5 - 19 Cosburn Avenue & 8 - 40 Gowan Avenue,5 Cosburn Avenue,East York,5 Cosburn Avenue East York
43.1606946,-79.91613674,3054 Homestead Drive,3054 Homestead Drive,Hamilton,3054 Homestead Drive Hamilton
43.93216705,-78.87104034,191 Nonquon Road,191 Nonquon Road,Oshawa,191 Nonquon Road Oshawa
,,620 boul. de l?Industrie,620 boul. de l?Industrie,St-Paul,620 boul. de l?Industrie St-Paul
43.83057717,-79.12201858,1822 Whites Road North,1822 Whites Rd N,Pickering,1822 Whites Rd N Pickering
53.5239191,-113.7765951,279 St & 89 Ave,279 St And 89 Ave,Spruce Grove,279 St And 89 Ave Spruce Grove
49.2834194,-123.103877,323 & 369 Alexander Street,323 Alexander Street,Vancouver,323 Alexander Street Vancouver
45.35371695,-75.77889068,1050 - 1051 Baxter Road,1050 Baxter Road,Ottawa,1050 Baxter Road Ottawa
43.68788147,-79.76125336,6 Nelson St E,6 Nelson St E,Brampton,6 Nelson St E Brampton
43.46305718,-80.14831567,Nestle Waters Canada,95 Brock Rd S,Guelph,95 Brock Rd S Guelph
43.6141787,-79.4980698,266 Royal York Road,266 Royal York Road,Etobicoke,266 Royal York Road Etobicoke
43.73916254,-79.34287381,10 Wingreen Court,10 Wingreen Ct,Toronto,10 Wingreen Ct Toronto
51.1117178,-113.9463031,6520 Falconridge Boulevard NE,6520 Falconridge Boulevard NE,Calgary,6520 Falconridge Boulevard NE Calgary
43.55410385,-79.58724976,26 Park Street East,26 Park Street East,Mississauga,26 Park Street East Mississauga
,,"5360, 5400, & 5676 Thickson Road","5360, 5400, & 5676 Thickson Road",Whitby,"5360, 5400, & 5676 Thickson Road Whitby"
46.83391571,-71.30219269,1600 Blvd Lebourgneuf,1600 Blvd Lebourgneuf,Quebec,1600 Blvd Lebourgneuf Quebec
43.6771174,-79.7130854,132 First Gulf Boulevard,132 First Gulf Boulevard,Brampton,132 First Gulf Boulevard Brampton
51.18496255,-115.5588594,Rundlestone Lodge,537 Banff Ave,Banff,537 Banff Ave Banff
49.05161667,-122.377594,30553 Great Northern Avenue & 2707 - 2771 Progressive Way,30553 Great Northern Avenue & 2707 - 2771 Progressive Way,Abbotsford,30553 Great Northern Avenue & 2707 - 2771 Progressive Way Abbotsford
,,16174 80th Avenue,16174 80th Avenue,Surrey,16174 80th Avenue Surrey
46.8548394,-71.2810245,Villas Cortina,511 Blvd Louis-XIV,Quebec,511 Blvd Louis-XIV Quebec
43.3723144,-79.77976,4216 South Service Road,4216 South Service Road,Burlington,4216 South Service Road Burlington
48.42956543,-123.4025345,948 Esquimalt Road,948 Esquimalt Rd,Victoria,948 Esquimalt Rd Victoria
43.88215572,-79.22695684,Highway No. 7 East,Highway No. 7 East,Markham,Highway No. 7 East Markham
43.4082786,-80.3073386,1245 Franklin Boulevard,1245 Franklin Boulevard,Cambridge,1245 Franklin Boulevard Cambridge
43.70716875,-79.39793626,ePlace (Retail),Yonge St And Eglinton Ave E,Toronto,Yonge St And Eglinton Ave E Toronto
49.23684692,-122.7633209,1634-1638 Kebet Way,1634 Kebet Way,Port Coquitlam,1634 Kebet Way Port Coquitlam
43.45005798,-79.66674042,Rockliffe Terrace,150 Allan Street,Oakville,150 Allan Street Oakville
45.43115234,-75.68075562,Rideau & Chapel,153 Chapel St,Ottawa,153 Chapel St Ottawa
45.4908717,-75.4844473,1680 Vimont Court,1680 Vimont Court,Cumberland,1680 Vimont Court Cumberland
,,Chinook 58,324 58th Avenue SE,Calgary,324 58th Avenue SE Calgary
45.46991348,-73.81563568,5501 Trans-Canada Highway ,5501 Trans-Canada Highway,Pointe-Claire,5501 Trans-Canada Highway Pointe-Claire
49.13001365,-123.0973302,Riverside Centre,Riverside Centre,Richmond,Riverside Centre Richmond
49.2892714,-122.7559614,1500 COAST MERIDIAN RD,1500 COAST MERIDIAN RD,Coquitlam,1500 COAST MERIDIAN RD Coquitlam
49.25152465,-122.9678374,Fortius Sport & Health,Fortius Sport & Health,Burnaby,Fortius Sport & Health Burnaby
42.95232773,-81.28947449,The Westmount,740 Wonderland Rd S,London,740 Wonderland Rd S London
43.50082687,-79.73676837,3275 Trafalgar Road,3275 Trafalgar Road,Oakville,3275 Trafalgar Road Oakville
49.2450276,-123.063661,2075 Kingsway,2075 Kingsway,Vancouver,2075 Kingsway Vancouver
49.183541,-122.7900724,9953 156 ST,9953 156 ST,Surrey,9953 156 ST Surrey
43.6342515,-79.5610521,251 - 285 The West Mall,285 The West Mall,Etobicoke,285 The West Mall Etobicoke
,,3400-3470 Louis-Pasteur,3400-3470 Louis-Pasteur,Trois-Rivières,3400-3470 Louis-Pasteur Trois-Rivières
49.31776047,-123.1011429,971 West 1st Street,971 W 1st St,North Vancouver,971 W 1st St North Vancouver
42.28061225,-71.16042231,British High Commission Building,80 Elgin Street,,80 Elgin Street 
53.4203,-113.4491,Sunset Valley,6120 And 6124 Stanton Dr,Edmonton,6120 And 6124 Stanton Dr Edmonton
,,1300-1330 Sherbrooke West Street,1300 Sherbrooke West Street,Ville-Marie,1300 Sherbrooke West Street Ville-Marie
42.9610725,-82.3507976,269-275 Finch Dr,269-275 Finch Dr,Sarnia,269-275 Finch Dr Sarnia
43.1520269,-80.22680569,411 Elgin Street,411 Elgin Street,Brantford,411 Elgin Street Brantford
43.46735801,-79.68175246,450 Iroquois Shore Road,450 Iroquois Shore Road,Oakville,450 Iroquois Shore Road Oakville
43.830841,-79.6952804,11462 Coleraine Drive,11462 Coleraine Drive,Brampton,11462 Coleraine Drive Brampton
43.71323395,-79.34598541,235 Wicksteed Avenue,235 Wicksteed Avenue,East York,235 Wicksteed Avenue East York
43.713794,-79.845027,Chinguacousy Rd,Chinguacousy Rd,Brampton,Chinguacousy Rd Brampton
49.1854231,-122.6606296,20233 100A Avenue,20233 100A Avenue,Langley,20233 100A Avenue Langley
53.4211618,-113.4525817,6120 Stanton Drive SW,6120 Stanton Drive SW,Edmonton,6120 Stanton Drive SW Edmonton
49.2323871,-123.0233911,8700 BOUNDARY RD,8700 BOUNDARY RD,Burnaby,8700 BOUNDARY RD Burnaby
,,420 Tapscott Road & 31 Melford Drive,420 Tapscott Road & 31 Melford Drive,Scarborough,420 Tapscott Road & 31 Melford Drive Scarborough
49.2866171,-123.1295674,Cresta,855 Jervis St,Vancouver,855 Jervis St Vancouver
49.2328732,-123.123905,"277, 289 & 291 West 42nd Avenue",277 West 42nd Avenue,Vancouver,277 West 42nd Avenue Vancouver
45.9052153,-72.5235686,3000 Girardin,3000 Girardin,Drummondville,3000 Girardin Drummondville
49.32872772,-123.1667709,The Westwind,2025 Bellevue Ave,West Vancouver,2025 Bellevue Ave West Vancouver
45.4693215,-73.7896279,2001 des Sources Boulevard ,2001 des Sources Boulevard,Pointe-Claire,2001 des Sources Boulevard Pointe-Claire
42.27163315,-82.99803162,655 Sydney Ave,655 Sydney Ave,Windsor,655 Sydney Ave Windsor
49.2307479,-123.0062878,5235 KINGSWAY,5235 KINGSWAY,Burnaby,5235 KINGSWAY Burnaby
43.90823364,-78.81256866,1414 King Street East,1414 King St E,Clarington,1414 King St E Clarington
49.28479004,-123.1362152,1454 Pendrell Street,1454 Pendrell Street,Vancouver,1454 Pendrell Street Vancouver
43.09308338,-80.57833919,473 Sixth Concession Road,473 Sixth Concession Road,Brant,473 Sixth Concession Road Brant
43.7751953,-79.3226162,2901 Sheppard Avenue East,2901 Sheppard Avenue East,Scarborough,2901 Sheppard Avenue East Scarborough
53.25237764,-113.5783502,Windrose Townhomes,61 Windrose Dr,Leduc,61 Windrose Dr Leduc
50.99027002,-113.9663767,Barlow Centre,4760 72 Ave SE,Calgary,4760 72 Ave SE Calgary
,,4747 Côte-Vertu Boulevard,4747 de la Côte-Vertu Boulevard,Saint-Laurent,4747 de la Côte-Vertu Boulevard Saint-Laurent
45.408774,-75.69473284,Ottawa Central Station,265 Catherine St,Ottawa,265 Catherine St Ottawa
43.41656876,-80.43514252,190 Goodrich Drive & Wabanaki Drive,190 Goodrich Drive,Kitchener,190 Goodrich Drive Kitchener
44.011575,-79.462514,200 Industrial Parkway North,200 Industrial Pkwy N,Aurora,200 Industrial Pkwy N Aurora
43.65233231,-79.35601044,Front St E,Front St E,Toronto,Front St E Toronto
43.78571864,-79.41719351,5858 Yonge Street,5858 Yonge Street,North York,5858 Yonge Street North York
49.2714115,-123.1517713,The Monterey,2040 York Ave,Vancouver,2040 York Ave Vancouver
43.20145246,-79.9637022,Garner Rd E,Garner Rd E,Hamilton,Garner Rd E Hamilton
43.9301139,-78.7970462,Trulls Road & Pebblestone Road,Trulls Road,Clarington,Trulls Road Clarington
43.62366867,-79.62637329,4496 Tomken Road,4496 Tomken Road,Mississauga,4496 Tomken Road Mississauga
,,Rodeo Square,Rodeo Square,Surrey,Rodeo Square Surrey
43.7909947,-79.4184938,6080 Yonge Street,6080 Yonge Street,North York,6080 Yonge Street North York
42.990228,-81.292455,Horizon Place,760 Horizon Dr,London,760 Horizon Dr London
44.21838,-79.4447767,23550 Woodbine Ave,23550 Woodbine Ave,Georgina,23550 Woodbine Ave Georgina
45.5270501,-73.5509933,Esplanade Cartier,Parthenais Street,Ville-Marie,Parthenais Street Ville-Marie
42.9317,-81.2075,1020 Adelaide St S,1020 Adelaide St S,London,1020 Adelaide St S London
43.74285752,-79.31523981,75 Curlew Drive,75 Curlew Dr,Toronto,75 Curlew Dr Toronto
44.3441082,-79.6244099,#NAME?,#NAME?,Barrie,#NAME?
43.6634724,-79.7356394,137 Steeles Avenue West,137 Steeles Avenue West,Brampton,137 Steeles Avenue West Brampton
,,4007 108 St,4007 108 St,Edmonton,4007 108 St Edmonton
49.28296661,-123.139183,Bay Tower,1461 Harwood St,Vancouver,1461 Harwood St Vancouver
43.6509625,-79.3979049,222 Spadina Avenue,222 Spadina Avenue,Old Toronto,222 Spadina Avenue Old Toronto
,,2356-2382 Golf Club Road,2356-2382 Golf Club Road,Hamilton,2356-2382 Golf Club Road Hamilton
45.62137222,-73.56984711,9989-10001 Ray-Lawson Boulevard,9989 Ray-Lawson Boulevard,Anjou,9989 Ray-Lawson Boulevard Anjou
49.15379475,-122.9434987,"10064, 10075 & 10104 River Road",10064 River Road,Delta,10064 River Road Delta
43.70421003,-79.59006272,250 Brockport Drive,250 Brockport Drive,Etobicoke,250 Brockport Drive Etobicoke
49.29109192,-123.1387329,The Glenmore,1885 Barclay St,Vancouver,1885 Barclay St Vancouver
43.81104279,-79.52292633,130 Pippin Rd,130 Pippin Rd,Vaughan,130 Pippin Rd Vaughan
45.281749,-72.128679,Magog Shopping Centre,1935 Rue Sherbrooke,Magog,1935 Rue Sherbrooke Magog
48.42459869,-123.3659973,685 Fort St,685 Fort St,Victoria,685 Fort St Victoria
43.18600845,-79.23000336,Elizabeth High Tower,378 Vine St,Saint Catharines,378 Vine St Saint Catharines
45.4207339,-75.6941284,Gillin Building,141 Laurier Avenue West,,141 Laurier Avenue West 
46.3454647,-72.5427615,950 Royale,950 Royale,Trois-Rivières,950 Royale Trois-Rivières
43.74041367,-79.2707901,893 Kennedy Road,893 Kennedy Road,Scarborough,893 Kennedy Road Scarborough
43.65705872,-79.6100235,5255 Satellite Drive,5255 Satellite Drive,,5255 Satellite Drive 
44.05784882,-79.49521351,Woodspring Ave,Woodspring Ave,Newmarket,Woodspring Ave Newmarket
45.4294664,-75.7102048,Four Points by Sheraton Hôtel et Centre de conférences Gatineau-Ottawa,Laurier Street 35,Ville de Gatineau,Laurier Street 35 Ville de Gatineau
42.95957184,-81.20964813,1 Frontenac Rd,1 Frontenac Rd,London,1 Frontenac Rd London
49.29121399,-123.1397934,Windsor,1924 Barclay St,Vancouver,1924 Barclay St Vancouver
43.49940491,-79.63847351,2510 Royal Windsor Drive,2510 Royal Windsor Drive,Mississauga,2510 Royal Windsor Drive Mississauga
43.89746554,-79.54801725,11950 Jane Street,11950 Jane Street,Vaughan,11950 Jane Street Vaughan
45.4812328,-73.7913299,7500 route Transcanadienne,7500 route Transcanadienne,Pointe-Claire,7500 route Transcanadienne Pointe-Claire
45.5322243,-73.4847695,Centre Jacques-Cartier ,1395 de Chambly Road,Vieux-Longueuil,1395 de Chambly Road Vieux-Longueuil
45.4822169,-73.7875772,2285-2350 pl. Transcanadienne,2285-2350 pl. Transcanadienne,Dorval,2285-2350 pl. Transcanadienne Dorval
49.118179,-122.4927183,2883 & 2931 264th Street; 26292 29th Avenue,2883  264th Street,Langley,2883  264th Street Langley
51.07675085,-115.3199444,110 Bow Meadows Cres,110 Bow Meadows Cres,Canmore,110 Bow Meadows Cres Canmore
45.42575073,-76.36791992,Arnprior Shopping Centre,375 Daniel St S,Arnprior,375 Daniel St S Arnprior
43.84029988,-79.70724061,12125 Coleraine Drive,12125 Coleraine Drive,Caledon,12125 Coleraine Drive Caledon
45.73093796,-73.60124207,425 Sicard Street,425 Sicard Street,Mascouche,425 Sicard Street Mascouche
43.61929806,-79.52919615,1377 The Queensway,1377 The Queensway,Etobicoke,1377 The Queensway Etobicoke
40.7380439,-73.7950987,20385 64th Avenue,20385 64th Avenue,,20385 64th Avenue 
49.11940002,-122.6578674,20385 64 Ave,20385 64 Ave,Langley,20385 64 Ave Langley
43.93235016,-78.86988831,1266 Pentland Street,1266 Pentland Street,Oshawa,1266 Pentland Street Oshawa
43.68671036,-79.39926147,111 St Clair Avenue West (Ground Floor Retail & Underground Parking),111 St Clair Avenue West,Old Toronto,111 St Clair Avenue West Old Toronto
49.1747961,-123.1407862,5431-5551 Minoru Boulevard,5431 Minoru Boulevard,Richmond,5431 Minoru Boulevard Richmond
49.192002,-123.0778179,Bridgeport Centre,11938 BRIDGEPORT RD,Richmond,11938 BRIDGEPORT RD Richmond
43.45186321,-79.67171155,265 Reynolds Street,265 Reynolds Street,Oakville,265 Reynolds Street Oakville
43.74809349,-79.46324539,Allen Rd,Allen Rd,Toronto,Allen Rd Toronto
,,400 Bélanger / 480-500 Rousseau,400 Bélanger / 480-500 Rousseau,Québec,400 Bélanger / 480-500 Rousseau Québec
43.6919537,-79.7263605,382 - 396 Clarence Street,382 Clarence Street,Brampton,382 Clarence Street Brampton
45.4652892,-73.8177941,6000 Transcanada Highway,6000 Transcanada Highway,Pointe-Claire,6000 Transcanada Highway Pointe-Claire
43.1951673,-80.2238163,#NAME?,#NAME?,Brant,#NAME?
43.5213149,-79.8940662,150 Steeles Avenue East,150 Steeles Avenue East,Milton,150 Steeles Avenue East Milton
43.6478095,-79.6847278,6660 Kennedy Road,6660 Kennedy Road,Mississauga,6660 Kennedy Road Mississauga
43.6846408,-79.7235399,297 Rutherford Road South,297 Rutherford Road South,Brampton,297 Rutherford Road South Brampton
,,12974 88th Avenue,12974 88th Avenue,Surrey,12974 88th Avenue Surrey
43.5185084,-79.8970326,fmr MSSC,150 Steeles Ave E,Milton,150 Steeles Ave E Milton
43.2591537,-79.8656549,41 Wilson St,41 Wilson St,Hamilton,41 Wilson St Hamilton
45.52212524,-73.67253876,600 de la Cote-Vertu Boulevard West,600 de la Cote-Vertu Boulevard West,Saint-Laurent,600 de la Cote-Vertu Boulevard West Saint-Laurent
43.44666672,-80.51831818,"259, 275 and 335 Gage Avenue",275 Gage Avenue,Kitchener,275 Gage Avenue Kitchener
45.52439499,-73.70995331,11810 Ranger Street ,11810 Ranger Street,Ahuntsic-Cartierville,11810 Ranger Street Ahuntsic-Cartierville
53.54076702,-113.5298899,12021 Jasper Ave,12021 Jasper Ave,Edmonton,12021 Jasper Ave Edmonton
43.7159509,-79.464236,15 Leswyn Road,15 Leswyn Rd,Toronto,15 Leswyn Rd Toronto
49.3227648,-123.0687717,"1540 St. Georges Avenue, 215 & 235 East 16th Street",1540 St. Georges Avenue,North Vancouver,1540 St. Georges Avenue North Vancouver
,,17848 56th Avenue,17848 56th Avenue,Surrey,17848 56th Avenue Surrey
43.5006686,-79.6302773,551 Avonhead Road,551 Avonhead Road,Mississauga,551 Avonhead Road Mississauga
55.1411997,-118.8141901,6702 106 St,6702 106 St,Grande Prairie,6702 106 St Grande Prairie
43.677432,-79.763256,12 Henderson Avenue,12 Henderson Avenue,Brampton,12 Henderson Avenue Brampton
43.70848313,-79.6157918,Goreway Dr,Goreway Dr,Mississauga,Goreway Dr Mississauga
,,New Plex Industrial Center,New Plex Industrial Center,Surrey,New Plex Industrial Center Surrey
49.14293289,-122.8576889,Newplex,7677 132 St,Surrey,7677 132 St Surrey
43.93182755,-78.87286377,140 Nonquon Road,140 Nonquon Road,Oshawa,140 Nonquon Road Oshawa
45.49437714,-73.63076019,4080-4140 Côte-Sainte-Catherine Road ,4080 Côte-Sainte-Catherine Road,Côte-des-Neiges-Notre-Dame-de-Grâce,4080 Côte-Sainte-Catherine Road Côte-des-Neiges-Notre-Dame-de-Grâce
43.02138519,-81.18250275,1000 Clarke Rd,1000 Clarke Rd,London,1000 Clarke Rd London
44.3494129,-78.7547091,363 Kent Street West,363 Kent Street West,Kawartha Lakes,363 Kent Street West Kawartha Lakes
43.6483804,-79.3734927,65 Front Street East,65 Front Street East,Old Toronto,65 Front Street East Old Toronto
43.857591,-79.3835837,2 East Beaver Creek Road,2 East Beaver Creek Road,Richmond Hill,2 East Beaver Creek Road Richmond Hill
42.9225235,-81.24420166,375 Exeter Rd,375 Exeter Rd,London,375 Exeter Rd London
49.2834208,-123.1386496,Riviera,1270 Nicola St,Vancouver,1270 Nicola St Vancouver
43.02042,-81.213652,Huron Heights,1345-1365 Huron St,London,1345-1365 Huron St London
45.4969493,-73.5633679,LOT Montfort Street,Montfort Street,Ville-Marie,Montfort Street Ville-Marie
43.7724602,-79.4185951,68 - 78 Churchill Avenue,68 Churchill Avenue,North York,68 Churchill Avenue North York
49.2663304,-123.1568922,The Aquarius,2280 W 6th Ave,Vancouver,2280 W 6th Ave Vancouver
43.60192551,-79.80281925,16408 Steeles Ave,16408 Steeles Ave,Halton Hills,16408 Steeles Ave Halton Hills
43.60203543,-79.80382074,16408 Steeles Avenue,16408 Steeles Avenue,Halton Hills,16408 Steeles Avenue Halton Hills
42.97158813,-81.212883,96 King Edward Ave,96 King Edward Ave,London,96 King Edward Ave London
43.35749603,-79.8083812,3070 Mainway,3070 Mainway,Burlington,3070 Mainway Burlington
43.8728029,-78.9041327,Champlain Avenue & Stellar Drive,Champlain Avenue,Whitby,Champlain Avenue Whitby
49.2420392,-123.1495345,"809, 829, 849, 869 & 889 West 33rd Avenue",809 West 33rd Avenue,Vancouver,809 West 33rd Avenue Vancouver
43.42955992,-79.71832962,1290 South Service Road West,1290 South Service Road West,Oakville,1290 South Service Road West Oakville
45.38702774,-75.61953735,2220 Walkley Rd,2220 Walkley Rd,Ottawa,2220 Walkley Rd Ottawa
43.49555588,-79.6478653,2481 & 2529 Royal Windsor Drive,2481 Royal Windsor Drive,Oakville,2481 Royal Windsor Drive Oakville
45.38042068,-75.74771118,1619 Carling Avenue,1619 Carling Avenue,Ottawa,1619 Carling Avenue Ottawa
43.59199524,-79.59082031,"2364 Haines Road, 1104 Fewster Drive & 12 Strathearn Avenue",2364 Haines Road,Mississauga,2364 Haines Road Mississauga
43.71511459,-79.68405914,151 East Drive,151 East Dr,Brampton,151 East Dr Brampton
43.7142304,-79.894097,899 Old School Road,899 Old School Road,Caledon,899 Old School Road Caledon
45.25751155,-73.60860324,Saint-Remi Shopping Centre,750 Rue Saint-Paul,Saint-Remi,750 Rue Saint-Paul Saint-Remi
45.26029287,-73.6084191,Saint-Remi Shopping Centre,750 Rue Saint-Paul,Saint-Remi,750 Rue Saint-Paul Saint-Remi
43.62688828,-79.62327576,1104 Fewster Drive,1104 Fewster Dr,Mississauga,1104 Fewster Dr Mississauga
43.57098229,-79.84456567,8141 Hornby Road,8141 Hornby Road,Halton Hills,8141 Hornby Road Halton Hills
49.2595168,-123.1384049,2912 Granville Street,2912 Granville Street,Vancouver,2912 Granville Street Vancouver
51.1824874,-115.5665136,Irwin's Mountain Inn,Irwin's Mountain Inn,Banff,Irwin's Mountain Inn Banff
42.923606,-81.18161,1285 Hubrey Rd,1285 Hubrey Rd,London,1285 Hubrey Rd London
45.4444577,-73.622275,2301 De Cannes-Brûlées Street,2301 De Cannes-Brûlées Street,LaSalle,2301 De Cannes-Brûlées Street LaSalle
43.8580894,-79.3576423,36 Apple Creek Boulevard,36 Apple Creek Boulevard,Markham,36 Apple Creek Boulevard Markham
43.8265275,-79.3478565,20 Esna Park Drive,20 Esna Park Drive,Markham,20 Esna Park Drive Markham
43.6421637,-79.3965967,450 Front Street West,450 Front Street West,Old Toronto,450 Front Street West Old Toronto
43.73104858,-79.69633484,Manasha Packaging Corporation,240 Summerlea Road,Brampton,240 Summerlea Road Brampton
43.66100311,-79.63450623,1905 Shawson Drive,1905 Shawson Dr,Mississauga,1905 Shawson Dr Mississauga
53.5435493,-113.3116097,61 Broadway Blvd,61 Broadway Blvd,Sherwood Park,61 Broadway Blvd Sherwood Park
43.69800783,-80.36878204,Cherry Hill Shopping Centre,800 Tower St S,Centre Wellington,800 Tower St S Centre Wellington
43.6979494,-80.3683963,800 & 840 Tower Street South,800 Tower Street South,Centre Wellington,800 Tower Street South Centre Wellington
50.96552277,-113.9286804,SAIT Point Trotter,10490 72 Ave SE,Calgary,10490 72 Ave SE Calgary
43.46200123,-80.13779938,Brock Road South,Brock Road South,Guelph,Brock Road South Guelph
,,14354 Side Road No. 5,14354 Side Road No. 5,Halton Hills,14354 Side Road No. 5 Halton Hills
43.67475128,-79.39717102,Stanley Wagman & Son Antiques,224 Davenport Rd,Toronto,224 Davenport Rd Toronto
43.73984909,-79.61740112,279 Humberline Dr,279 Humberline Dr,Toronto,279 Humberline Dr Toronto
48.43011475,-123.4046555,980 Wordsley Street,980 Wordsley St,Victoria,980 Wordsley St Victoria
43.65992355,-79.73903656,245 Steeles Avenue West,245 Steeles Avenue West,Brampton,245 Steeles Avenue West Brampton
49.1788477,-123.1166777,9151 Alexandra Road,9151 Alexandra Road,Richmond,9151 Alexandra Road Richmond
43.83291245,-79.06512451,1735 Bayly Street,1735 Bayly Street,Pickering,1735 Bayly Street Pickering
43.23671341,-79.74734497,41 Brockley Drive,41 Brockley Dr,Hamilton,41 Brockley Dr Hamilton
,,350 - 368 Signet Drive & 355 Garyray Drive,350 - 368 Signet Drive & 355 Garyray Drive,North York,350 - 368 Signet Drive & 355 Garyray Drive North York
43.90988692,-78.71043992,100 Clarington Boulevard,100 Clarington Boulevard,Clarington,100 Clarington Boulevard Clarington
44.2187044,-79.4450711,Keswick Marketplace,23620 Woodbine Avenue,Georgina,23620 Woodbine Avenue Georgina
45.4897567,-73.7665207, 1750 autoroute Transcanadienne,1750 autoroute Transcanadienne,Dorval,1750 autoroute Transcanadienne Dorval
43.54746246,-79.87741852,Blue Line Distribution,8175 Lawson Rd,Milton,8175 Lawson Rd Milton
44.37503175,-78.7335022,405 St. David Street,405 St. David Street,Kawartha Lakes,405 St. David Street Kawartha Lakes
43.2606831,-79.8341641,274 Sherman Avenue North,274 Sherman Avenue North,Hamilton,274 Sherman Avenue North Hamilton
43.15477659,-79.78142284,2440 Golf Club Road,2440 Golf Club Road,Hamilton,2440 Golf Club Road Hamilton
43.71222305,-79.61985779,3965 Nashua Drive,3965 Nashua Drive,Mississauga,3965 Nashua Drive Mississauga
43.54617684,-79.87880328,8175 Lawson Road,8175 Lawson Road,Milton,8175 Lawson Road Milton
43.64219284,-79.62266541,1645 Aimco Boulevard,1645 Aimco Boulevard,Mississauga,1645 Aimco Boulevard Mississauga
43.5059964,-79.6793423,2670 Plymouth Dr,2670 Plymouth Dr,Oakville,2670 Plymouth Dr Oakville
43.64376831,-79.41155243,76 Stafford Street,76 Stafford St,Toronto,76 Stafford St Toronto
43.654395,-79.36408,134 Parliament Street,134 Parliament Street,Old Toronto,134 Parliament Street Old Toronto
43.67485046,-79.39680481,148-150 Avenue Rd,150 Avenue Rd,Toronto,150 Avenue Rd Toronto
49.2457293,-122.9746162,2848 & 2864 Norland Avenue,2848 Norland Avenue,Burnaby,2848 Norland Avenue Burnaby
49.2678376,-123.1467191,"1850, 1854, 1856, 1864 & 1866 West 4th Avenue",1850 West 4th Avenue,Vancouver,1850 West 4th Avenue Vancouver
,,1800 Yvette-Brillon Street,1800 Yvette-Brillon Street,Ahuntsic-Cartierville,1800 Yvette-Brillon Street Ahuntsic-Cartierville
43.8034935,-79.16940308,Camargue II,30 Dean Park Rd,Toronto,30 Dean Park Rd Toronto
42.98337173,-81.17044067,Accuride Canada Inc,31 Firestone Blvd,London,31 Firestone Blvd London
43.48559952,-80.54795074,516-532 Sunnydale Place & 204 Bearinger Road,516-532 Sunnydale Place,Waterloo,516-532 Sunnydale Place Waterloo
49.2548752,-122.9370966,3400 Lake City Way & 7832 Enterprise Street,3400 Lake City Way,Burnaby,3400 Lake City Way Burnaby
43.75496902,-79.26544142,1555 Midland Ave,1555 Midland Ave,Toronto,1555 Midland Ave Toronto
45.53436661,-73.54920959,Wong Wing Foods,1875 Rue Bercy,Montreal,1875 Rue Bercy Montreal
46.8297,-71.2786,325 Rue Marais,325 Rue Marais St,Quebec,325 Rue Marais St Quebec
43.70507796,-79.45563542,75 - 77 Tycos Drive,75 - 77 Tycos Drive,North York,75 - 77 Tycos Drive North York
43.93746567,-79.38467407,12116 Woodbine Ave,12116 Woodbine Ave,Whitchurch-Stouffville,12116 Woodbine Ave Whitchurch-Stouffville
43.53431273,-79.91594863,James Snow Parkway North,James Snow Pkwy N,Milton,James Snow Pkwy N Milton
43.5375682,-79.9183701,Escarpment Way,Escarpment Way,Milton,Escarpment Way Milton
46.0232795,-73.1035262,450 Boulevard Poliquin,450 Blvd Poliquin,Sorel-Tracy,450 Blvd Poliquin Sorel-Tracy
43.60516185,-79.52171948,20 Towns Road,20 Towns Road,Etobicoke,20 Towns Road Etobicoke
43.61623907,-79.51907396,249 Evans Avenue,249 Evans Avenue,Etobicoke,249 Evans Avenue Etobicoke
44.1622508,-77.3897372,Hillview Towers,60 Bridge St W,Belleville,60 Bridge St W Belleville
49.1310569,-123.0947923,12340 Horseshoe Way,12340 Horseshoe Way,Richmond,12340 Horseshoe Way Richmond
,,351 - 365 Royal York Road,351 - 365 Royal York Road,Etobicoke,351 - 365 Royal York Road Etobicoke
48.45378876,-123.39328,3185 Tillicum Road,3185 Tillicum Rd,Saanich,3185 Tillicum Rd Saanich
50.9367354,-114.0647368,10325 Bonaventure Dr SE,10325 Bonaventure Dr SE,Calgary,10325 Bonaventure Dr SE Calgary
49.32205963,-124.3242493,155 Moilliet St,155 Moilliet St,Parksville,155 Moilliet St Parksville
45.4643146,-73.7033906,3015 Louis-A-Amos Street,3015 Louis-A-Amos Street,Lachine,3015 Louis-A-Amos Street Lachine
45.63288498,-73.38602448,201 de l'Énergie Road ,201 de l'Énergie Road,Varennes,201 de l'Énergie Road Varennes
50.413009,-104.61819,Landmark Centre,4150 Albert St,Regina,4150 Albert St Regina
43.65425873,-79.65940857,1190 Meyerside Drive,1190 Meyerside Dr,Mississauga,1190 Meyerside Dr Mississauga
43.69445038,-79.71982574,11 Blair Drive,11 Blair Dr,Brampton,11 Blair Dr Brampton
49.1900674,-123.0835034,3351 Sweden Way,3351 Sweden Way,Richmond,3351 Sweden Way Richmond
43.76089859,-79.27070618,355 Attwell Drive,355 Attwell Drive,Etobicoke,355 Attwell Drive Etobicoke
49.2052048,-123.1373533,Rio Vista,1373 W 73rd Ave,Vancouver,1373 W 73rd Ave Vancouver
43.5087582,-79.6757325,2770 Plymouth Drive & 2169 Buckingham Road,2770 Plymouth Drive,Oakville,2770 Plymouth Drive Oakville
43.7991416,-79.19457616,880 Milner Avenue,880 Milner Avenue,Scarborough,880 Milner Avenue Scarborough
43.6985684,-79.2703811,55-61 Milne Avenue & 67 Butterworth Avenue,55 Milne Avenue,Scarborough,55 Milne Avenue Scarborough
43.82453537,-79.4927063,120 Spinnaker Way,120 Spinnaker Way,Vaughan,120 Spinnaker Way Vaughan
,,6868 210th Street,6868 210th Street,Langley,6868 210th Street Langley
45.60870959,-73.61249983,6200-6250 Henri-Bourassa East Boulevard,6200 Henri-Bourassa East Boulevard,Montréal-Nord,6200 Henri-Bourassa East Boulevard Montréal-Nord
43.949824,-78.8664982,Greenhill Avenue,Greenhill Avenue,Oshawa,Greenhill Avenue Oshawa
43.76810455,-79.55990601,4220 Steeles Ave W,4220 Steeles Ave W,Vaughan,4220 Steeles Ave W Vaughan
44.3262243,-79.69521451,42 Norris Drive,42 Norris Dr,Barrie,42 Norris Dr Barrie
45.6114533,-73.8548139,Plastibec,1825 Lionel-Bertrand Boulevard,Boisbriand,1825 Lionel-Bertrand Boulevard Boisbriand
51.1668315,-113.9621033,106 Redstone Street NE,106 Redstone Street NE,Calgary,106 Redstone Street NE Calgary
45.35352707,-75.64813995,2440 Bank St,2440 Bank St,Ottawa,2440 Bank St Ottawa
43.6877046,-79.4203325,1592 Bathurst Street,1592 Bathurst Street,York,1592 Bathurst Street York
49.2815125,-123.0824063,680 Raymur Avenue,680 Raymur Avenue,Vancouver,680 Raymur Avenue Vancouver
49.20636749,-123.1373062,Arbutus Court,8740 Cartier St,Vancouver,8740 Cartier St Vancouver
49.20601273,-123.1373062,Dennison Court ,8790 Cartier St,Vancouver,8790 Cartier St Vancouver
53.35314621,-113.5291486,502 25 Avenue,502 25 Ave,Leduc,502 25 Ave Leduc
43.85922623,-79.38298035,25 Mural St,25 Mural St,Richmond Hill,25 Mural St Richmond Hill
48.41583252,-123.3577576,1030 Pendergrast Street,1030 Pendergast St,Victoria,1030 Pendergast St Victoria
48.4153862,-123.3577805,1035 Pendergast Street,1035 Pendergast St,Victoria,1035 Pendergast St Victoria
50.47766113,-104.5703201,Kohl & Frisch Ltd,1110 Pettigrew Ave,Regina,1110 Pettigrew Ave Regina
43.6910337,-79.4741801,1860 - 1868 Keele Street,1860 Keele Street,York,1860 Keele Street York
43.38962173,-79.78238678,1309 Appleby Line,1309 Appleby Line,Burlington,1309 Appleby Line Burlington
45.49671936,-73.76065063,Kore Outdoor Inc,6000 Rue Kieran,Montreal,6000 Rue Kieran Montreal
,,1425 des Cyprès,1425 des Cyprès,Trois-Rivières,1425 des Cyprès Trois-Rivières
44.56533051,-80.94004059,Central Place Retirement Home  ,855 3rd Ave E,Owen Sound,855 3rd Ave E Owen Sound
43.643826,-79.3968131,432 Wellington Street West,432 Wellington Street West,Old Toronto,432 Wellington Street West Old Toronto
49.96973038,-125.2131348,2338 South Island Highway,2338 S Island Hwy,Campbell River,2338 S Island Hwy Campbell River
44.2523596,-76.5366468,Ambassador Hotel & Conference Centre,1550 Princess St,Kingston,1550 Princess St Kingston
42.90518543,-78.95012831,948 Garrison Road,948 Garrison Road,Fort Erie,948 Garrison Road Fort Erie
44.01108452,-77.15278625,Millenium Trail,Millenium Trl,Prince Edward County,Millenium Trl Prince Edward County
45.42050934,-75.69497681,The Metcalfe,123 Metcalfe Street,Ottawa,123 Metcalfe Street Ottawa
,,Lot vacant 4519893,Lot vacant 4519893,Québec,Lot vacant 4519893 Québec
43.68688965,-79.39389801,1406 Yonge Street,1406 Yonge Street,Old Toronto,1406 Yonge Street Old Toronto
43.66132586,-79.66826487,6999 Ordan Drive,6999 Ordan Drive,Mississauga,6999 Ordan Drive Mississauga
43.8851147,-79.4434138,55 Trayborn Drive,55 Trayborn Drive,Richmond Hill,55 Trayborn Drive Richmond Hill
43.9062066,-78.8669889,Simcoe Estates,333 Simcoe St N,Oshawa,333 Simcoe St N Oshawa
49.03136125,-122.2726764,1585 Riverside Road,1585 Riverside Road,Abbotsford,1585 Riverside Road Abbotsford
45.49657059,-73.73526764,2350 Cohen Street,2350 Cohen Street,Saint-Laurent,2350 Cohen Street Saint-Laurent
45.5715839,-73.7210256,2000  Chomedey Boulevard,2000  Chomedey Boulevard,Laval,2000  Chomedey Boulevard Laval
43.64832687,-79.41082001,68 Claremont St,68 Claremont St,Toronto,68 Claremont St Toronto
49.1012133,-122.6883863,18998 54 AVE,18998 54 AVE,Surrey,18998 54 AVE Surrey
49.1930934,-122.8547021,13256 105 AVE,13256 105 AVE,Surrey,13256 105 AVE Surrey
50.98535538,-113.953598,Fortress Studio,5616 76 Ave SE,Calgary,5616 76 Ave SE Calgary
49.26046725,-123.1353549,Le Garrie Court,1366 West 12th Avenue,Vancouver,1366 West 12th Avenue Vancouver
,,"2355, 2365, 2369 & 2383 153rd Street, 15262 & 15268 24th Avenue, 2350, 2360 & 2372 152A Street ","2355, 2365, 2369 & 2383 153rd Street, 15262 & 15268 24th Avenue, 2350, 2360 & 2372 152A Street ",Surrey,"2355, 2365, 2369 & 2383 153rd Street, 15262 & 15268 24th Avenue, 2350, 2360 & 2372 152A Street  Surrey"
43.3941633,-79.7115267,Harbourview Plaza,77 Bronte Road,Oakville,77 Bronte Road Oakville
,,4300 boul. Robert-Bourassa,4300 boul. Robert-Bourassa,Laval,4300 boul. Robert-Bourassa Laval
45.077841,-83.718157,775 1st Avenue ,775 1st Avenue,Lachine,775 1st Avenue Lachine
45.47877502,-73.6940155,4105-4355 Hickmore Street,4105 Hickmore Street,Saint-Laurent,4105 Hickmore Street Saint-Laurent
43.44536591,-80.50939178,"318, 332  and 352 Patricia Avenue",318 Patricia Avenue,Kitchener,318 Patricia Avenue Kitchener
43.65391159,-79.73232269,Southbrook Retirement Community,400 Ray Lawson Blvd,Brampton,400 Ray Lawson Blvd Brampton
43.64781952,-79.4023056,Shoppers Drug Mart,524 Queen St W,Toronto,524 Queen St W Toronto
44.34889967,-79.66906819,111 Ellis Drive,111 Ellis Drive,Barrie,111 Ellis Drive Barrie
44.3486824,-79.66687775,111 Ellis Dr,111 Ellis Dr,Barrie,111 Ellis Dr Barrie
43.68413162,-79.77043152,53 McMurchy Avenue North,53 McMurchy Ave N,Brampton,53 McMurchy Ave N Brampton
43.64163697,-79.42128557,41 Dovercourt Rd,41 Dovercourt Rd,Toronto,41 Dovercourt Rd Toronto
43.5444603,-79.82209778,11801 Derry Rd,11801 Derry Rd,Milton,11801 Derry Rd Milton
43.9048371,-80.1155506,120 C Line,120 C Line,Orangeville,120 C Line Orangeville
45.3990753,-75.6108445,2615 Lancaster Road,2615 Lancaster Road,Ottawa,2615 Lancaster Road Ottawa
53.51672503,-113.5001431,8019 105 St NW,8019 105 St NW,Edmonton,8019 105 St NW Edmonton
49.2502395,-123.0987813,2459 E 23RD,2459 E 23RD,Vancouver,2459 E 23RD Vancouver
43.4059186,-80.45574,120 Bullock Street,120 Bullock Street,Kitchener,120 Bullock Street Kitchener
43.37936862,-79.76569149,5109 Harvester Road,5109 Harvester Road,Burlington,5109 Harvester Road Burlington
43.73594666,-79.26878357,831 Kennedy Road,831 Kennedy Rd,Toronto,831 Kennedy Rd Toronto
43.0922578,-79.0777607,5871 Ellen Avenue & 5257 Ferry Street,5871 Ellen Avenue,Niagara Falls,5871 Ellen Avenue Niagara Falls
43.0897204,-79.0808468,Travelodge Hotel Niagara Falls by the Falls,5257 Ferry St,Niagara Falls,5257 Ferry St Niagara Falls
43.90260315,-78.83985138,Cedarcroft Place Retirement Community ,649 King Street East,Oshawa,649 King Street East Oshawa
53.5420279,-113.5143755,Stantec Centre,10130-10160 112th St,Edmonton,10130-10160 112th St Edmonton
43.68825531,-79.41283417,404 Spadina Road,404 Spadina Road,Old Toronto,404 Spadina Road Old Toronto
43.7666199,-79.78783,Mayfield Road,Mayfield Road,Brampton,Mayfield Road Brampton
43.6492338,-79.3957837,364 Queen Street West,364 Queen St W,Toronto,364 Queen St W Toronto
43.83334295,-79.70934486,Mayfield Rd,Mayfield Rd,Caledon,Mayfield Rd Caledon
,,4350-4376 de 'Hotel de Ville,4350-4376 de 'Hotel de Ville,Montréal,4350-4376 de 'Hotel de Ville Montréal
43.22071075,-79.67888641,881 Arvin Avenue,881 Arvin Avenue,Hamilton,881 Arvin Avenue Hamilton
49.145277,-122.943181,8099 NORDEL WAY,8099 NORDEL WAY,Delta,8099 NORDEL WAY Delta
45.36316299,-74.03942871,2050 Chicoine Street,2050 Chicoine Street,Vaudreuil-Dorion,2050 Chicoine Street Vaudreuil-Dorion
45.2410658,-75.89752199,6159 Flewellyn Road,6159 Flewellyn Road,Goulbourn,6159 Flewellyn Road Goulbourn
,,Lot 6371507,Lot 6371507,Montréal,Lot 6371507 Montréal
,,"17048,17032 & 17018 32 AVE","17048,17032 & 17018 32 AVE",Surrey,"17048,17032 & 17018 32 AVE Surrey"
45.6644778,-73.6408841,2000 Léopold-Hamelin,2000 Léopold-Hamelin,Laval,2000 Léopold-Hamelin Laval
53.6145196,-113.4571782,7505 75 St,7505 75 St,Edmonton,7505 75 St Edmonton
44.3911972,-79.69130707,19-21 Worsley Street & 65-85 Bayfield Street,19-21 Worsley Street & 65-85 Bayfield Street,Barrie,19-21 Worsley Street & 65-85 Bayfield Street Barrie
43.4056845,-80.4566248,#NAME?,Pearson Street,Kitchener,Pearson Street Kitchener
43.67490005,-79.39697266,152 Avenue Rd,152 Avenue Rd,Toronto,152 Avenue Rd Toronto
43.6449328,-79.3951153,64 Spadina Avenue,64 Spadina Avenue,Old Toronto,64 Spadina Avenue Old Toronto
49.1778811,-122.8362733,"13942, 13952 & 13962 Laurel Drive; 13943, 13953 & 13963 96th Avenue",13942 Laurel Drive,Surrey,13942 Laurel Drive Surrey
49.1771583,-122.8356761,13963 96 AVE,13963 96 AVE,Surrey,13963 96 AVE Surrey
43.7532815,-79.4485092,795 - 799 Sheppard Avenue West & 128 - 132 Gorman Park Road,795 Sheppard Avenue West,North York,795 Sheppard Avenue West North York
43.15570068,-79.10889435,184 Tanbark Road,184 Tanbark Rd,Pelham,184 Tanbark Rd Pelham
42.80234877,-81.15531588,70 Dennis Rd,70 Dennis Rd,Saint Thomas,70 Dennis Rd Saint Thomas
42.998806,-79.26810455,555 Prince Charles Dr N,555 Prince Charles Dr N,Welland,555 Prince Charles Dr N Welland
38.81759663,-90.69126145,555 Prince Charles Drive,555 Prince Charles Drive,,555 Prince Charles Drive 
,,7131 Fifth Sideroad,7131 Fifth Sideroad,Innisfil,7131 Fifth Sideroad Innisfil
43.50496495,-80.53467899,50 Frobisher Drive,50 Frobisher Drive,Waterloo,50 Frobisher Drive Waterloo
,,Lot vacant 6355448,Lot vacant 6355448,Ste-Julie,Lot vacant 6355448 Ste-Julie
49.26804352,-123.1054916,16 W 3rd Ave,16 W 3rd Ave,Vancouver,16 W 3rd Ave Vancouver
43.23056793,-79.70089722,590 South Service Road,590 South Service Road,Hamilton,590 South Service Road Hamilton
49.2803978,-123.0998735,Grace Seniors Home,333 East Pender Street,Vancouver,333 East Pender Street Vancouver
,,Champagnier Street ,Champagnier Street,Brossard,Champagnier Street Brossard
,,615 36th Street NE,615 36th Street NE,Calgary,615 36th Street NE Calgary
45.59640666,-73.558808,7250-7290 Saint-Zotique East Street,7250 Saint-Zotique East Street,Anjou,7250 Saint-Zotique East Street Anjou
45.38986969,-72.73339081,316 Rue Denison Ouest,316 Rue Denison O,Granby,316 Rue Denison O Granby
43.43111575,-79.77069938,Khalsa Gate,Khalsa Gate,Oakville,Khalsa Gate Oakville
49.2055596,-122.8734587,11180 Scott Road & 12618 King George Boulevard,11180 Scott Road,Surrey,11180 Scott Road Surrey
,,19594 96th Avenue,19594 96th Avenue,Surrey,19594 96th Avenue Surrey
45.4537472,-73.4398275,Colomb Avenue,Colomb Avenue,Brossard,Colomb Avenue Brossard
43.75147849,-79.81663156,Abbotside Way,Abbotside Way,Caledon,Abbotside Way Caledon
51.18217675,-115.5669221,Red Carpet Inn,Red Carpet Inn,Banff,Red Carpet Inn Banff
45.5022123,-73.57670952,2040-2046 Peel Street,2040 Peel Street,Ville-Marie,2040 Peel Street Ville-Marie
43.47177887,-80.52361298,158 King Street North,158 King St N,Waterloo,158 King St N Waterloo
43.51903428,-79.87349862,145 - 151 Nipissing Road,145 - 151 Nipissing Road,Milton,145 - 151 Nipissing Road Milton
43.64942551,-79.39431,318 Queen Street West,318 Queen St W,Toronto,318 Queen St W Toronto
43.5397144,-80.3053168,271 Massey Road,271 Massey Road,Guelph,271 Massey Road Guelph
43.02909996,-79.88898897,30 Front Street North,30 Front St N,Caledonia,30 Front St N Caledonia
,,County Road No. 54,County Road No. 54,Haldimand County,County Road No. 54 Haldimand County
49.2362552,-122.8199909,2441 United Boulevard,2441 United Boulevard,Coquitlam,2441 United Boulevard Coquitlam
46.2184919,-71.7630827,2760 Vallée,2760 Vallée,Plessisville,2760 Vallée Plessisville
45.70449066,-74.09389496,13845-13905 Saint-Simon Street ,13845 Saint-Simon Street,Mirabel,13845 Saint-Simon Street Mirabel
45.41787124,-73.92790782,21525 Clark-Graham Avenue ,21525 Clark-Graham Avenue,Baie-d'Urfé,21525 Clark-Graham Avenue Baie-d'Urfé
,,209 Westbrook Road & 120 Walgreen Road,209 Westbrook Road & 120 Walgreen Road,West Carleton,209 Westbrook Road & 120 Walgreen Road West Carleton
43.67087746,-79.32760936,1291 - 1307 Gerrard Street East,1291 Gerrard Street East,Old Toronto,1291 Gerrard Street East Old Toronto
49.2635641,-122.8918204,"634, 636, 640, 642 & 644 Tyndall Street",634 Tyndall Street,Coquitlam,634 Tyndall Street Coquitlam
43.69897335,-79.38749746,289 - 299 Balliol Street,289 Balliol Street,Old Toronto,289 Balliol Street Old Toronto
45.65742874,-73.51498413,12900 Industriel Boulevard,12900 Industriel Boulevard,Rivière-des-Prairies-Pointe-aux-Trembles,12900 Industriel Boulevard Rivière-des-Prairies-Pointe-aux-Trembles
45.38433838,-73.98888397,RONA Pincourt,1200 du Traversier Boulevard,Pincourt,1200 du Traversier Boulevard Pincourt
45.41988373,-73.9280777,21500 Transcanada Highway,21500 Transcanada Highway,Baie-d'Urfé,21500 Transcanada Highway Baie-d'Urfé
45.4248346,-75.8472685,Antoine-Boucher Road,Antoine-Boucher Road,Ville de Gatineau,Antoine-Boucher Road Ville de Gatineau
46.7916701,-71.35048962,6505 Rue Yvon Dolbec,6505 Rue Yvon Dolbec,L'Ancienne-Lorette,6505 Rue Yvon Dolbec L'Ancienne-Lorette
43.6453267,-79.82349574,9553 Heritage Road,9553 Heritage Road,Brampton,9553 Heritage Road Brampton
43.6380116,-79.71503493,376 Derry Road West,376 Derry Road West,Mississauga,376 Derry Road West Mississauga
,,1010 Downsview Drive & 355 Plains Road East,1010 Downsview Drive & 355 Plains Road East,Burlington,1010 Downsview Drive & 355 Plains Road East Burlington
43.8736098,-78.8904551,Travelodge by Wyndham Oshawa,940 Champlain Avenue,Oshawa,940 Champlain Avenue Oshawa
,,3351 Kings Mastings Crescent,3351 Kings Mastings Crescent,Mississauga,3351 Kings Mastings Crescent Mississauga
43.6922493,-79.61732483,Brunner Canada,3180 American Drive,Mississauga,3180 American Drive Mississauga
,,20054 96th Avenue,20054 96th Avenue,Langley,20054 96th Avenue Langley
43.70121384,-79.75764465,95 Kennedy Road North,95 Kennedy Rd N,Brampton,95 Kennedy Rd N Brampton
51.1843286,-114.4525344,22 Griffin Industrial Pt,22 Griffin Industrial Pt,Cochrane,22 Griffin Industrial Pt Cochrane
43.49194717,-80.54269409,500 & 504 Glenelm Crescent,500 Glenelm Crescent,Waterloo,500 Glenelm Crescent Waterloo
43.69554138,-79.74612427,68 Eastern Avenue,68 Eastern Avenue,Brampton,68 Eastern Avenue Brampton
43.69403076,-79.60327148,Ingersoll Rand,51 Worcester Rd,Toronto,51 Worcester Rd Toronto
,,7010 204th Street & 20443 70th Avenue,7010 204th Street,Langley,7010 204th Street Langley
49.0283165,-122.7986679,1455 Fir St,1455 Fir St,White Rock,1455 Fir St White Rock
43.01832199,-81.15520477,5 Cuddy Blvd,5 Cuddy Blvd,London,5 Cuddy Blvd London
49.1838405,-123.0802727,4460 Jacombs Road,4460 Jacombs Road,Richmond,4460 Jacombs Road Richmond
43.65883248,-79.36591733,296 Parliament Street,296 Parliament Street,Old Toronto,296 Parliament Street Old Toronto
43.76615906,-79.54199219,Belmont Meat Products,230 Signet Dr,Toronto,230 Signet Dr Toronto
,,646 Hamilton Port Dover Plank Road,646 Hamilton Port Dover Plank Road,Haldimand County,646 Hamilton Port Dover Plank Road Haldimand County
43.85824966,-79.34027863,200 Town Centre Boulevard,200 Town Centre Boulevard,,200 Town Centre Boulevard 
45.41065216,-75.67634583,17 Oblats Avenue,17 Oblats Avenue,Ottawa,17 Oblats Avenue Ottawa
53.48427115,-113.4937758,4607 Calgary Trl NW,4607 Calgary Trl NW,Edmonton,4607 Calgary Trl NW Edmonton
53.57652283,-113.3135071,2130 121 Avenue Northeast,2130 121 Ave NE,Edmonton,2130 121 Ave NE Edmonton
43.52959442,-79.89118958,490 McGeachie Drive,490 McGeachie Dr,Milton,490 McGeachie Dr Milton
44.48642349,-80.19813538,452 Raglan St,452 Raglan St,Collingwood,452 Raglan St Collingwood
43.52972823,-79.88991228,490 McGeachie Drive,490 McGeachie Drive,Milton,490 McGeachie Drive Milton
43.86599602,-79.73095056,455A Piercey Road,455 Piercey Road,Caledon,455 Piercey Road Caledon
43.66171878,-79.38336667,460 Yonge Street,460 Yonge Street,Old Toronto,460 Yonge Street Old Toronto
43.6950618,-79.5016146,2090 Jane Street,2090 Jane Street,North York,2090 Jane Street North York
43.67503738,-79.3968811,CGL Architects,156 Avenue Rd,Toronto,156 Avenue Rd Toronto
49.1002118,-122.6814907,5465 Production Boulevard,5465 Production Boulevard,Surrey,5465 Production Boulevard Surrey
43.86664876,-79.73163831,Bolton Steel Tube Co,455 Piercey Rd,Caledon,455 Piercey Rd Caledon
45.4287534,-73.351635,Salaberry Road,Salaberry Road,Carignan,Salaberry Road Carignan
,,11850-11950 Sherbrooke est,11850-11950 Sherbrooke est,Montréal,11850-11950 Sherbrooke est Montréal
45.39338545,-74.04995652,Linq PH3,Jean-Beliveau Street,Vaudreuil-Dorion,Jean-Beliveau Street Vaudreuil-Dorion
45.45795441,-73.72429657,1943-1945 55th Avenue,1943  55th Avenue,Dorval,1943  55th Avenue Dorval
,,567 boul. Pierre-Le Gardeur / Lots vacants 3675689,567 boul. Pierre-Le Gardeur / Lots vacants 3675689,Repentigny,567 boul. Pierre-Le Gardeur / Lots vacants 3675689 Repentigny
49.2482666,-123.1345116,"561, 573 & 581 West 26th Avenue",561 West 26th Avenue,Vancouver,561 West 26th Avenue Vancouver
45.4978714,-73.74456024,2850-2880 Botham Street,2850 Botham Street,Saint-Laurent,2850 Botham Street Saint-Laurent
43.81454086,-79.23886108,5610 Finch Ave E,5610 Finch Ave E,Toronto,5610 Finch Ave E Toronto
42.983475,-79.245504,Plymouth Cordage,110 1st St,Welland,110 1st St Welland
43.0708847,-79.09860992,6289 Mcleod Road,6289 Mcleod Road,Niagara Falls,6289 Mcleod Road Niagara Falls
45.6114769,-73.57582855,9701-9711 Colbert Street,9701 Colbert Street,Anjou,9701 Colbert Street Anjou
43.52450562,-79.68118286,2657 Dundas Street West,2657 Dundas Street West,Mississauga,2657 Dundas Street West Mississauga
43.6537417,-79.3680252,Brigden Place,Brigden Place,Old Toronto,Brigden Place Old Toronto
49.25953674,-123.134697,Alexander Tower,1326 W 13th Ave,Vancouver,1326 W 13th Ave Vancouver
51.0121488,-114.0878812,Crown Towers,Crown Towers,Calgary,Crown Towers Calgary
42.22416103,-83.02117825,Huron Church Line Rd,Huron Church Line Rd,LaSalle,Huron Church Line Rd LaSalle
45.59219,-75.428121,101 Donaldson Road ,101 Donaldson Road,Ville de Gatineau,101 Donaldson Road Ville de Gatineau
45.3408242,-75.7247847,125 Colonnade Road,125 Colonnade Road,Nepean,125 Colonnade Road Nepean
43.49826431,-80.22029877,485 Southgate Drive,485 Southgate Drive,Guelph,485 Southgate Drive Guelph
43.40428162,-80.46133423,60 Steckle Place,60 Steckle Place,Kitchener,60 Steckle Place Kitchener
43.64808273,-79.42043304,170 Ossington Avenue,170 Ossington Ave,Toronto,170 Ossington Ave Toronto
43.705465,-79.88006939,12515 Mississauga Road,12515 Mississauga Road,Caledon,12515 Mississauga Road Caledon
43.7842589,-79.6245334,Milani Boulevard,Milani Boulevard,Vaughan,Milani Boulevard Vaughan
43.59626389,-79.59410095,2525 Haines Road,2525 Haines Rd,Mississauga,2525 Haines Rd Mississauga
45.36079407,-75.73722076,1500 Merivale Rd,1500 Merivale Rd,Ottawa,1500 Merivale Rd Ottawa
43.68807327,-79.57267427,39 Stoffel Dr,39 Stoffel Dr,Toronto,39 Stoffel Dr Toronto
43.98456573,-79.4653244,Canadian Tire,14700 Yonge St,Aurora,14700 Yonge St Aurora
43.72084663,-79.2853322,756 Warden Ave,756 Warden Ave,Toronto,756 Warden Ave Toronto
53.5013895,-113.5806189,13432 143 St ,13432 143 St ,Edmonton,13432 143 St  Edmonton
43.85329056,-79.36142731,30 & 60 Centurion Drive,30 Centurion Drive,Markham,30 Centurion Drive Markham
43.8578008,-79.3445229,201 Whitehall Drive,201 Whitehall Drive,Markham,201 Whitehall Drive Markham
43.6548826,-79.61565456,Beer Store,5900 Explorer Drive,Mississauga,5900 Explorer Drive Mississauga
45.42993546,-75.56772614,2530 Innes Road,2530 Innes Rd,Ottawa,2530 Innes Rd Ottawa
48.45344543,-123.3928452,275 Burnside Road West,275 Burnside Rd W,Saanich,275 Burnside Rd W Saanich
42.92340088,-81.19490051,1036 Green Valley Rd,1036 Green Valley Rd,London,1036 Green Valley Rd London
53.494383,-113.473224,Wilkinson Bldg,9504 58 Ave NW,Edmonton,9504 58 Ave NW Edmonton
45.49754655,-75.74145276,Plateau Boulevard,Plateau Boulevard,Ville de Gatineau,Plateau Boulevard Ville de Gatineau
,,9600 & 9700 Endeavor Drive SE,9600 & 9700 Endeavor Drive SE,Calgary,9600 & 9700 Endeavor Drive SE Calgary
44.35808945,-79.70207214,76 Ardagh Rd,76 Ardagh Rd,Barrie,76 Ardagh Rd Barrie
44.35797597,-79.70226632,76 Ardagh Road,76 Ardagh Road,Barrie,76 Ardagh Road Barrie
43.9191256,-78.94669223,330 Taunton Road East,330 Taunton Rd E,Whitby,330 Taunton Rd E Whitby
45.40772247,-75.71692657,989 Somerset Street West,989 Somerset St W,Ottawa,989 Somerset St W Ottawa
45.88421631,-72.54037476,Extrucan,2155 Rue Canadien,Drummondville,2155 Rue Canadien Drummondville
43.55968971,-79.70697141,Eglinton Ave W,Eglinton Ave W,Mississauga,Eglinton Ave W Mississauga
49.2561716,-122.9560894,6952 Greenwood Street,6952 Greenwood Street,Burnaby,6952 Greenwood Street Burnaby
43.83175278,-79.06609344,963-979 Brock Road,963-979 Brock Road,Pickering,963-979 Brock Road Pickering
49.265764,-122.8919022,"500 & 504 Jefferson Avenue, 631 Tyndall Street & 831 North Road",500 Jefferson Avenue,Coquitlam,500 Jefferson Avenue Coquitlam
,,4940-4964 Queen Mary,4940-4964 Queen Mary,Montréal,4940-4964 Queen Mary Montréal
55.1850692,-118.8186972,10745 117 Ave,10745 117 Ave,Grande Prairie,10745 117 Ave Grande Prairie
43.76462215,-79.39795327,Rexall Pharma Plus,288 Sheppard Avenue East,North York,288 Sheppard Avenue East North York
43.65849304,-79.68344879,7135 Pacific Circle,7135 Pacific Cir,Mississauga,7135 Pacific Cir Mississauga
49.2667584,-123.1372559,3670 West 5th Avenue,3670 West 5th Avenue,Vancouver,3670 West 5th Avenue Vancouver
,,"4906, 4924, 4936, 4940 & 4958 Main Street","4906, 4924, 4936, 4940 & 4958 Main Street",Vancouver,"4906, 4924, 4936, 4940 & 4958 Main Street Vancouver"
49.0365055,-122.3485766,1812 Foy Street,1812 Foy Street,Abbotsford,1812 Foy Street Abbotsford
45.49713411,-73.66298514,5441-5471 Royalmount Avenue ,5441 Royalmount Avenue,Mont-Royal,5441 Royalmount Avenue Mont-Royal
43.68485641,-79.74642944,73 Clarence Street,73 Clarence Street,Brampton,73 Clarence Street Brampton
43.48525238,-80.54879761,529 Sunnydale Pl,529 Sunnydale Pl,Waterloo,529 Sunnydale Pl Waterloo
42.97937775,-81.23445892,Chelsea Manor,435 Grey St,London,435 Grey St London
49.2624,-123.0756,1383 East Broadway,1383 E Broadway,Vancouver,1383 E Broadway Vancouver
,,3551 Line No. 8,3551 Line No. 8,West Gwillimbury,3551 Line No. 8 West Gwillimbury
49.0771535,-122.6705018,Cedarbrook Square,Cedarbrook Square,Langley,Cedarbrook Square Langley
49.26942805,-122.7630707,McLean Manor,McLean Manor,Vancouver,McLean Manor Vancouver
49.0772132,-122.6700029,4145 200 ST,4145 200 ST,Langley,4145 200 ST Langley
49.25908279,-123.1352768,South Granville ,1355 W 14th Ave,Vancouver,1355 W 14th Ave Vancouver
,,2019 Taschereau Boulevard,2019 Taschereau Boulevard,Vieux-Longueuil,2019 Taschereau Boulevard Vieux-Longueuil
45.621521,-73.57120514,10251 Ray-Lawson Boulevard,10251 Ray-Lawson Boulevard,Anjou,10251 Ray-Lawson Boulevard Anjou
45.4594841,-73.6583225,5460 Sunnybrooke Avenue,5460 Sunnybrooke Avenue,Côte-Saint-Luc,5460 Sunnybrooke Avenue Côte-Saint-Luc
43.13917621,-80.24102712,603 Colborne Street East,603 Colborne Street East,Brantford,603 Colborne Street East Brantford
43.48937555,-79.62550056,494 & 520 Hazelhurst Road,494 Hazelhurst Road,Mississauga,494 Hazelhurst Road Mississauga
49.2256187,-122.6879324,12137-12169 Harris Road,12137 Harris Road,Pitt Meadows,12137 Harris Road Pitt Meadows
50.91966145,-114.0699129,14815 Bannister Road SE,14815 Bannister Road SE,Calgary,14815 Bannister Road SE Calgary
43.3507894,-80.2891691,416 Franklin Boulevard,416 Franklin Boulevard,Cambridge,416 Franklin Boulevard Cambridge
49.05167847,-122.3766701,Mt. Lehman Business Centre - Building a,2707 Progressive Way,Abbotsford,2707 Progressive Way Abbotsford
,,300-510 de Parc-industriel,300-510 de Parc-industriel,Longueuil,300-510 de Parc-industriel Longueuil
43.14373343,-80.18540666,84 Shaver Road,84 Shaver Road,Brant,84 Shaver Road Brant
43.14490891,-80.18356323,84 Shaver St,84 Shaver St,Brantford,84 Shaver St Brantford
43.7830834,-79.7490245,Airport Road,Airport Road,Caledon,Airport Road Caledon
43.79142243,-79.83190719,13468 Dixie Road,13468 Dixie Road,Caledon,13468 Dixie Road Caledon
43.7404747,-79.23317719,2978 Eglinton Ave E,2978 Eglinton Ave E,Toronto,2978 Eglinton Ave E Toronto
49.2070781,-123.1407804,125 West 71st Avenue,125 West 71st Avenue,Vancouver,125 West 71st Avenue Vancouver
52.197125,-113.8184622,29 McKenzie Cres,29 McKenzie Cres,Red Deer County,29 McKenzie Cres Red Deer County
,,1900 boul. du Traversier,1900 boul. du Traversier,Pincourt,1900 boul. du Traversier Pincourt
49.11022186,-122.8235703,5903 144 St,5903 144 St,Surrey,5903 144 St Surrey
44.05624771,-79.42617035,1145 Nicholson Road,1145 Nicholson Rd,Newmarket,1145 Nicholson Rd Newmarket
45.51761627,-73.66157532,690 Rue Hodge,690 Rue Hodge,Montreal,690 Rue Hodge Montreal
43.69377899,-79.69800568,14 Strathearn Avenue,14 Strathearn Avenue,Brampton,14 Strathearn Avenue Brampton
,,"- Bayview Drive, - Big Bay Point Road, - Churchill Drive","- Bayview Drive, - Big Bay Point Road, - Churchill Drive",Barrie,"- Bayview Drive, - Big Bay Point Road, - Churchill Drive Barrie"
49.3332453,-123.0720495,2916 Lonsdale Avenue,2916 Lonsdale Avenue,North Vancouver,2916 Lonsdale Avenue North Vancouver
43.70403671,-79.41221619,448 - 460 Eglinton Avenue West,448 Eglinton Avenue West,Old Toronto,448 Eglinton Avenue West Old Toronto
43.81021881,-79.11930847,575 Granite Ct,575 Granite Ct,Pickering,575 Granite Ct Pickering
,,Avesta Apartments,Avesta Apartments,North Vancouver,Avesta Apartments North Vancouver
49.2908724,-123.1437586,Katherine Anne Apartments,2054 Comox Street,Vancouver,2054 Comox Street Vancouver
43.48990631,-80.20517731,829 Southgate Dr,829 Southgate Dr,Guelph,829 Southgate Dr Guelph
43.59767532,-79.53662872,77 Akron Road,77 Akron Road,Etobicoke,77 Akron Road Etobicoke
45.53642273,-73.56039429,2665-2667 Frontenac Street,2665 Frontenac Street,Ville-Marie,2665 Frontenac Street Ville-Marie
43.41804436,-80.45440483,5 Manitou Drive,5 Manitou Drive,Kitchener,5 Manitou Drive Kitchener
43.6996439,-79.7391131,12 Clark Boulevard,12 Clark Boulevard,Brampton,12 Clark Boulevard Brampton
43.3940913,-79.7120439,Bronte Road,Bronte Road,Oakville,Bronte Road Oakville
51.18507825,-115.5657945,Mountainview Estates,17B  Whiskey Jack Crescent,Banff,17B  Whiskey Jack Crescent Banff
53.54589551,-113.6415574,Lee Valley Tools BUilding,18403 104 Ave NW,Edmonton,18403 104 Ave NW Edmonton
44.31710815,-80.64508057,103 Toronto Street South,103 Toronto St S,Grey Highlands,103 Toronto St S Grey Highlands
44.11120224,-79.59984589,35 Reagens Industrial Pkwy,35 Reagens Industrial Pkwy,Bradford West Gwillimbury,35 Reagens Industrial Pkwy Bradford West Gwillimbury
43.5139981,-80.5276139,SYSTEMATIX Inc,815 Bridge Street West,Waterloo,815 Bridge Street West Waterloo
49.3083007,-123.0696897,380 East 1st Street,380 East 1st Street,North Vancouver,380 East 1st Street North Vancouver
45.45149953,-73.72095776,1300-1410 55th Avenue,1300 55th Avenue,Lachine,1300 55th Avenue Lachine
43.49610519,-80.21412659,570 Southgate Drive,570 Southgate Drive,Guelph,570 Southgate Drive Guelph
43.6509819,-79.702034,260 Export Boulevard,260 Export Blvd,Mississauga,260 Export Blvd Mississauga
43.70301056,-79.44019318,131 Lyon Ct,131 Lyon Ct,Toronto,131 Lyon Ct Toronto
43.8237381,-79.42568207,8051 Yonge Street,8051 Yonge St,Markham,8051 Yonge St Markham
45.33514786,-75.71282196,110 Bentley Ave,110 Bentley Ave,Ottawa,110 Bentley Ave Ottawa
49.2323871,-123.0233911,1050-1052 Boundary Road,1050 Boundary Road,Burnaby,1050 Boundary Road Burnaby
45.5134834,-73.5713344,3523-3529 Saint-Laurent Boulevard ,3523 Saint-Laurent Boulevard,Le Plateau-Mont-Royal,3523 Saint-Laurent Boulevard Le Plateau-Mont-Royal
45.60969924,-73.57077128,7761 Rue Jarry E,7761 Rue Jarry E,Montreal,7761 Rue Jarry E Montreal
51.02836595,-114.0326521,3005 Ogden Road SE,3005 Ogden Road SE,Calgary,3005 Ogden Road SE Calgary
45.4608811,-73.4699635,1825 Talleyrand Street ,1825 Talleyrand Street,Brossard,1825 Talleyrand Street Brossard
42.28760147,-83.02048492,Midtown Business Centre,2485 Ouellette Ave,Windsor,2485 Ouellette Ave Windsor
43.2593114,-79.8698291,56 York Boulevard,56 York Boulevard,Hamilton,56 York Boulevard Hamilton
43.413583,-79.7349925,2390 South Service Road West,2390 S Service Rd W,Oakville,2390 S Service Rd W Oakville
43.8965867,-79.7425997,9408 Columbia Way,9408 Columbia Way,Caledon,9408 Columbia Way Caledon
43.90857113,-79.75412507,14530 Mount Hope Road,14530 Mount Hope Road,Caledon,14530 Mount Hope Road Caledon
43.5880075,-79.5992327,2440 Tedlo Street,2440 Tedlo Street,Mississauga,2440 Tedlo Street Mississauga
43.6455424,-79.3964113,478 King Street West,478 King Street West,Old Toronto,478 King Street West Old Toronto
43.4719055,-79.66699099,1267 Cornwall Road,1267 Cornwall Road,,1267 Cornwall Road 
49.2302022,-123.0974614,566 East 44th Avenue,566 East 44th Avenue,Vancouver,566 East 44th Avenue Vancouver
49.1809753,-122.6808324,19545 Telegraph Trail,19545 Telegraph Trail,Surrey,19545 Telegraph Trail Surrey
49.20657349,-123.1265259,The Lugano,8755 Laurel St,Vancouver,8755 Laurel St Vancouver
,,11575-11576 Stonehill Drive NE,11575-11576 Stonehill Drive NE,Calgary,11575-11576 Stonehill Drive NE Calgary
45.48883438,-73.39649963,2650-2720 Quévillon Street ,2650 Quévillon Street,Saint-Hubert,2650 Quévillon Street Saint-Hubert
,,- 5th Side Road,- 5th Side Road,Innisfil,- 5th Side Road Innisfil
44.58682632,-75.69120789,137 George Street,137 George St,Brockville,137 George St Brockville
43.90400531,-78.64745283,Highway of Heroes & Bennett Road,Bennett Rd,Clarington,Bennett Rd Clarington
43.841847,-79.3143391,4248 Fourteenth Avenue,4248 Fourteenth Avenue,Markham,4248 Fourteenth Avenue Markham
43.9039053,-78.6636683,Baseline Road East,Baseline Road East,Clarington,Baseline Road East Clarington
43.89800849,-79.58298588,4050 King Vaughan Road,4050 King Vaughan Road,Vaughan,4050 King Vaughan Road Vaughan
49.1003783,-122.4826491,26585 Gloucester Way,26585 Gloucester Way,Langley,26585 Gloucester Way Langley
43.82044983,-79.24819946,150 Nashdene Rd,150 Nashdene Rd,Toronto,150 Nashdene Rd Toronto
43.62413025,-79.58185577,Wajax,3280 Wharton Way,Mississauga,3280 Wharton Way Mississauga
45.024845,-79.311895,345 Ecclestone Drive,345 Ecclestone Dr,Bala,345 Ecclestone Dr Bala
43.38247175,-80.49203157,1673 Huron Road,Huron Road,Kitchener,Huron Road Kitchener
43.8433054,-79.313552,195 Duffield Drive,195 Duffield Drive,Markham,195 Duffield Drive Markham
,,1005 & 1045 168th Street,1005 168th Street,Surrey,1005 168th Street Surrey
49.202557,-122.660956,11545 Kingston Street,11545 Kingston Street,Maple Ridge,11545 Kingston Street Maple Ridge
43.77085192,-79.87665844,13904 Hurontario St,13904 Hurontario St,Caledon,13904 Hurontario St Caledon
43.77140036,-79.87579498,13904 Hurontario Street,13904 Hurontario Street,Caledon,13904 Hurontario Street Caledon
45.47761536,-73.61579132,4055 Boulevard Décarie,4055 Blvd Decarie,Montreal,4055 Blvd Decarie Montreal
49.27236557,-123.1505966,David Apartments,2012 Cornwall Ave,Vancouver,2012 Cornwall Ave Vancouver
49.2722435,-123.1505737,2012 Cornwall Ave,2012 Cornwall Ave,Vancouver,2012 Cornwall Ave Vancouver
49.17311625,-123.1407057,5751 Minoru Boulevard,5751 Minoru Boulevard,Richmond,5751 Minoru Boulevard Richmond
43.98570394,-79.24912357,Bethesda Side Rd,Bethesda Side Rd,Whitchurch-Stouffville,Bethesda Side Rd Whitchurch-Stouffville
45.56521225,-73.61914825,8530 8th Avenue,8530 8th Avenue,Villeray-Saint-Michel-Parc-Extension,8530 8th Avenue Villeray-Saint-Michel-Parc-Extension
45.56173325,-73.53496552,5065-5067 Ontario East Street,5065 Ontario East Street,Mercier-Hochelaga-Maisonneuve,5065 Ontario East Street Mercier-Hochelaga-Maisonneuve
45.469482,-73.6233753,de Hampton Avenue,de Hampton Avenue,Côte-des-Neiges-Notre-Dame-de-Grâce,de Hampton Avenue Côte-des-Neiges-Notre-Dame-de-Grâce
44.34378052,-78.73983765,100 Albert St S,100 Albert St S,Kawartha Lakes,100 Albert St S Kawartha Lakes
43.9848323,-77.9072969,Lakeport Road,#NAME?,Alnwick/Haldimand,#NAME?
43.1580932,-79.0506741,16104 Niagara Parkway,16104 Niagara Parkway,Niagara-on-the-Lake,16104 Niagara Parkway Niagara-on-the-Lake
43.47726059,-80.54080963,156 Columbia St W,156 Columbia St W,Waterloo,156 Columbia St W Waterloo
43.2439758,-79.8251475,1083 Main Street,1083 Main Street,Hamilton,1083 Main Street Hamilton
,,Creditview Road & Bovaird Drive West,Creditview Road & Bovaird Drive West,Brampton,Creditview Road & Bovaird Drive West Brampton
43.8361969,-79.07922363,1525 Pickering Pkwy,1525 Pickering Pkwy,Pickering,1525 Pickering Pkwy Pickering
43.56809893,-79.80150177,7155 Eighth Line,7155 Eighth Line,Milton,7155 Eighth Line Milton
43.9704703,-79.2561657,Ninth Line,Ninth Line,Whitchurch-Stouffville,Ninth Line Whitchurch-Stouffville
43.7078805,-79.3023543,2892 St Clair Ave E,2892 St Clair Ave E,Toronto,2892 St Clair Ave E Toronto
43.8240238,-79.4726193,Langstaff Road,Langstaff Road,Vaughan,Langstaff Road Vaughan
43.67523277,-79.45437396,1536 St Clair Ave W,1536 St Clair Ave W,Toronto,1536 St Clair Ave W Toronto
43.34913635,-79.80619049,Burlington Inn,2404 Queensway Dr,Burlington,2404 Queensway Dr Burlington
43.72628403,-79.4318161,3388 Bathurst St,3388 Bathurst St,Toronto,3388 Bathurst St Toronto
43.82614517,-79.07431793,905 Sandy Beach Road,905 Sandy Beach Rd,Pickering,905 Sandy Beach Rd Pickering
49.2655845,-123.1405253,1581 West 7th Avenue,1581 West 7th Avenue,Vancouver,1581 West 7th Avenue Vancouver
49.2845428,-123.1126953,Burns Block,16 West Hastings Street,Vancouver,16 West Hastings Street Vancouver
49.2891434,-123.1336131,Lorron,1623 Haro St,Vancouver,1623 Haro St Vancouver
49.2814612,-123.1051707,18 W HASTINGS,18 W HASTINGS,Vancouver,18 W HASTINGS Vancouver
49.1920059,-123.1048187,11240 Bridgeport Road,11240 Bridgeport Road,Richmond,11240 Bridgeport Road Richmond
43.55112457,-79.86687469,Patlon Aircraft,8130 5th Line,Halton Hills,8130 5th Line Halton Hills
43.5506773,-79.865087,8130 Fifth Line,8130 Fifth Line,Halton Hills,8130 Fifth Line Halton Hills
43.63346481,-79.66648102,420 Britannia Rd E,420 Britannia Rd E,Mississauga,420 Britannia Rd E Mississauga
,,Kennedy Corporate Centre,Kennedy Corporate Centre,Mississauga,Kennedy Corporate Centre Mississauga
45.65542603,-73.8531723,Clinique Medicale Blainville,519 Curé-Labelle Boulevard,Blainville,519 Curé-Labelle Boulevard Blainville
45.43586731,-75.66265869,211 - 221 Montreal Road,211 Montreal Road,Ottawa,211 Montreal Road Ottawa
43.85879913,-79.33993328,260 Town Centre Boulevard,260 Town Centre Boulevard,,260 Town Centre Boulevard 
53.47273636,-113.4787979,3707 97 Street Northwest,3707 97 St NW,Edmonton,3707 97 St NW Edmonton
45.48217392,-73.4703598,216-290 Lawrence Street ,216 Lawrence Street,Greenfield Park,216 Lawrence Street Greenfield Park
45.3721255,-74.0288413,Chicoine Street,Chicoine Street,Vaudreuil-Dorion,Chicoine Street Vaudreuil-Dorion
43.3940913,-79.7120439,Bronte Road,Bronte Road,Oakville,Bronte Road Oakville
43.70482254,-79.29677582,516 Dawes Road,516 Dawes Rd,Toronto,516 Dawes Rd Toronto
43.88219235,-79.56647513,3620 Kirby Road,3620 Kirby Road,Vaughan,3620 Kirby Road Vaughan
53.5332583,-113.4174604,50th Street Atria,9405 50 St NW,Edmonton,9405 50 St NW Edmonton
43.84307264,-79.56765723,Major Mackenzie Dr W,Major Mackenzie Dr W,Vaughan,Major Mackenzie Dr W Vaughan
,,18810 72nd Avenue & 7170 188th Street,18810 72nd Avenue & 7170 188th Street,Surrey,18810 72nd Avenue & 7170 188th Street Surrey
45.57331563,-73.91136784,fmr Loblaws,525 Blvd Arthur-Sauve,Saint-Eustache,525 Blvd Arthur-Sauve Saint-Eustache
49.239283,-123.0526059,2970 KINGSWAY,2970 KINGSWAY,Vancouver,2970 KINGSWAY Vancouver
50.98139954,-113.9541855,5616 80 Ave SE,5616 80 Ave SE,Calgary,5616 80 Ave SE Calgary
,,Villa Leone,Villa Leone,Burnaby,Villa Leone Burnaby
43.9926113,-79.4532624,225 Industrial Parkway South,225 Industrial Parkway South,Aurora,225 Industrial Parkway South Aurora
45.5692482,-73.54647064,3045 l'Assomption Boulevard,3045 l'Assomption Boulevard,Mercier-Hochelaga-Maisonneuve,3045 l'Assomption Boulevard Mercier-Hochelaga-Maisonneuve
,,30 St & 24 Ave W,30 St & 24 Ave W,Lethbridge,30 St & 24 Ave W Lethbridge
43.3733949,-80.4221273,401 New Dundee Road,401 New Dundee Road,Kitchener,401 New Dundee Road Kitchener
43.59832813,-79.53586846,66 Akron Road,66 Akron Road,Etobicoke,66 Akron Road Etobicoke
49.3094265,-123.0520753,145 & 153 East 4th Street,145 & 153 East 4th Street,North Vancouver,145 & 153 East 4th Street North Vancouver
,,1640 Desserte sud Autoroute Laval est,1640 Desserte sud Autoroute Laval est,Laval,1640 Desserte sud Autoroute Laval est Laval
51.12470235,-114.2059187,101 Crowfoot Way NW,101 Crowfoot Way NW,Calgary,101 Crowfoot Way NW Calgary
45.8912223,-74.1482361,Les Factoreries St Sauveur,100 Ave Guindon,Saint-Sauveur,100 Ave Guindon Saint-Sauveur
43.38511658,-80.69986725,141 Hamilton Road,141 Hamilton Rd,Wilmot,141 Hamilton Rd Wilmot
44.73980331,-79.77902222,2506 Newton Street,2506 Newton St,Tay,2506 Newton St Tay
,,12225 boul. Métropolitain est,12225 boul. Métropolitain est,Montréal,12225 boul. Métropolitain est Montréal
42.24865244,-83.06211281,Malden Square,1765 Orford St,LaSalle,1765 Orford St LaSalle
44.31248407,-79.56838751,Benson Street,Benson St,Innisfil,Benson St Innisfil
44.3081819,-79.5684781,Webster Boulevard,#NAME?,Innisfil,#NAME?
,, 100 Guindon / 190,100 Guindon / 190,St-Sauveur,100 Guindon / 190 St-Sauveur
45.3783,-71.9784,Place Pavillon,4403 Rue Pavillon,Sherbrooke,4403 Rue Pavillon Sherbrooke
44.0179788,-79.4718226,1001 St. John's Sideroad,1001 St. John's Sideroad,Aurora,1001 St. John's Sideroad Aurora
43.72839561,-79.39819157,153 Ranleigh Avenue,153 Ranleigh Avenue,Old Toronto,153 Ranleigh Avenue Old Toronto
43.6697464,-79.439888,1384 Dufferin Street,1384 Dufferin Street,Old Toronto,1384 Dufferin Street Old Toronto
53.0000681,-106.3908978,New Woodbine Motel,7242 Highway No. 27,Vaughan,7242 Highway No. 27 Vaughan
49.1934053,-122.7438691,17276 104A Avenue,17276 104A Avenue,Surrey,17276 104A Avenue Surrey
49.33575439,-123.1152267,Capilano Grove,2832 Capilano Road,North Vancouver,2832 Capilano Road North Vancouver
46.80662915,-71.21789719,575 Jacques-Parizeau,575 Jacques-Parizeau,Québec,575 Jacques-Parizeau Québec
44.34925388,-78.75074816,Parkview,35 Angeline St S,Kawartha Lakes,35 Angeline St S Kawartha Lakes
44.347271,-78.7495263,35 Angeline Street South,35 Angeline Street South,Kawartha Lakes,35 Angeline Street South Kawartha Lakes
43.7584343,-79.3536377,1 Valleybrook Drive,1 Valleybrook Drive,,1 Valleybrook Drive 
50.9664677,-113.9093848,72 Technology Way SE,72 Technology Way SE,Calgary,72 Technology Way SE Calgary
49.104314,-122.663718,26713 56 AVE,26713 56 AVE,Langley,26713 56 AVE Langley
49.1243566,-122.6266428,6722 Glover Road,6722 Glover Road,Langley,6722 Glover Road Langley
48.42230606,-123.3532257,1126 Rockland Avenue,1126 Rockland Ave,Victoria,1126 Rockland Ave Victoria
43.8173027,-79.34629059,155 Torbay Road,155 Torbay Road,Markham,155 Torbay Road Markham
45.495355,-73.6115214,4780 de la Côte-des-Neiges Road,4780 de la Côte-des-Neiges Road,Côte-des-Neiges-Notre-Dame-de-Grâce,4780 de la Côte-des-Neiges Road Côte-des-Neiges-Notre-Dame-de-Grâce
45.57065324,-73.60736477,8208 Albert-Louis-Van Houtte Avenue,8208 Albert-Louis-Van Houtte Avenue,Villeray-Saint-Michel-Parc-Extension,8208 Albert-Louis-Van Houtte Avenue Villeray-Saint-Michel-Parc-Extension
44.3441082,-79.6244099,908 Yonge Street,908 Yonge Street,Barrie,908 Yonge Street Barrie
43.72772217,-79.40322876,3182 Yonge Street,3182 Yonge St,Toronto,3182 Yonge St Toronto
43.81778992,-79.70148246,10742 Clarkway Drive,10742 Clarkway Drive,Brampton,10742 Clarkway Drive Brampton
49.25636673,-123.1023254,The Newport,150 East 16th Avenue,Vancouver,150 East 16th Avenue Vancouver
,,920 boul. Firestone,920 boul. Firestone,Joliette,920 boul. Firestone Joliette
43.40731049,-80.45472717,1011 Homer Watson Boulevard,1011 Homer Watson Blvd,Kitchener,1011 Homer Watson Blvd Kitchener
46.80523682,-71.18014526,40 Rue Saint-Étienne,40 Rue Saint-Etienne,Levis,40 Rue Saint-Etienne Levis
,,3030 190th Street,3030 190th Street,Surrey,3030 190th Street Surrey
43.84367478,-79.70978618,12197 Coleraine Dr,12197 Coleraine Dr,Caledon,12197 Coleraine Dr Caledon
43.71110153,-79.62783813,Malton Medical Centre,6870 Goreway Dr,Mississauga,6870 Goreway Dr Mississauga
45.50638376,-73.56113923,120 de la Gauchetière Street West,120 de la Gauchetière Street West,Ville-Marie,120 de la Gauchetière Street West Ville-Marie
44.26731873,-78.36641693,1777 Stenson Boulevard,1777 Stenson Boulevard,Peterborough,1777 Stenson Boulevard Peterborough
43.68969345,-79.5980072,290 Carlingview Drive,290 Carlingview Dr,Toronto,290 Carlingview Dr Toronto
43.6538288,-79.58119445,596 Renforth Drive,596 Renforth Drive,Etobicoke,596 Renforth Drive Etobicoke
43.22071075,-79.67888641,881 Arvin Avenue & 369 Glover Road,881 Arvin Avenue & 369 Glover Road,Hamilton,881 Arvin Avenue & 369 Glover Road Hamilton
43.66541563,-79.47813529,"3233, 3239, 3241, 3245, 3249 & 3251 Dundas Street West",3245 Dundas Street West,Old Toronto,3245 Dundas Street West Old Toronto
49.2891272,-123.1397871,Shato Inn Hotel,1825 Comox Street,Vancouver,1825 Comox Street Vancouver
46.5249041,-84.3190701,Cambrian Mall,44 Great Northern Rd,Sault Ste. Marie,44 Great Northern Rd Sault Ste. Marie
,,"50 Laing Street & 46, 52 Rear Laing Street","50 Laing Street & 46, 52 Rear Laing Street",Old Toronto,"50 Laing Street & 46, 52 Rear Laing Street Old Toronto"
45.6798854,-73.8043403,104-121 De Chambery Boulevard,104 De Chambery Boulevard,Blainville,104 De Chambery Boulevard Blainville
50.8776925,-114.0363679,Chaparral Shopping Centre,803 Chaparral Drive SE,Calgary,803 Chaparral Drive SE Calgary
50.99363327,-114.0725174,6711 Macleod Trail,6711 Macleod Trl,Calgary,6711 Macleod Trl Calgary
53.59176872,-113.294136,53361 Range Road 232,53361 Range Rd 232,Sherwood Park,53361 Range Rd 232 Sherwood Park
53.5098381,-113.4412308,Four Points by Sheraton,7230 Argyll Rd NW,Edmonton,7230 Argyll Rd NW Edmonton
,,5050 Roslyn / 5051 Grosvenor,5050 Roslyn / 5051 Grosvenor,Montréal,5050 Roslyn / 5051 Grosvenor Montréal
44.47367181,-80.13845873,Beachwood Rd,Beachwood Rd,Wasaga Beach,Beachwood Rd Wasaga Beach
44.0270469,-79.4738954,Yonge Street,#NAME?,West Gwillimbury,#NAME?
44.28186726,-78.34419334,999 Lansdowne Street West,999 Lansdowne St W,Peterborough,999 Lansdowne St W Peterborough
49.77520956,-94.48104048,9th St N,9th St N,Kenora,9th St N Kenora
43.82793805,-79.32824538,365 Hood Road,365 Hood Road,Markham,365 Hood Road Markham
43.7241624,-79.3006716,100 Eglinton Square,100 Eglinton Square,Scarborough,100 Eglinton Square Scarborough
28.9691376,-81.9981848,10436 173rd Street,10436 173rd Street,Surrey,10436 173rd Street Surrey
45.57006073,-73.42989349,1311 Rue Ampere,1311 Rue Ampere,Boucherville,1311 Rue Ampere Boucherville
49.26575089,-123.154068,2155 West 7th Avenue,2155 W 7th Ave,Vancouver,2155 W 7th Ave Vancouver
45.566822,-73.8232402,4500 Chomedey Highway,4500 Chomedey Highway,Laval,4500 Chomedey Highway Laval
42.97960321,-82.37536913,646 Georgian Manor,631 Roger St,Sarnia,631 Roger St Sarnia
43.4573376,-79.6818284,227 Cross Avenue,227 Cross Avenue,Oakville,227 Cross Avenue Oakville
43.9199728,-78.9164753,Garrard Road,Garrard Road,Whitby,Garrard Road Whitby
,,6388 & 6398 120th Street,6388 120th Street,Surrey,6388 120th Street Surrey
,,4855 Queen-Mary Road,4855 Queen-Mary Road,Côte-des-Neiges-Notre-Dame-de-Grâce,4855 Queen-Mary Road Côte-des-Neiges-Notre-Dame-de-Grâce
43.57307428,-79.64889646,3473 Wolfedale Rd,3473 Wolfedale Rd,Mississauga,3473 Wolfedale Rd Mississauga
45.46936035,-73.46705627,6835-6845 Taschereau Boulevard ,6835 Taschereau Boulevard,Brossard,6835 Taschereau Boulevard Brossard
49.10281372,-122.7266312,Delta Controls,17899 55th Avenue,Surrey,17899 55th Avenue Surrey
43.81853485,-79.34840393,7181 Woodbine Avenue,7181 Woodbine Avenue,Markham,7181 Woodbine Avenue Markham
43.3811073,-79.764901,4087 Harvester Road,4087 Harvester Road,Burlington,4087 Harvester Road Burlington
44.36382221,-79.58949704,3459 20th Sideroad,3459 20th Sideroad,Innisfil,3459 20th Sideroad Innisfil
43.782495,-79.4898287,2727 Steeles Avenue West,2727 Steeles Avenue West,North York,2727 Steeles Avenue West North York
43.85466385,-79.38237,15 Sims Crescent,15 Sims Crescent,Richmond Hill,15 Sims Crescent Richmond Hill
49.191083,-122.9933687,7500 Lowland Drive,7500 Lowland Drive,Burnaby,7500 Lowland Drive Burnaby
49.2674692,-123.1127761,The Yukon,The Yukon,Vancouver,The Yukon Vancouver
45.439017,-75.784081,de l'Atmosphère Street ,de l'Atmosphère Street,Ville de Gatineau,de l'Atmosphère Street Ville de Gatineau
49.0463404,-122.7935239,2428 & 2430 King George Highway,2428 King George Highway,Surrey,2428 King George Highway Surrey
43.8576493,-78.9279774,1760 Harbour Street,1760 Harbour Street,Whitby,1760 Harbour Street Whitby
43.77152252,-79.33274078,211 Consumers Rd,211 Consumers Rd,Toronto,211 Consumers Rd Toronto
46.3746064,-72.5537351,450 Barkoff,450 Barkoff,Trois-Rivières,450 Barkoff Trois-Rivières
42.30296326,-82.82807922,Ground Effects Inc,417 Advance Blvd,Windsor,417 Advance Blvd Windsor
43.7000885,-79.62573242,3223 Orlando Drive,3223  Orlando Drive,Mississauga,3223  Orlando Drive Mississauga
43.7028157,-79.4639723,165 Tycos Drive,165 Tycos Drive,North York,165 Tycos Drive North York
49.2703954,-123.1424794,1672 West 1st Avenue,1672 West 1st Avenue,,1672 West 1st Avenue 
43.12900985,-80.69799137,Oxford Road 4,Oxford Rd 4,Woodstock,Oxford Rd 4 Woodstock
43.73287192,-79.47579241,John Perkins Bull Dr,John Perkins Bull Dr,Toronto,John Perkins Bull Dr Toronto
45.63574219,-73.85536957,3720 la Vérendrye Street ,3720 la Vérendrye Street,Boisbriand,3720 la Vérendrye Street Boisbriand
45.4595,-73.6582,5460 Sherbrooke East Street ,5460 Sherbrooke East Street,Mercier-Hochelaga-Maisonneuve,5460 Sherbrooke East Street Mercier-Hochelaga-Maisonneuve
46.79193215,-71.2604985,1615 chemin Ste-Foy,1615 chemin Ste-Foy,Québec,1615 chemin Ste-Foy Québec
43.4315669,-80.4959861,659 Stirling Avenue South,659 Stirling Avenue South,Kitchener,659 Stirling Avenue South Kitchener
43.69903923,-79.26903122,44 Milne Avenue,44 Milne Avenue,Scarborough,44 Milne Avenue Scarborough
45.49172974,-73.63632965,4895 Av Bourret,4895 Av Bourret,Montreal,4895 Av Bourret Montreal
42.31303406,-82.93179321,2545 Lauzon Road,2545 Lauzon Rd,Windsor,2545 Lauzon Rd Windsor
43.14806366,-80.21005249,50 Garden Avenue,50 Garden Avenue,Brantford,50 Garden Avenue Brantford
43.69599808,-79.50334179,1480 Jane Street,1480 Jane Street,North York,1480 Jane Street North York
49.1591809,-122.6636231,20120 86 AVE,20120 86 AVE,Langley,20120 86 AVE Langley
49.2209425,-122.977026,5900-5908 Kingsway,5900 Kingsway,Burnaby,5900 Kingsway Burnaby
,,LOT des Prairies Boulevard,LOT des Prairies Boulevard,Laval,LOT des Prairies Boulevard Laval
49.1122275,-122.6779934,9770 196A Street,9770 196A Street,Langley,9770 196A Street Langley
,,De la Rivière Cachée Road,De la Rivière Cachée Road,Boisbriand,De la Rivière Cachée Road Boisbriand
43.9745032,-79.2821384,Automall Boulevard & Norman Jones Place,Automall Blvd And Norman Jones Pl,Whitchurch-Stouffville,Automall Blvd And Norman Jones Pl Whitchurch-Stouffville
,,10980 Highway No. 50,10980 Highway No. 50,Brampton,10980 Highway No. 50 Brampton
,,NW/NE-3-27-4-5,270177 Range Road 42,Cochrane,270177 Range Road 42 Cochrane
45.51796722,-73.59557343,403 Saint-Joseph West Boulevard ,403 Saint-Joseph West Boulevard,Outremont,403 Saint-Joseph West Boulevard Outremont
49.28490067,-123.1357803,Lakehill ,1435 Pendrell St,Vancouver,1435 Pendrell St Vancouver
45.38708481,-75.73398209,Rhythm,Carling Ave,Ottawa,Carling Ave Ottawa
43.8578008,-79.3445229,221 Whitehall Drive,221 Whitehall Drive,Markham,221 Whitehall Drive Markham
48.23352051,-79.03050995,355 Rue Montreal O,355 Rue Montreal O,Rouyn-Noranda,355 Rue Montreal O Rouyn-Noranda
43.6545061,-79.6121208,5270 Solar Drive,5270 Solar Drive,Mississauga,5270 Solar Drive Mississauga
45.640664,-74.3290496,450 Bethany,450 Bethany,Lachute,450 Bethany Lachute
49.1445219,-122.6804197,20453 78 AVE,20453 78 AVE,Langley,20453 78 AVE Langley
51.2890642,-113.9856976,603 East Lake Rd NE,603 East Lake Rd NE,Airdrie,603 East Lake Rd NE Airdrie
43.10525894,-79.06596375,4422 Huron Street,4422 Huron Street,Niagara Falls,4422 Huron Street Niagara Falls
43.88412757,-79.51896756,11191 Keele Street,11191 Keele Street,Vaughan,11191 Keele Street Vaughan
49.26941225,-123.0763983,1344 East 1st Avenue,1344 East 1st Avenue,Vancouver,1344 East 1st Avenue Vancouver
,,2015 Centre Avenue SE,2015 Centre Avenue SE,Calgary,2015 Centre Avenue SE Calgary
43.85236182,-79.73962989,8183 Healey Road,8183 Healey Road,Caledon,8183 Healey Road Caledon
45.2699083,-74.1206062,1890 Tougas,1890 Tougas,Salaberry-de-Valleyfield,1890 Tougas Salaberry-de-Valleyfield
43.76070023,-79.70238495,4 Edvac Drive,4 Edvac Drive,Brampton,4 Edvac Drive Brampton
44.19291687,-77.36492157,Magna Lighting,200 Jamieson Bone Rd,Belleville,200 Jamieson Bone Rd Belleville
44.006395,-79.469221,Howard Johnson Aurora,15520 Yonge St,Aurora,15520 Yonge St Aurora
49.2586641,-123.0704735,229 East 13th Avenue,229 East 13th Avenue,Vancouver,229 East 13th Avenue Vancouver
44.28027344,-78.34751129,1101 Lansdowne Street,1101 Lansdowne Street,Peterborough,1101 Lansdowne Street Peterborough
45.41828537,-75.69315338,201 Metcalfe St,201 Metcalfe St,Ottawa,201 Metcalfe St Ottawa
45.42182541,-71.86805725,980 Rue Des Paysans,980 Rue Des Paysans,Sherbrooke,980 Rue Des Paysans Sherbrooke
45.60928923,-73.61499896,6120 Renoir Street ,6120 Renoir Street,Montréal-Nord,6120 Renoir Street Montréal-Nord
,,"53-67 Owen Street, 55-57 McDonald Street, 70-78 Worsley Street","53-67 Owen Street, 55-57 McDonald Street, 70-78 Worsley Street",Barrie,"53-67 Owen Street, 55-57 McDonald Street, 70-78 Worsley Street Barrie"
43.40873337,-80.33018494,Ashley Homestore,2450 Eagle St N,Cambridge,2450 Eagle St N Cambridge
43.72198105,-79.45698547,DOT Furniture,3302 Dufferin St,Toronto,3302 Dufferin St Toronto
,,7042 & 7058 204th Street ,7042 204th Street,Langley,7042 204th Street Langley
43.24226379,-79.8529129,293 Upper Wentworth Street,293 Upper Wentworth Street,Hamilton,293 Upper Wentworth Street Hamilton
43.37686856,-79.78523875,1140 Heritage Road,1140 Heritage Road,Burlington,1140 Heritage Road Burlington
53.49014282,-113.4810257,9712 54 Avenue Northwest,9712 54 Ave NW,Edmonton,9712 54 Ave NW Edmonton
43.67639542,-79.76937866,345 Queen Street West,345 Queen St W,Brampton,345 Queen St W Brampton
45.47503295,-73.70032252,165-185 Montée de Liesse,165 Montée de Liesse,Saint-Laurent,165 Montée de Liesse Saint-Laurent
43.6266014,-79.6380171,5145 Timberlea Boulevard,5145 Timberlea Boulevard,Mississauga,5145 Timberlea Boulevard Mississauga
43.6970827,-79.5705508,65 Enterprise Road,65 Enterprise Road,Etobicoke,65 Enterprise Road Etobicoke
49.1359821,-123.0417693,6605 Dennett Place,6605 Dennett Place,Delta,6605 Dennett Place Delta
,,13939 104th Avenue,13939 104th Avenue,Surrey,13939 104th Avenue Surrey
49.2359634,-123.1324836,The Impala,8735 Selkirk Street,Vancouver,8735 Selkirk Street Vancouver
43.00327693,-81.3376888,Blue Heron Dr,Blue Heron Dr,London,Blue Heron Dr London
43.54414749,-80.26543427,219 London Rd W,219 London Rd W,Guelph,219 London Rd W Guelph
43.68440628,-79.48317719,971 Weston Rd,971 Weston Rd,Toronto,971 Weston Rd Toronto
43.6887207,-79.39523315,15 Delisle Ave,15 Delisle Ave,Toronto,15 Delisle Ave Toronto
,,7707 112th Avenue NW,7707 112th Avenue NW,Calgary,7707 112th Avenue NW Calgary
45.4509046,-73.6333295,468 St-Jean,468 St-Jean,Montréal,468 St-Jean Montréal
43.179065,-79.249714,10 YMCA Drive,10 YMCA Drive,Saint Catharines,10 YMCA Drive Saint Catharines
48.37941742,-89.30483246,Valhalla Inn ,1 Valhalla Inn Rd,Thunder Bay,1 Valhalla Inn Rd Thunder Bay
,,1426 & 1442 Wilson Drive,1426 & 1442 Wilson Drive,Springwater,1426 & 1442 Wilson Drive Springwater
45.41748047,-75.68974304,283 Elgin St,283 Elgin St,Ottawa,283 Elgin St Ottawa
43.45981645,-80.13842297,McLean Road West,McLean Road West,Guelph,McLean Road West Guelph
43.70906448,-79.36524963,220 McRae Drive,220 McRae Drive,East York,220 McRae Drive East York
43.8010462,-79.4206877,7115 Yonge Street,7115 Yonge Street,Markham,7115 Yonge Street Markham
43.8799094,-79.0879972,2740 Brock Road,2740 Brock Road,Pickering,2740 Brock Road Pickering
,,"5800, 5840 & 5860 Granville Avenue","5800, 5840 & 5860 Granville Avenue",Richmond,"5800, 5840 & 5860 Granville Avenue Richmond"
43.63862991,-79.44248199,70 Wilson Park Rd,70 Wilson Park Rd,Toronto,70 Wilson Park Rd Toronto
45.474969,-73.791606,26 Hymus Boulevard ,26 Hymus Boulevard,Pointe-Claire,26 Hymus Boulevard Pointe-Claire
43.41184235,-80.3012619,295 Pinebush Road,295 Pinebush Road,Cambridge,295 Pinebush Road Cambridge
,,des Bâtisseurs Avenue ,des Bâtisseurs Avenue,Sainte-Julie,des Bâtisseurs Avenue Sainte-Julie
45.37566565,-73.60323003,Renoir Street ,Renoir Street,Saint-Constant,Renoir Street Saint-Constant
43.60446167,-79.59238434,Constitution Place,3051 Constitution Boulevard,Mississauga,3051 Constitution Boulevard Mississauga
49.2577047,-123.1761423,45 E 16TH,45 E 16TH,Vancouver,45 E 16TH Vancouver
42.99827194,-81.33037567,1018 Gainsborough Road,1018 Gainsborough Rd,London,1018 Gainsborough Rd London
49.2307479,-123.0062878,5292 & 5318 Kingsway,5292 Kingsway,Burnaby,5292 Kingsway Burnaby
43.17185974,-79.26352692,350 Ontario Street,350 Ontario St,Saint Catharines,350 Ontario St Saint Catharines
45.4953389,-73.4094293,Cousineau Boulevard,Cousineau Boulevard,Saint-Hubert,Cousineau Boulevard Saint-Hubert
43.3339555,-79.8130186,850 Legion Road,850 Legion Road,Burlington,850 Legion Road Burlington
42.93848038,-81.28057098,377 Southdale Road West,377 Southdale Rd W,London,377 Southdale Rd W London
45.57778168,-73.53987885,6244-6266 de Marseille Street,6244 de Marseille Street,Mercier-Hochelaga-Maisonneuve,6244 de Marseille Street Mercier-Hochelaga-Maisonneuve
43.73828506,-79.73670959,North Bramalea Medical Dental Building,9780 Bramalea Road,Brampton,9780 Bramalea Road Brampton
43.7522644,-79.2546422,799 Brimley Road,799 Brimley Road,Scarborough,799 Brimley Road Scarborough
45.53522873,-73.60047913,6255 Rue Saint-Hubert,6255 Rue St-Hubert,Montreal,6255 Rue St-Hubert Montreal
45.55736542,-73.71564484,1390 de la Concorde West Boulevard,1390 de la Concorde West Boulevard,Laval,1390 de la Concorde West Boulevard Laval
43.513693,-79.8955266,270 Bronte Street North,270 Bronte St N,Milton,270 Bronte St N Milton
46.0305303,-73.0973169,Centre Sorel,340 Blvd Poliquin,Sorel-Tracy,340 Blvd Poliquin Sorel-Tracy
43.10840729,-80.74214792,605 Athlone Place,605 Athlone Pl,Woodstock,605 Athlone Pl Woodstock
43.5165722,-79.8991843,270 Bronte Street North,270 Bronte Street North,Milton,270 Bronte Street North Milton
43.76052475,-79.47628021,20 Vanley Crescent,20 Vanley Crescent,North York,20 Vanley Crescent North York
43.8347152,-79.7595745,Healey Road,Healey Road,Caledon,Healey Road Caledon
43.79207993,-79.26085663,1936 McCowan Road,1936 McCowan Road,Scarborough,1936 McCowan Road Scarborough
39.0606959,-98.5393677,White Rock Medical Building,15451 Russell Avenue,,15451 Russell Avenue 
43.53003203,-79.92346048,James Snow Pkwy N,James Snow Pkwy N,Milton,James Snow Pkwy N Milton
45.59934616,-73.59327698,Plaza Val Marie ,8700 Langelier Boulevard,Saint-Léonard,8700 Langelier Boulevard Saint-Léonard
45.537117,-73.6030426,6530  Boyer Street,6530  Boyer Street,Rosemont-La Petite-Patrie,6530  Boyer Street Rosemont-La Petite-Patrie
43.46906658,-80.51504043,81 & 85 Bridgeport Road East,81 Bridgeport Road East,Waterloo,81 Bridgeport Road East Waterloo
43.80499633,-79.75654078,Innis Lake Rd,Innis Lake Rd,Caledon,Innis Lake Rd Caledon
49.0895851,-122.6618315,3325 202 ST,3325 202 ST,Langley,3325 202 ST Langley
45.49710846,-73.64291382,4780 Vézina Street,4780 Vézina Street,Côte-des-Neiges-Notre-Dame-de-Grâce,4780 Vézina Street Côte-des-Neiges-Notre-Dame-de-Grâce
45.86221313,-72.4938736,2300 Boulevard Lemire,2300 Blvd Lemire,Drummondville,2300 Blvd Lemire Drummondville
43.7047795,-79.471618,65 Densley Avenue,65 Densley Avenue,North York,65 Densley Avenue North York
43.6603611,-79.6980652,555 Secretariat Court,555 Secretariat Court,Mississauga,555 Secretariat Court Mississauga
43.89517975,-79.41267395,Brookside Court,980 Elgin Mills Road East,Richmond Hill,980 Elgin Mills Road East Richmond Hill
,,"20051, 20061 & 20071 53rd Avenue; 20040, 20050, 20060 & 20070 53A Avenue","20051, 20061 & 20071 53rd Avenue; 20040, 20050, 20060 & 20070 53A Avenue",Langley,"20051, 20061 & 20071 53rd Avenue; 20040, 20050, 20060 & 20070 53A Avenue Langley"
43.77259064,-79.73402405,Sparta Dr,Sparta Dr,Brampton,Sparta Dr Brampton
49.1779801,-122.8427203,City Centre 2,9639 137A Street,Surrey,9639 137A Street Surrey
45.6882058,-0.3266931,Saint-Martin West Boulevard,Saint-Martin West Boulevard,Laval,Saint-Martin West Boulevard Laval
45.43033218,-75.51792145,3080 Navan Road & 6101 Reanaud Road,3080 Navan Road,Gloucester,3080 Navan Road Gloucester
50.443904,-104.606519,Strathcona Centre,2202 Broad St,Regina,2202 Broad St Regina
,, 385 Kennedy nord / 100 Clémenceau / 350 St-François nord,385 Kennedy nord / 100 Clémenceau / 350 St-François nord,Sherbrooke,385 Kennedy nord / 100 Clémenceau / 350 St-François nord Sherbrooke
43.24191666,-79.85177612,21 Summit Ave,21 Summit Ave,Hamilton,21 Summit Ave Hamilton
43.80850567,-79.29059696,3360 Midland Avenue,3360 Midland Ave,Toronto,3360 Midland Ave Toronto
,,76 Airport Road North & 16114 Airport Road,76 Airport Road North & 16114 Airport Road,Caledon,76 Airport Road North & 16114 Airport Road Caledon
53.49181366,-113.4941406,5415 Calgary Trl NW,5415 Calgary Trl NW,Edmonton,5415 Calgary Trl NW Edmonton
43.63776779,-79.4378891,22 Maynard Avenue,22 Maynard Avenue,Old Toronto,22 Maynard Avenue Old Toronto
,,20929 Second Concession Road,20929 Second Concession Road,East Gwillimbury,20929 Second Concession Road East Gwillimbury
43.12473073,-80.33747077,942 Colborne Street West,942 Colborne St W,Brantford,942 Colborne St W Brantford
43.836908,-79.137541,450 Finch Ave,450 Finch Ave,Pickering,450 Finch Ave Pickering
50.97272873,-113.9744949,Canadian Leisure RV Storage,9016 40 St SE,Calgary,9016 40 St SE Calgary
43.1453274,-80.2041461,942 Colborne Street,942 Colborne Street,Brant,942 Colborne Street Brant
43.396884,-80.324669,460 Hespeler Road,460 Hespeler Road,Cambridge,460 Hespeler Road Cambridge
44.03999675,-79.4599698,349 Mulock Drive,349 Mulock Drive,Newmarket,349 Mulock Drive Newmarket
43.57213974,-79.64994812,3450 Wolfedale Rd,3450 Wolfedale Rd,Mississauga,3450 Wolfedale Rd Mississauga
43.73902065,-79.3821971,2439 Bayview Avenue,2439 Bayview Avenue,York,2439 Bayview Avenue York
43.36338447,-79.78424316,900 Walkers Line,900 Walkers Line,Burlington,900 Walkers Line Burlington
,,20702 & 20750 62nd Avenue,20702 & 20750 62nd Avenue,Langley,20702 & 20750 62nd Avenue Langley
49.0400676,-122.267303,"2010, 2026 & 2042 Eleanor Avenue",2010 Eleanor Avenue,Abbotsford,2010 Eleanor Avenue Abbotsford
49.1782951,-123.1009042,Vanguard Industrial Estates,4700 Vanguard Road,Richmond,4700 Vanguard Road Richmond
49.2857442,-122.7479482,3575 VICTORIA DR,3575 VICTORIA DR,Coquitlam,3575 VICTORIA DR Coquitlam
49.05289078,-122.3759155,2771 Progressive Way,2771 Progressive Way,Abbotsford,2771 Progressive Way Abbotsford
43.41181564,-80.31382751,65 Struck Court,65 Struck Court,Cambridge,65 Struck Court Cambridge
42.95982128,-81.62271154,Kenwick Mall,39 Front St E,Strathroy,39 Front St E Strathroy
46.79354295,-71.23760968,955 Grande Allée Ouest,955 Grande Allee O,Quebec,955 Grande Allee O Quebec
43.7102445,-79.8512325,1760 Mayfield Road,1760 Mayfield Road,Caledon,1760 Mayfield Road Caledon
43.85608292,-79.26185608,Parker Pad & Printing Ltd,208 Travail Rd,Markham,208 Travail Rd Markham
45.3024924,-73.7506266,Lalonde Street  ,Lalonde Street,Mercier,Lalonde Street Mercier
43.64997482,-79.66485596,976 Meyerside Dr,976 Meyerside Dr,Mississauga,976 Meyerside Dr Mississauga
49.2010764,-123.0579871,1700 Savage Road,1700 Savage Road,Richmond,1700 Savage Road Richmond
45.5746847,-73.4470624,1540 Ampère Street ,1540 Ampère Street,Boucherville,1540 Ampère Street Boucherville
45.5030899,-73.67588043,300 Marcel-Laurin Boulevard,300 Marcel-Laurin Boulevard,Saint-Laurent,300 Marcel-Laurin Boulevard Saint-Laurent
43.89629457,-78.78019047,1666 Bloor Street,1666 Bloor St,Clarington,1666 Bloor St Clarington
,,5130 Sideline No. 18,5130 Sideline No. 18,King,5130 Sideline No. 18 King
43.89549068,-78.77952042,1666 Bloor Street,1666 Bloor Street,Clarington,1666 Bloor Street Clarington
43.26753998,-79.87659454,243 Garner Road East,243 Garner Road East,Hamilton,243 Garner Road East Hamilton
43.46374512,-80.46337891,36 River Road East,36 River Road East,Kitchener,36 River Road East Kitchener
43.8423946,-79.0251167,201 Bayly Street West,201 Bayly Street West,Ajax,201 Bayly Street West Ajax
49.1305145,-123.088774,12200 Riverside Way,12200 Riverside Way,Richmond,12200 Riverside Way Richmond
43.48592647,-79.7371428,Carnegie Drive,Carnegie Drive,Oakville,Carnegie Drive Oakville
43.20429611,-79.98175812,20 Miller Dr,20 Miller Dr,Hamilton,20 Miller Dr Hamilton
49.1726464,-122.6902545,Barclay Restorations,9344 192 St,Surrey,9344 192 St Surrey
45.5017128,-73.81423187,4601 des Sources Boulevard,4601 des Sources Boulevard,Dollard-des-Ormeaux,4601 des Sources Boulevard Dollard-des-Ormeaux
43.8000402,-79.4986833,7733 Keele Street,7733 Keele Street,Vaughan,7733 Keele Street Vaughan
43.77807236,-79.56851196,741 Rowntree Dairy Road,741 Rowntree Dairy Rd,Vaughan,741 Rowntree Dairy Rd Vaughan
44.38555011,-79.56755044,1020 Shoreview Drive,1020 Shoreview Drive,Innisfil,1020 Shoreview Drive Innisfil
53.59799576,-113.4245224,13528 Fort Rd NW,13528 Fort Rd NW,Edmonton,13528 Fort Rd NW Edmonton
45.4287749,-71.8720202,1625 Rue Brulotte,1625 Rue Brulotte,Sherbrooke,1625 Rue Brulotte Sherbrooke
,,1408 Gordon Street & 33-37 Arkell Road,1408 Gordon Street & 33-37 Arkell Road,Guelph,1408 Gordon Street & 33-37 Arkell Road Guelph
43.8841785,-78.9222763,201 Hopkins Street,201 Hopkins Street,Whitby,201 Hopkins Street Whitby
,,17571 48th Avenue,17571 48th Avenue,Surrey,17571 48th Avenue Surrey
44.01100698,-79.41399384,Wellington Street East,Wellington Street East,Aurora,Wellington Street East Aurora
43.81209316,-79.69323769,10517 Clarkway Drive,10517 Clarkway Drive,Brampton,10517 Clarkway Drive Brampton
43.0896925,-79.1932458,Upper's Lane,- Upper's Lane,Thorold,- Upper's Lane Thorold
45.69433594,-73.75139618,1059 Boulevard des Entreprises,1059 Blvd Des Entreprises,Terrebonne,1059 Blvd Des Entreprises Terrebonne
43.62476349,-79.63779449,Comtrad Strategic Sourcing Inc,5106 Timberlea Blvd,Mississauga,5106 Timberlea Blvd Mississauga
49.0460128,-122.3637294,2315 & 2329 Peardonville Road,2315 & 2329 Peardonville Road,Abbotsford,2315 & 2329 Peardonville Road Abbotsford
49.25798375,-123.1222886,3075 Willow Street,3075 Willow Street,Vancouver,3075 Willow Street Vancouver
49.1711391,-122.966431,22111 Fraserwood Way,22111 Fraserwood Way,Richmond,22111 Fraserwood Way Richmond
43.68724823,-79.67166901,1868 Drew Rd,1868 Drew Rd,Mississauga,1868 Drew Rd Mississauga
45.50160445,-73.56862063,René-Lévesque West Boulevard,René-Lévesque West Boulevard,Ville-Marie,René-Lévesque West Boulevard Ville-Marie
45.5022123,-73.57670952,2022-2024 Peel Street,2022 Peel Street,Ville-Marie,2022 Peel Street Ville-Marie
43.2946434,-80.44561577,Inglis Street,#NAME?,North Dumfries,#NAME?
45.40171051,-75.62501526,Smyth Medical Center,1929 Russell Road,,1929 Russell Road 
43.36232376,-80.3144989,95 & 103 Water Street North,95 Water Street North,Cambridge,95 Water Street North Cambridge
43.68758956,-79.48939247,"11, 15, 17 & 21 Hollis Street",11 Hollis Street,York,11 Hollis Street York
43.75701439,-79.27397752,147 Nantucket Boulevard,147 Nantucket Boulevard,Scarborough,147 Nantucket Boulevard Scarborough
43.8575692,-79.34269235,181 Whitehall Drive,181 Whitehall Drive,Markham,181 Whitehall Drive Markham
49.23252869,-123.1610336,5940 Balsam Street,5940 Balsam St,Vancouver,5940 Balsam St Vancouver
49.88912201,-119.4951477,350 Doyle Street,350 Doyle St,Kelowna,350 Doyle St Kelowna
51.06551743,-113.9942932,1515 28th Street NE & 1616 Meridian Road NE,1515 28th Street NE,Calgary,1515 28th Street NE Calgary
53.56759644,-113.6166916,11704 170 St NW,11704 170 St NW,Edmonton,11704 170 St NW Edmonton
,,3708/24 56 Ave,3708/24 56 Ave,Edmonton,3708/24 56 Ave Edmonton
53.4350112,-113.490714,1610 Calgary Trail SW,1610 Calgary Trail SW,Edmonton,1610 Calgary Trail SW Edmonton
45.59968185,-73.59288025,8735-8755 Langelier Boulevard,8735 Langelier Boulevard,Saint-Léonard,8735 Langelier Boulevard Saint-Léonard
45.53699591,-73.65391171,9200 Meilleur Street,9200 Meilleur Street,Ahuntsic-Cartierville,9200 Meilleur Street Ahuntsic-Cartierville
45.43938446,-73.61805725,Club Entrepôt,2199 Rue Lapierre,Montreal,2199 Rue Lapierre Montreal
,,2845 boul. du Curé-Labelle,2845 boul. du Curé-Labelle,Prévost,2845 boul. du Curé-Labelle Prévost
45.7297288,-73.59878835,de la Gare Street,de la Gare Street,Mascouche,de la Gare Street Mascouche
43.09335028,-79.0743854,"5633-5645 Victoria Avenue, - Victoria Avenue, 4890-4902 Walnut Street & - Ellen Avenue",5633 Victoria Avenue,Niagara Falls,5633 Victoria Avenue Niagara Falls
43.19241092,-80.02763537,1336 Sandhill Drive,1336 Sandhill Drive,,1336 Sandhill Drive 
45.418135,-75.707683,412 Spark Street,412 Sparks Street,Ottawa,412 Sparks Street Ottawa
,,Lot vacant 6392472,Lot vacant 6392472,Québec,Lot vacant 6392472 Québec
43.35108185,-80.29283142,55 Woolley Street,55 Woolley St,Cambridge,55 Woolley St Cambridge
43.4430677,-80.4694221,20 Ottawa Street North,20 Ottawa Street North,Kitchener,20 Ottawa Street North Kitchener
43.70759964,-79.30187988,2893 & 2897 St. Clair Avenue East,2893 St. Clair Avenue East,Old Toronto,2893 St. Clair Avenue East Old Toronto
,,470 Jeffrey Street,470 Jeffrey Street,Whitby,470 Jeffrey Street Whitby
,,Shields Apartments,Shields Apartments,Vancouver,Shields Apartments Vancouver
,,15240 & 15260 Westminster Highway,15240 & 15260 Westminster Highway,Richmond,15240 & 15260 Westminster Highway Richmond
,,3555 46th Avenue SE,3555 46th Avenue SE,Calgary,3555 46th Avenue SE Calgary
51.47973965,-0.277187722,Acqua,Acqua,Richmond,Acqua Richmond
45.51409912,-73.57565308,80-90 des Pins West Avenue,80 des Pins West Avenue,Le Plateau-Mont-Royal,80 des Pins West Avenue Le Plateau-Mont-Royal
45.45259476,-73.73153687,610-650 Orly Avenue,610 Orly Avenue,Dorval,610 Orly Avenue Dorval
43.67438188,-79.39725685,Torp Inc,243 Davenport Rd,Toronto,243 Davenport Rd Toronto
49.05015945,-122.2916489,Red Lion,2849 Pauline St,Abbotsford,2849 Pauline St Abbotsford
,,1265 & 1299 Waterloo Street,1265 & 1299 Waterloo Street,Wilmot,1265 & 1299 Waterloo Street Wilmot
43.41001772,-80.39816165,3247 King Street East,3247 King Street East,Kitchener,3247 King Street East Kitchener
43.67366791,-79.33093262,20 Wagstaff Drive,20 Wagstaff Drive,Old Toronto,20 Wagstaff Drive Old Toronto
49.0466685,-122.2916674,2481 & 2489 Pauline Street,2481 Pauline Street,Abbotsford,2481 Pauline Street Abbotsford
48.24092484,-79.01972961,79 Ave Principale,79 Ave Principale,Rouyn-Noranda,79 Ave Principale Rouyn-Noranda
43.1406164,-80.2609254,120 Darling Street,120 Darling Street,Brantford,120 Darling Street Brantford
,,Westwind Apartments,Westwind Apartments,Vancouver,Westwind Apartments Vancouver
45.5402046,-73.7195289,520 des Prairies,520 des Prairies,Laval,520 des Prairies Laval
50.8769472,-113.9539852,6409 Seton Drive SE,6409 Seton Drive SE,Calgary,6409 Seton Drive SE Calgary
43.9717452,-78.1980003,Elgin Street West,Elgin Street West,Cobourg,Elgin Street West Cobourg
43.61566544,-79.51898193,36 Horner Avenue,36 Horner Ave,Toronto,36 Horner Ave Toronto
,,Sunstar Crossing,Sunstar Crossing,Calgary,Sunstar Crossing Calgary
45.53633881,-73.89770508,1550 d'Oka Road ,1550 d'Oka Road,Deux-Montagnes,1550 d'Oka Road Deux-Montagnes
,,325 René-Lévesque East Boulevard,325 René-Lévesque East Boulevard,Ville-Marie,325 René-Lévesque East Boulevard Ville-Marie
44.35180558,-79.68067732,316 Bayview Drive,316 Bayview Drive,Barrie,316 Bayview Drive Barrie
44.35271454,-79.6817627,316 Bayview Dr,316 Bayview Dr,Barrie,316 Bayview Dr Barrie
,,Concession Road No. 4,- Concession Road No. 4,Ramara,- Concession Road No. 4 Ramara
43.46569885,-80.52104565,6 Regina Street North,6 Regina Street North,Waterloo,6 Regina Street North Waterloo
42.97975635,-81.25325239,51 York St,51 York St,London,51 York St London
44.1111669,-79.1122043,228 Brock Street East,228 Brock Street East,Uxbridge,228 Brock Street East Uxbridge
43.85119927,-79.55156565,169 Cityview Blvd,169 Cityview Blvd,Vaughan,169 Cityview Blvd Vaughan
43.664635,-79.385478,11 Wellesley Street West,11 Wellesley Street West,Old Toronto,11 Wellesley Street West Old Toronto
,,Campbell Heights 1,2455 192nd Street,Surrey,2455 192nd Street Surrey
49.22493744,-122.8932419,237 E Columbia St,237 E Columbia St,New Westminster,237 E Columbia St New Westminster
49.28125248,-122.9983679,4663 Hastings St,4651 Hastings St,Burnaby,4651 Hastings St Burnaby
43.58908368,-80.58785407,1219 Floradale Road,1219 Floradale Road,Woolwich,1219 Floradale Road Woolwich
45.3679932,-75.7860202,1299 Richmond Rd,1299-1315 Richmond Rd,Ottawa,1299-1315 Richmond Rd Ottawa
43.85310745,-79.2670517,Mara Technologies Inc,5680 14th Ave,Markham,5680 14th Ave Markham
49.22479275,-122.8932228,237 East Columbia Street,237 East Columbia Street,New Westminster,237 East Columbia Street New Westminster
49.1738887,-121.9485118,Cheam View Apartments,46180 Bole Avenue,Chilliwack,46180 Bole Avenue Chilliwack
45.46333545,-75.74650857,1-3 Radisson Street ,1 Radisson Street,Ville de Gatineau,1 Radisson Street Ville de Gatineau
45.46329117,-75.74708557,Les Jardins Radisson,3 Rue Radisson,Gatineau,3 Rue Radisson Gatineau
50.8608282,-114.0177332,180 Legacy Main St SE,180 Legacy Main St SE,Calgary,180 Legacy Main St SE Calgary
43.46622895,-80.14020205,100 Brock Rd S,100 Brock Rd S,Guelph,100 Brock Rd S Guelph
,,466 King George Road,466 King George Road,Brant,466 King George Road Brant
44.0628284,-79.4446268,3440 Davis Drive,3440 Davis Drive,East Gwillimbury,3440 Davis Drive East Gwillimbury
43.64051437,-79.64573669,5972 Ambler Drive,5972 Ambler Drive,Mississauga,5972 Ambler Drive Mississauga
49.1302439,-123.0215211,7237 Wilson Avenue,7237 Wilson Avenue,Delta,7237 Wilson Avenue Delta
45.59151077,-73.73654938,3000 Francis-Hughes Avenue ,3000 Francis-Hughes Avenue,Laval,3000 Francis-Hughes Avenue Laval
44.23048401,-76.48927307,242 Johnson St,242 Johnson St,Kingston,242 Johnson St Kingston
43.6479454,-79.89324951,21 Raylawn Crescent,21 Raylawn Crescent,Halton Hills,21 Raylawn Crescent Halton Hills
55.69437027,-121.6299973,Gwillim Gardens,5133 50th St SW,Chetwynd,5133 50th St SW Chetwynd
43.65537126,-79.40745411,452 Bathurst Street,452 Bathurst Street,Old Toronto,452 Bathurst Street Old Toronto
45.4320112,-75.66273117,175 McArthur Avenue,175 McArthur Ave,Ottawa,175 McArthur Ave Ottawa
51.2747931,-0.2154251,19516 16th Avenue,19516 16th Avenue,Surrey,19516 16th Avenue Surrey
45.2968743,-73.898744,Turnbull Street,Turnbull Street,Beauharnois,Turnbull Street Beauharnois
,,16508 20th Avenue,16508 20th Avenue,Surrey,16508 20th Avenue Surrey
43.69373322,-79.69708252,12 Strathearn Avenue,12 Strathearn Ave,Brampton,12 Strathearn Ave Brampton
45.58328629,-73.65098572,Gestion,3201 Blvd Henri-Bourassa E,Montreal,3201 Blvd Henri-Bourassa E Montreal
45.53139114,-73.60318756,285 Rue de Bellechasse,285 Rue de Bellechasse,Montreal,285 Rue de Bellechasse Montreal
44.0219421,-77.8960542,188 Purdy Road,188 Purdy Road,Cramahe,188 Purdy Road Cramahe
44.1588724,-79.8440693,497 Victoria Street East,497 Victoria Street East,New Tecumseth,497 Victoria Street East New Tecumseth
45.4311772,-75.5212021,2983 Navan Road,2983 Navan Road,Gloucester,2983 Navan Road Gloucester
,,690 - 692 Sheppard Avenue East,690 - 692 Sheppard Avenue East,North York,690 - 692 Sheppard Avenue East North York
49.1186653,-121.9586642,7544 Vedder Road,7544 Vedder Road,Chilliwack,7544 Vedder Road Chilliwack
44.1593889,-79.8435115,Red Pine Motor Inn,497 Victoria St E,Alliston,497 Victoria St E Alliston
45.6233847,-73.687053,De l'Officier Street,De l'Officier Street,Laval,De l'Officier Street Laval
45.36641693,-71.85321808,Place du Parc,2865 Rue College,Sherbrooke,2865 Rue College Sherbrooke
45.56116104,-73.5358963,5045 Ontario Street East,5045 Ontario Street East,Mercier-Hochelaga-Maisonneuve,5045 Ontario Street East Mercier-Hochelaga-Maisonneuve
43.82530975,-79.4260025,8119 Yonge Street,8119 Yonge Street,Markham,8119 Yonge Street Markham
49.0984143,-122.6538278,20120-20170 53A Avenue,20120 53A Avenue,Langley,20120 53A Avenue Langley
43.81914139,-79.34699249,55 Torbay Road,55 Torbay Road,Markham,55 Torbay Road Markham
45.45615099,-73.49112475,1155 Rome Boulevard  ,1155 Rome Boulevard,Brossard,1155 Rome Boulevard Brossard
51.18367386,-114.4764023,fmr Canadian Tire,320 5th Ave,Cochrane,320 5th Ave Cochrane
,,320 Fifth Avenue West,320 Fifth Avenue West,Cochrane,320 Fifth Avenue West Cochrane
44.23965836,-76.51036072,Harford Ltd,541 College St,Kingston,541 College St Kingston
43.129027,-79.115337,7030 Casey Street,7030 Casey Street,Niagara Falls,7030 Casey Street Niagara Falls
43.49499819,-80.21655416,555 Southgate Drive,555 Southgate Drive,Guelph,555 Southgate Drive Guelph
43.72271729,-79.30368042,1880 O'Connor Drive,1880 O'Connor Drive,,1880 O'Connor Drive 
-33.4863997,26.8307644,3910 Bathurst Street,3910 Bathurst Street,,3910 Bathurst Street 
43.67507935,-79.39585876,198 Davenport Road,198 Davenport Rd,Toronto,198 Davenport Rd Toronto
43.65891647,-79.3937912,171 College Street,171 College Street,Old Toronto,171 College Street Old Toronto
43.63838577,-79.43113708,1302 King Street West,1302 King St W,Toronto,1302 King St W Toronto
49.2834194,-123.103877,467 Alexander Street,467 Alexander Street,Vancouver,467 Alexander Street Vancouver
49.2021292,-122.54463,11060 CAMERON CRT,11060 CAMERON CRT,Maple Ridge,11060 CAMERON CRT Maple Ridge
49.1832454,-121.9167279,47300 SWALLOW PL,47300 SWALLOW PL,Chilliwack,47300 SWALLOW PL Chilliwack
53.56258392,-113.684639,21216 113 Avenue Northwest,21216 113 Ave NW,Edmonton,21216 113 Ave NW Edmonton
46.82279205,-71.34191132,Groupe PolyAlto,3825 Rue Jean Marchand,Quebec,3825 Rue Jean Marchand Quebec
43.1780649,-79.1788519,Niagara Stone Road,#NAME?,Niagara-on-the-Lake,#NAME?
45.45245072,-75.63163793,715 Mikinak Rd,715 Mikinak Rd,Ottawa,715 Mikinak Rd Ottawa
44.37620533,-79.70435611,175 John Street,175 John Street,Barrie,175 John Street Barrie
49.0821439,-122.0804722,35613 Boundary Road,35613 Boundary Road,Abbotsford,35613 Boundary Road Abbotsford
49.17284665,-123.1407805,5791 Minoru Boulevard,5791 Minoru Boulevard,Richmond,5791 Minoru Boulevard Richmond
43.72439194,-79.46660614,195 Bridgeland Ave,195 Bridgeland Ave,Toronto,195 Bridgeland Ave Toronto
44.3482921,-78.1252937,1929 Blezard Line,1929 Blezard Line,Otonabee-South Monaghan,1929 Blezard Line Otonabee-South Monaghan
48.45050049,-123.3608246,3255 Quadra Street,3255 Quadra St,Saanich,3255 Quadra St Saanich
45.54124069,-73.65395355,9350 de L'Esplanade Avenue,9350 de L'Esplanade Avenue,Ahuntsic-Cartierville,9350 de L'Esplanade Avenue Ahuntsic-Cartierville
44.46664607,-80.1029501,Mosley St,Mosley St,Wasaga Beach,Mosley St Wasaga Beach
43.3653907,-79.7792288,4130 Harvester Road,4130 Harvester Rd,Burlington,4130 Harvester Rd Burlington
45.40018463,-75.69950867,786 Bronson Avenue,786 Bronson Ave,Ottawa,786 Bronson Ave Ottawa
49.29104905,-123.1407755,Killarney Court,1955 Nelson Street,Vancouver,1955 Nelson Street Vancouver
42.31590271,-83.04113007,Royal Windsor,280 Park St W,Windsor,280 Park St W Windsor
,,20-24 Marjorie-D Shackleton,20-24 Marjorie-D Shackleton,Gatineau,20-24 Marjorie-D Shackleton Gatineau
45.42970276,-75.80537415,671 Blvd du Plateau,671 Blvd du Plateau,Gatineau,671 Blvd du Plateau Gatineau
43.40195985,-79.82932568,4235 Palladium Way,4235 Palladium Way,Burlington,4235 Palladium Way Burlington
44.0147773,-79.8046295,4697 Tottenham Road,4697 Tottenham Road,New Tecumseth,4697 Tottenham Road New Tecumseth
44.37614059,-79.70429993,175 John St,175 John St,Barrie,175 John St Barrie
45.48010254,-73.62957001,4980-4990 Clanranald Avenue,4980 Clanranald Avenue,Côte-des-Neiges-Notre-Dame-de-Grâce,4980 Clanranald Avenue Côte-des-Neiges-Notre-Dame-de-Grâce
45.58740616,-73.64916229,3405 Boulevard Henri-Bourassa Est,3405 Blvd Henri-Bourassa E,Montreal,3405 Blvd Henri-Bourassa E Montreal
43.9494451,-78.961122,99 Baldwin Street,99 Baldwin Street,Whitby,99 Baldwin Street Whitby
45.3364796,-75.78899802,20 Harrison Street,20 Harrison Street,Nepean,20 Harrison Street Nepean
49.1546107,-122.3050273,33111 CHERRY AVE,33111 CHERRY AVE,Mission,33111 CHERRY AVE Mission
46.30287552,-70.87263489,1021 Avenue du Palais,1021 Ave du Palais,Saint-Joseph-de-Beauce,1021 Ave du Palais Saint-Joseph-de-Beauce
53.5377121,-113.7929916,Sentag Modular Manufacturing,9825 283 St,Spruce Grove,9825 283 St Spruce Grove
45.72486496,-73.69483185,3160 des Entreprises Boulevard ,3160 des Entreprises Boulevard,Terrebonne,3160 des Entreprises Boulevard Terrebonne
45.2909828,-79.95391178,Grand Tappattoo Resort,30 Tapatoo Trl,Seguin,30 Tapatoo Trl Seguin
43.4877392,-80.52460903,36 Blue Springs Drive,36 Blue Springs Drive,Waterloo,36 Blue Springs Drive Waterloo
43.55913162,-80.28378296,Fredericks Furniture Gallery,100 Woodlawn Rd W,Guelph,100 Woodlawn Rd W Guelph
43.62284088,-79.56781006,2050 Dundas Street East,2050 Dundas Street East,Mississauga,2050 Dundas Street East Mississauga
43.859879,-79.72693647,3 Marconi Court,3 Marconi Court,Caledon,3 Marconi Court Caledon
43.68763733,-79.75841522,60 Queen Street East,60 Queen Street East,,60 Queen Street East 
43.82172934,-79.3362844,280 Telson Road,280 Telson Road,Markham,280 Telson Road Markham
,,17861 64th Avenue,17861 64th Avenue,Surrey,17861 64th Avenue Surrey
51.0471627,-114.0651807,The Lougheed Building,608 1 St SW,Calgary,608 1 St SW Calgary
,,464-516 de l'Amérique-Française Boulevard,464-516 de l'Amérique-Française Boulevard,Ville de Gatineau,464-516 de l'Amérique-Française Boulevard Ville de Gatineau
46.61253738,-81.0063324,3080 Old Highway 69,3080 Old Hwy 69,Sudbury,3080 Old Hwy 69 Sudbury
45.54935,-73.5324753,Notre-Dame East Street,Notre-Dame East Street,Mercier-Hochelaga-Maisonneuve,Notre-Dame East Street Mercier-Hochelaga-Maisonneuve
43.1203804,-80.72845459,921 Keyes Dr,921 Keyes Dr,Woodstock,921 Keyes Dr Woodstock
43.3995011,-80.3247911,505 Hespeler Road,505 Hespeler Road,Cambridge,505 Hespeler Road Cambridge
43.69602966,-79.65432739,7055 Torbram Rd,7055 Torbram Rd,Mississauga,7055 Torbram Rd Mississauga
43.65408707,-79.40073395,54 Kensington Avenue,54 Kensington Avenue,Old Toronto,54 Kensington Avenue Old Toronto
,,19585 56th Avenue,19585 56th Avenue,Surrey,19585 56th Avenue Surrey
49.16629028,-122.9651337,1503 Cliveden Avenue,1503 Cliveden Avenue,Delta,1503 Cliveden Avenue Delta
50.9801891,-113.9947887,4000 Glenmore Court SE,4000 Glenmore Court SE,,4000 Glenmore Court SE 
45.6099956,-73.60806006,Mega Meuble Entrepot,6500 Henri-Bourassa East Boulevard,Montréal-Nord,6500 Henri-Bourassa East Boulevard Montréal-Nord
45.3982599,-75.6103012,2620 - 2650 Lancaster Road,2620 Lancaster Road,Ottawa,2620 Lancaster Road Ottawa
43.22668457,-79.77095795,7 Catalina Drive,7 Catalina Drive,Hamilton,7 Catalina Drive Hamilton
43.6614266,-79.3378156,1001 Queen Street East,1001 Queen Street East,Old Toronto,1001 Queen Street East Old Toronto
49.2685465,-122.7457651,Southgate Manor,Southgate Manor,Vancouver,Southgate Manor Vancouver
49.28424454,-123.1002808,157 Alexander St,157 Alexander St,Vancouver,157 Alexander St Vancouver
45.66139028,-122.6393117,3080 E 54TH,3080 E 54TH,Vancouver,3080 E 54TH Vancouver
49.2567486,-122.8862651,574 FOSTER AVE,574 FOSTER AVE,Coquitlam,574 FOSTER AVE Coquitlam
44.6076732,-79.4138287,Elgin Street,Elgin Street,Orillia,Elgin Street Orillia
49.0500585,-122.2935785,33370 George Ferguson Way,33370 George Ferguson Way,Abbotsford,33370 George Ferguson Way Abbotsford
53.7055397,-113.1798706,Scafom Canada,8413 116 St,Fort Saskatchewan,8413 116 St Fort Saskatchewan
49.2577972,-123.130278,Montcalm Court,8707 Montcalm Street,Vancouver,8707 Montcalm Street Vancouver
49.2359634,-123.1324836,Oakleaf Court,8757 Selkirk Street,Vancouver,8757 Selkirk Street Vancouver
43.78373418,-79.86888536,14280 Kennedy Road,14280 Kennedy Road,Caledon,14280 Kennedy Road Caledon
49.0453996,-122.2887588,33780 MCDOUGALL AVE,33780 MCDOUGALL AVE,Abbotsford,33780 MCDOUGALL AVE Abbotsford
45.49290085,-73.61160278,3495 Ridgewood Avenue,3495 Ridgewood Avenue,Côte-des-Neiges-Notre-Dame-de-Grâce,3495 Ridgewood Avenue Côte-des-Neiges-Notre-Dame-de-Grâce
43.66886139,-79.68327332,1122 Lorimar Dr,1122 Lorimar Dr,Mississauga,1122 Lorimar Dr Mississauga
43.62491226,-79.50795746,821 The Queensway,821 The Queensway,Toronto,821 The Queensway Toronto
49.118179,-122.4927183,1939 264th Street,1939 264th Street,Langley,1939 264th Street Langley
,,Forte,Forte,Burnaby,Forte Burnaby
49.0383042,-122.7196609,18170 20 AVE,18170 20 AVE,Surrey,18170 20 AVE Surrey
,,Lots vacants 1687935,Lots vacants 1687935,Les Côteaux,Lots vacants 1687935 Les Côteaux
45.3945464,-73.5934439,Marois Street,Marois Street,Saint-Constant,Marois Street Saint-Constant
43.66671081,-79.46955208,142 Vine Avenue,142 Vine Avenue,Old Toronto,142 Vine Avenue Old Toronto
44.34584,-80.148377,2312 Riverside Drive,2312 Riverside Drive,Clearview,2312 Riverside Drive Clearview
45.714102,-73.616206,1500 Nationale,1500 Nationale,Terrebonne,1500 Nationale Terrebonne
40.667735,-73.754412,4769 222nd Street,4769 222nd Street,,4769 222nd Street 
,,Saint-Antoine Row,Saint-Antoine Row,Vaudreuil-Dorion,Saint-Antoine Row Vaudreuil-Dorion
42.95649321,-81.64364195,Strathmere Lodge,599 Albert St,Strathroy,599 Albert St Strathroy
48.59692647,-123.396208,Patricia Bay Hwy,Patricia Bay Hwy,Saanich,Patricia Bay Hwy Saanich
51.2091704,-114.0675793,17507 6 Street Northwest ,17507 6 St NW Calgary,Calgary,17507 6 St NW Calgary Calgary
51.05849838,-113.9867859,727 33 Street Northeast,727 33 St NE,Calgary,727 33 St NE Calgary
45.58217239,-73.75083923,1964-2046 Saint-Elzéar West Boulevard,1964 Saint-Elzéar West Boulevard,Laval,1964 Saint-Elzéar West Boulevard Laval
45.4719113,-73.476943,Palerme Street,Palerme Street,Brossard,Palerme Street Brossard
47.5568703,4.8383086,Léry Boulevard,Léry Boulevard,Léry,Léry Boulevard Léry
45.54531514,-73.63822317,400 Boulevard Crémazie,400 Blvd Cremazie E,Montreal,400 Blvd Cremazie E Montreal
44.32870685,-79.65948518,756 Huronia Road,756 Huronia Road,Barrie,756 Huronia Road Barrie
43.35705519,-81.48617649,Church St,Church St,Exeter,Church St Exeter
42.32186324,-82.93621206,1460 Lauzon Road,1460 Lauzon Rd,Windsor,1460 Lauzon Rd Windsor
44.33069177,-79.66082692,Discount Granite Plus,756 Huronia Rd,Barrie,756 Huronia Rd Barrie
,,Lots 2803896,Lots 2803896,Mont-Tremblant,Lots 2803896 Mont-Tremblant
52.2072198,0.1219277,250 King Street West,250 King Street West,Cambridge,250 King Street West Cambridge
43.208601,-79.9799757,210 Calvin Street,210 Calvin Street,Hamilton,210 Calvin Street Hamilton
43.4459055,-80.5706551,41 Ira Needles Boulevard,41 Ira Needles Boulevard,Waterloo,41 Ira Needles Boulevard Waterloo
42.99020767,-81.2723999,Plattswood Centre,215 Oxford St W,London,215 Oxford St W London
,,3530 Upper James Street & White Church Road West,3530 Upper James Street & White Church Road West,Hamilton,3530 Upper James Street & White Church Road West Hamilton
43.54388046,-80.24889374,26 Carden St,26 Carden St,Guelph,26 Carden St Guelph
,,365 Regional Road No. 21,365 Regional Road No. 21,Scugog,365 Regional Road No. 21 Scugog
43.70299005,-79.65459716,2684 Drew Road,2684 Drew Road,Mississauga,2684 Drew Road Mississauga
44.00152752,-79.46060252,120 - 124 Wellington Street East & 128 Centre Street,120 Wellington Street East,,120 Wellington Street East 
43.64380575,-79.39804196,468 Wellington Street West,468 Wellington Street West,,468 Wellington Street West 
43.68044281,-79.39122009,1170 Yonge St,1170 Yonge St,Toronto,1170 Yonge St Toronto
43.71601868,-79.31243896,20 Bermondsey Road,20 Bermondsey Road,East York,20 Bermondsey Road East York
43.61360931,-79.5175705,80 Horner Ave,80 Horner Ave,Toronto,80 Horner Ave Toronto
43.75715954,-79.78992796,Ace Drive,Ace Dr,Caledon,Ace Dr Caledon
43.759893,-79.7845394,Inspire Boulevard,Inspire Boulevard,Brampton,Inspire Boulevard Brampton
49.2055748,-122.9107931,218-222 Sixth Street,218-222 Sixth Street,New Westminster,218-222 Sixth Street New Westminster
43.66516113,-79.46032715,2738 Dundas St W,2738 Dundas St W,Toronto,2738 Dundas St W Toronto
43.94362259,-79.37976837,11 Gordon Collins Drive,11 Gordon Collins Dr,Whitchurch-Stouffville,11 Gordon Collins Dr Whitchurch-Stouffville
43.944366,-79.37935,11 Gordon Collins Drive,11 Gordon Collins Drive,Whitchurch-Stouffville,11 Gordon Collins Drive Whitchurch-Stouffville
45.53437424,-73.59583282,1005 Boulevard Rosemont,1005 Blvd Rosemont,Montreal,1005 Blvd Rosemont Montreal
43.72350434,-79.52401582,66 - 70 Bartor Road,66 - 70 Bartor Road,North York,66 - 70 Bartor Road North York
,,9755-9775 Meilleur Street,9755 Meilleur Street,Ahuntsic-Cartierville,9755 Meilleur Street Ahuntsic-Cartierville
45.54159873,-73.66158068,9780 Rue Jeanne-Mance,9780 Rue Jeanne-Mance,Montreal,9780 Rue Jeanne-Mance Montreal
49.2674692,-123.1127761,The Yukon,The Yukon,Vancouver,The Yukon Vancouver
45.4660591,-73.808544,121 Hymus Boulevard,121 Hymus Boulevard,Pointe-Claire,121 Hymus Boulevard Pointe-Claire
43.6400792,-79.4011346,1647 Bathurst Street,1647 Bathurst Street,Old Toronto,1647 Bathurst Street Old Toronto
,,3574 Concession Road No. 3,3574 Concession Road No. 3,Clarington,3574 Concession Road No. 3 Clarington
43.7994496,-79.1451062,7331 - 7339 Kingston Road,7331 - 7339 Kingston Road,Scarborough,7331 - 7339 Kingston Road Scarborough
40.6916776,-73.7729641,120 176th Street,120 176th Street,,120 176th Street 
53.51686755,-113.4944857,3415 Gateway Blvd,3415 Gateway Blvd,Edmonton,3415 Gateway Blvd Edmonton
43.96821976,-79.25815582,5945 Main St,5945 Main St,Whitchurch-Stouffville,5945 Main St Whitchurch-Stouffville
42.9655838,-81.62517548,Eastgate,191 Hull Rd,Strathroy,191 Hull Rd Strathroy
46.0393963,-73.46973173,154-158 de la Petite-Noraie,154-158 de la Petite-Noraie,St-Charles-Borromée,154-158 de la Petite-Noraie St-Charles-Borromée
46.37325287,-72.38391876,5500 Rue Yvon Trudeau,5500 Rue Yvon Trudeau,Becancour,5500 Rue Yvon Trudeau Becancour
46.3675433,-72.40380192,7000 Blvd Raoul Duchesne,7000 Blvd Raoul Duchesne,Becancour,7000 Blvd Raoul Duchesne Becancour
43.76258745,-79.2717761,355 & 365 Midwest Road,355 Midwest Road,Scarborough,355 Midwest Road Scarborough
49.2627419,-123.0861875,837 E BROADWAY,837 E BROADWAY,Vancouver,837 E BROADWAY Vancouver
43.33711391,-79.81494539,920 Brant Street,920 Brant Street,Burlington,920 Brant Street Burlington
45.3122273,-75.5929495,Miikana Road,Miikana Road,Gloucester,Miikana Road Gloucester
,,Thirty8 Avenue,Thirty8 Avenue,Surrey,Thirty8 Avenue Surrey
49.2684038,-123.0987808,271 East 2nd Avenue,271 East 2nd Avenue,Vancouver,271 East 2nd Avenue Vancouver
45.317184,-75.84339,Robertson House,1 Mill Hill Road,Nepean,1 Mill Hill Road Nepean
43.81664658,-79.50009155,615 Bowes Rd,615 Bowes Rd,Vaughan,615 Bowes Rd Vaughan
,,Highway No. 7 East & Bur Oak Avenue,Highway No. 7 East & Bur Oak Avenue,Markham,Highway No. 7 East & Bur Oak Avenue Markham
43.91714543,-80.09843087,14 & 15 John Street,14 John Street,Orangeville,14 John Street Orangeville
43.69735147,-79.51130807,4 Wilby Crescent,4 Wilby Crescent,York,4 Wilby Crescent York
49.2645148,-123.1024672,112 East 7th Avenue,112 East 7th Avenue,Vancouver,112 East 7th Avenue Vancouver
45.54449081,-73.57357025,5205-5215 1st Avenue  ,5205 1st Avenue,Rosemont-La Petite-Patrie,5205 1st Avenue Rosemont-La Petite-Patrie
43.7307663,-81.70805359,Bluewater ,68 Suncoast Dr E,Goderich,68 Suncoast Dr E Goderich
,,9650 190th Street,9650 190th Street,Surrey,9650 190th Street Surrey
45.57859237,-73.74346852,2597-2635 Le Corbusier Boulevard ,2597 Le Corbusier Boulevard,Laval,2597 Le Corbusier Boulevard Laval
44.14554214,-79.89766693,4905 Dean Drive,4905 Dean Drive,Adjala-Tosorontio,4905 Dean Drive Adjala-Tosorontio
,,"610, 616, 622, 628 Johnston Drive, 631, 641, 649 Crawford Drive","610, 616, 622, 628 Johnston Drive, 631, 641, 649 Crawford Drive",Peterborough,"610, 616, 622, 628 Johnston Drive, 631, 641, 649 Crawford Drive Peterborough"
43.13881302,-80.25585938,Grand River Community Health Centre,365 Colborne St,Brantford,365 Colborne St Brantford
43.786026,-79.48963165,215 Drumlin Circle,215 Drumlin Circle,Vaughan,215 Drumlin Circle Vaughan
43.93471449,-79.86151431,17402 Humber Station Road,17402 Humber Station Road,Caledon,17402 Humber Station Road Caledon
43.61749649,-79.57588196,1739 Dundas Street East,1739 Dundas St E,Mississauga,1739 Dundas St E Mississauga
45.42406082,-73.63551331,790-800 Upton Street,790 Upton Street,LaSalle,790 Upton Street LaSalle
,,990-992 Upton Street,990 Upton Street,LaSalle,990 Upton Street LaSalle
45.455595,-75.65281538,1805 Gaspe Avenue,1805 Gaspe Avenue,Ottawa,1805 Gaspe Avenue Ottawa
48.16172791,-65.85765076,120 Boulevard Perron Ouest,120 Blvd Perron O,New Richmond,120 Blvd Perron O New Richmond
49.2131958,-68.18849945,300 Boulevard la Salle,300 Blvd La Salle,Baie-Comeau,300 Blvd La Salle Baie-Comeau
43.42052078,-80.50614166,58 Howe Dr,58 Howe Dr,Kitchener,58 Howe Dr Kitchener
43.15350342,-80.70600891,715224 Oxford Rd 4,715224 Oxford Rd 4,Woodstock,715224 Oxford Rd 4 Woodstock
,,1286 - 1306 Queen Street West,1286 - 1306 Queen Street West,Brampton,1286 - 1306 Queen Street West Brampton
45.6999534,-73.3694263,De la Pointe-Aux-Pruches Road,De la Pointe-Aux-Pruches Road,Varennes,De la Pointe-Aux-Pruches Road Varennes
46.698081,-71.302003,710-725 William G. Ross,710-725 William G. Ross,Lévis,710-725 William G. Ross Lévis
,,Béacité,300 des Pionniers Avenue,Sainte-Julie,300 des Pionniers Avenue Sainte-Julie
45.50595856,-73.55786133,44 Saint-Antoine West Street,44 Saint-Antoine West Street,Ville-Marie,44 Saint-Antoine West Street Ville-Marie
45.58285558,-73.76860905,5580-5588 des Rossignols Boulevard,5580 des Rossignols Boulevard,Laval,5580 des Rossignols Boulevard Laval
45.43837357,-73.69469452,3410 Rue Victoria,3410 Rue Victoria,Montreal,3410 Rue Victoria Montreal
43.90736229,-79.77014923,14901 Hwy 50,14901 Hwy 50,Caledon,14901 Hwy 50 Caledon
,,12384 County Road No. 10,12384 County Road No. 10,Clearview,12384 County Road No. 10 Clearview
,,321238 Concession Road No. 6,321238 Concession Road No. 6,Grand Valley,321238 Concession Road No. 6 Grand Valley
,,Lots vacants 6369642 à 6369655,Lots vacants 6369642 à 6369655,Québec,Lots vacants 6369642 à 6369655 Québec
43.75196838,-79.26035309,2715 Lawrence Avenue East,2715 Lawrence Avenue East,Scarborough,2715 Lawrence Avenue East Scarborough
,,14901 Highway No. 50,14901 Highway No. 50,Caledon,14901 Highway No. 50 Caledon
43.3540307,-79.79978759,3110 South Service Road,3110 South Service Road,Burlington,3110 South Service Road Burlington
49.3258934,-123.0694427,165 East 19th Street,165 East 19th Street,North Vancouver,165 East 19th Street North Vancouver
49.109223,-122.6872004,19337 Enterprise Way,19337 Enterprise Way,Surrey,19337 Enterprise Way Surrey
43.74611165,-79.60569845,33 Baywood Road,33 Baywood Road,Etobicoke,33 Baywood Road Etobicoke
,,2604- 2599 de la Bièvre / 1074 de la Loire / 730 Marguerite-Bourgeoys / 1415,2604- 2599 de la Bièvre / 1074 de la Loire / 730 Marguerite-Bourgeoys / 1415,Québec,2604- 2599 de la Bièvre / 1074 de la Loire / 730 Marguerite-Bourgeoys / 1415 Québec
43.51370302,-80.19751787,37 Arkell Road,37 Arkell Rd,Guelph,37 Arkell Rd Guelph
26.2134789,-98.3454835,8924 CEDAR ST,8924 CEDAR ST,Mission,8924 CEDAR ST Mission
43.7245213,-79.7171461,1775 Queen Street East,1775 Queen Street East,Brampton,1775 Queen Street East Brampton
45.56781006,-73.4167099,1550 Nobel Street,1550 Nobel Street,Boucherville,1550 Nobel Street Boucherville
43.5361308,-79.905396,8155 Parkhill Drive,8155 Parkhill Drive,Milton,8155 Parkhill Drive Milton
43.6014986,-79.5151634,66 Fifteenth Street,66 Fifteenth Street,Etobicoke,66 Fifteenth Street Etobicoke
43.6018232,-79.5152911,68 Fifteenth Street,68 Fifteenth Street,Etobicoke,68 Fifteenth Street Etobicoke
43.8504496,-79.8408176,15070 Airport Road,15070 Airport Road,Caledon,15070 Airport Road Caledon
49.28107277,-123.0614949,2126 E Hastings St,2126 E Hastings St,Vancouver,2126 E Hastings St Vancouver
49.26364517,-123.2135315,University Manor,4640 W 10th Ave,Vancouver,4640 W 10th Ave Vancouver
,,5005 Buchan Street,5005 Buchan Street,Côte-des-Neiges-Notre-Dame-de-Grâce,5005 Buchan Street Côte-des-Neiges-Notre-Dame-de-Grâce
45.48892212,-73.77908325,1600-1650 St-Regis Boulevard,1600 St-Regis Boulevard,Dorval,1600 St-Regis Boulevard Dorval
43.16336705,-79.24554443,120 Welland Avenue,120 Welland Avenue,Saint Catharines,120 Welland Avenue Saint Catharines
43.25402832,-79.87369537,117 Park Street South,117 Park St S,Hamilton,117 Park St S Hamilton
43.46750641,-80.52256012,70 King St N,70 King St N,Waterloo,70 King St N Waterloo
43.67195511,-79.64762115,6469 Netherhart Rd,6469 Netherhart Rd,Mississauga,6469 Netherhart Rd Mississauga
43.18163885,-79.50679433,4625 Durham Road North,4625 Durham Rd N,Lincoln,4625 Durham Rd N Lincoln
,,4850 50th Avenue SW,4850 50th Avenue SW,Calgary,4850 50th Avenue SW Calgary
49.2113586,-122.5889421,"11285, 11299, 11313 & 11327 Burnett Street",11285 Burnett Street,Maple Ridge,11285 Burnett Street Maple Ridge
45.42834131,-75.80410004,14-18 Marjorie-D. Shackleton Street,14 Marjorie-D. Shackleton Street,Ville de Gatineau,14 Marjorie-D. Shackleton Street Ville de Gatineau
45.67120361,-73.85192871,10 Rue Gaston-Dumoulin,10 Rue Gaston-Dumoulin,Blainville,10 Rue Gaston-Dumoulin Blainville
49.1557471,-122.5591421,12848 240th Street,12848 240th Street,Langley,12848 240th Street Langley
45.60551071,-73.55113983,6501 Boulevard Joseph-Renaud,6451 Blvd Joseph-Renaud,Montreal,6451 Blvd Joseph-Renaud Montreal
43.9766266,-79.1647776,Sideline No. 24,Sideline No. 24,Pickering,Sideline No. 24 Pickering
43.83018112,-79.06547546,955 Brock Road,955 Brock Road,Pickering,955 Brock Road Pickering
43.77098683,-79.78567982,4848 Mayfield Rd,4848 Mayfield Rd,Caledon,4848 Mayfield Rd Caledon
46.09712982,-71.32137299,Dumoulin Electronique,616 Blvd Frontenac O,Thetford Mines,616 Blvd Frontenac O Thetford Mines
49.1014257,-122.4265535,2110 Bradner Road,2110 Bradner Road,Abbotsford,2110 Bradner Road Abbotsford
49.15671921,-121.9589539,45676 Yale Road,45676 Yale Rd,Chilliwack,45676 Yale Rd Chilliwack
45.3343779,-73.2677054,947-955 Du Séminaire Boulevard North,947 du Seminaire Blvd N,Saint-Jean-sur-Richelieu,947 du Seminaire Blvd N Saint-Jean-sur-Richelieu
44.72262018,-79.88002014,944 Beamish Rd,944 Beamish Rd,Midland,944 Beamish Rd Midland
50.9184236,-113.9060769,10811 84th Street SE,10811 84th Street SE,Calgary,10811 84th Street SE Calgary
51.045681,-114.071228,fmr Royal Bank of Canada,411 8 Ave SW,Calgary,411 8 Ave SW Calgary
51.0762492,-113.9917706,2750 Sunridge Blvd NE,2750 Sunridge Blvd NE,Calgary,2750 Sunridge Blvd NE Calgary
45.48063278,-73.78247833,2055 Hymus Boulevard,2055 Hymus Boulevard,Dorval,2055 Hymus Boulevard Dorval
45.5073561,-73.8058073,Pierrefonds Boulevard,Pierrefonds Boulevard,Pierrefonds-Roxboro,Pierrefonds Boulevard Pierrefonds-Roxboro
45.4811193,-73.7099024,554 montée de Liesse,554 montée de Liesse,Montréal,554 montée de Liesse Montréal
45.3861388,-73.5503506,Route 132 ,Route 132,Delson,Route 132 Delson
46.51607513,-84.29006195,652 Macdonald Avenue,652 Macdonald Ave,Sault Ste. Marie,652 Macdonald Ave Sault Ste. Marie
43.1946244,-79.5770661,9 Kerman Avenue,9 Kerman Avenue,Grimsby,9 Kerman Avenue Grimsby
44.7263891,-79.8798557,944 Beamish Road & 16892 Highway No. 12,944 Beamish Road,Midland,944 Beamish Road Midland
,,Lots 3278467,Lots 3278467,Mont-Tremblant,Lots 3278467 Mont-Tremblant
43.18212213,-79.77548166,56 Highland Road West,56 Highland Road West,Hamilton,56 Highland Road West Hamilton
43.66741562,-79.31282806,1702 Queen Street East,1702 Queen Street East,Old Toronto,1702 Queen Street East Old Toronto
43.81183867,-79.11147233,755 Oklahoma Drive,755 Oklahoma Drive,Pickering,755 Oklahoma Drive Pickering
43.75447083,-79.27728271,1200 Kennedy Road,1200 Kennedy Road,Scarborough,1200 Kennedy Road Scarborough
43.70857239,-79.79153442,LN Reynolds,10160 Hurontario St,Brampton,10160 Hurontario St Brampton
43.33618727,-79.803617,2150 Lilnan Court,2150 Lilnan Ct,Burlington,2150 Lilnan Ct Burlington
49.2635179,-123.187978,2125 West 10th Avenue,2125 West 10th Avenue,Vancouver,2125 West 10th Avenue Vancouver
49.1828545,-121.8888256,45676 Yale Road,45676 Yale Road,Chilliwack,45676 Yale Road Chilliwack
,,Westerdale Apartments,Westerdale Apartments,Vancouver,Westerdale Apartments Vancouver
49.1017642,-122.6716575,"5494, 5500 & 5510 Brydon Crescent; 19890 55A Avenue",5494 Brydon Crescent,Langley,5494 Brydon Crescent Langley
49.164066,-121.9599172,Midtown Square,45833 Alexander Avenue,Chilliwack,45833 Alexander Avenue Chilliwack
43.6799725,-79.4248046,569 - 573 Christie Street,573 Christie Street,Old Toronto,573 Christie Street Old Toronto
45.6604704,-73.5608963,Perras Boulevard,Perras Boulevard,Rivière-des-Prairies-Pointe-aux-Trembles,Perras Boulevard Rivière-des-Prairies-Pointe-aux-Trembles
,,416-460 boul. de l'Amerique-Francaise,416-460 boul. de l'Amerique-Francaise,Gatineau,416-460 boul. de l'Amerique-Francaise Gatineau
43.73812866,-79.3414917,1004 Lawrence Avenue East,1004 Lawrence Avenue East,North York,1004 Lawrence Avenue East North York
43.64559555,-79.62011719,1750 Sismet Rd,1750 Sismet Rd,Mississauga,1750 Sismet Rd Mississauga
45.44502258,-73.74079132,345 Dorval Ave,345 Dorval Ave,Dorval,345 Dorval Ave Dorval
49.2008132,-123.0617519,1600 Valmont Way,1600 Valmont Way,Richmond,1600 Valmont Way Richmond
49.1929293,-122.9975414,7405 Lowland Drive,7405 Lowland Drive,Burnaby,7405 Lowland Drive Burnaby
49.0377215,-122.2741493,1993 Riverside Road,1993 Riverside Road,Abbotsford,1993 Riverside Road Abbotsford
,,Lots 6301659,Lots 6301659,Salaberry-de-Valleyfield,Lots 6301659 Salaberry-de-Valleyfield
45.46629725,-73.62451088,6251 Rue Sherbrooke Ouest,6251 Rue Sherbrooke Ouest,Montreal,6251 Rue Sherbrooke Ouest Montreal
49.14207077,-121.969223,Cottonwood 4 Cinemas,45380 Luckakuck Way,Chilliwack,45380 Luckakuck Way Chilliwack
45.71121216,-73.9373703,14243  du Curé-Labelle Boulevard,14243  du Curé-Labelle Boulevard,Mirabel,14243  du Curé-Labelle Boulevard Mirabel
45.54105377,-73.605896,6815 de la Roche Street,6815 de la Roche Street,Rosemont-La Petite-Patrie,6815 de la Roche Street Rosemont-La Petite-Patrie
45.4818005,-73.7787295,1855 Hymus,1855 Hymus,Dorval,1855 Hymus Dorval
44.08039474,-80.20232391,226 First Avenue East,226 First Avenue East,Shelburne,226 First Avenue East Shelburne
43.2053534,-80.2798141,65 Brant Road,65 Brant Road,Brant,65 Brant Road Brant
46.07239532,-73.1836853,1252 Rue Notre Dame,1252 Rue Notre Dame,Berthierville,1252 Rue Notre Dame Berthierville
43.409971,-80.396923,25 Sportsworld Crossing Road,25 Sportsworld Crossing Road,Kitchener,25 Sportsworld Crossing Road Kitchener
43.2404747,-79.86638641,500 Upper Wellington Street,500 Upper Wellington St,Hamilton,500 Upper Wellington St Hamilton
43.71508789,-79.4474411,705 Lawrence Avenue West,705 Lawrence Ave W,Toronto,705 Lawrence Ave W Toronto
49.1438856,-122.003674,45380 Luckakuck Way,45380 Luckakuck Way,Chilliwack,45380 Luckakuck Way Chilliwack
49.2799077,-123.1302133,1041 - 1043 Davie Street,1041 Davie Street,Vancouver,1041 Davie Street Vancouver
45.7297288,-73.59878835,de la Gare Street,de la Gare Street,Mascouche,de la Gare Street Mascouche
43.66942267,-79.38375258,50 Charles Street East (Unit 4-7 FL1),50 Charles St E,Toronto,50 Charles St E Toronto
43.5986321,-79.4996245,33 Lake Shore Drive,33 Lake Shore Drive,Etobicoke,33 Lake Shore Drive Etobicoke
,,7342 208th Street,7342 208th Street,Langley,7342 208th Street Langley
45.3044069,-75.5542419,Sappers Ridge,Sappers Ridge,Gloucester,Sappers Ridge Gloucester
45.30425661,-75.55038929,Somme St,Somme St,Ottawa,Somme St Ottawa
,,19110 20th Avenue,19110 20th Avenue,Surrey,19110 20th Avenue Surrey
45.3679468,-74.0322316,De Chenonceau Street,De Chenonceau Street,Vaudreuil-Dorion,De Chenonceau Street Vaudreuil-Dorion
,,1300 des Pins West,1300 des Pins West,Montréal,1300 des Pins West Montréal
,,741 248th Street,741 248th Street,Langley,741 248th Street Langley
45.62572861,-73.64685822,5700 Maurice-Cullen Place ,5700 Maurice-Cullen Place,Laval,5700 Maurice-Cullen Place Laval
,,260 St-Antoine nord / 10 Jolibourg / 121 pl. Jolibourg,260 St-Antoine nord / 10 Jolibourg / 121 pl. Jolibourg,Lavaltrie,260 St-Antoine nord / 10 Jolibourg / 121 pl. Jolibourg Lavaltrie
49.1828545,-121.8888256,46801 Yale Road,46801 Yale Road,Chilliwack,46801 Yale Road Chilliwack
45.60447311,-73.62572479,5330-5340 Boulevard Henri-Bourassa Est,5340 Blvd Henri-Bourassa E,Montreal,5340 Blvd Henri-Bourassa E Montreal
,,965- 971 boul. St-Jean-Baptiste,965- 971 boul. St-Jean-Baptiste,Mercier,965- 971 boul. St-Jean-Baptiste Mercier
43.86476017,-79.75496328,Humber Station Rd,Humber Station Rd,Caledon,Humber Station Rd Caledon
43.7367186,-79.4365029,345 Wilson Avenue,345 Wilson Avenue,North York,345 Wilson Avenue North York
42.91880798,-78.912323,Riverfront Apartments,323 Niagara Blvd,Fort Erie,323 Niagara Blvd Fort Erie
,,4650- 4675 3e Avenue ouest / Lot vacant 1035451,4650- 4675 3e Avenue ouest / Lot vacant 1035451,Québec,4650- 4675 3e Avenue ouest / Lot vacant 1035451 Québec
47.3865289,-122.0405567,10420 240th Street & 24027 104th Avenue,10420 240th Street,Maple Ridge,10420 240th Street Maple Ridge
49.1913036,-122.5394938,24027 104 AVE,24027 104 AVE,Maple Ridge,24027 104 AVE Maple Ridge
43.65042496,-79.48069,BMO Bank of Montreal,2330 Bloor Street West,Old Toronto,2330 Bloor Street West Old Toronto
49.1825333,-122.4731377,26108 100 AVE,26108 100 AVE,Maple Ridge,26108 100 AVE Maple Ridge
,,5920 40th Street SE,5920 40th Street SE,Calgary,5920 40th Street SE Calgary
45.4993248,-73.57752228,2115-2125 de la Montagne Street,2115 de la Montagne Street,Ville-Marie,2115 de la Montagne Street Ville-Marie
45.52769089,-73.70040894,11699 Boulevard Saint-Germain,11699 Blvd Saint-Germain,Montreal,11699 Blvd Saint-Germain Montreal
44.3870995,-79.70304143,56 Donald Street,56 Donald Street,Barrie,56 Donald Street Barrie
43.87964249,-79.73670197,49 Willow Street,49 Willow St,Caledon,49 Willow St Caledon
45.4221025,-75.64554643,455 Coventry Road,455 Coventry Road,Ottawa,455 Coventry Road Ottawa
43.8790873,-79.7371983,49 Willow Street,49 Willow Street,Caledon,49 Willow Street Caledon
43.99944553,-79.6792423,66 Main Street,66 Main Street,King,66 Main Street King
43.88611221,-78.85555267,63 Albany St,63 Albany St,Oshawa,63 Albany St Oshawa
43.39043674,-79.74532223,Superior Ct,Superior Ct,Oakville,Superior Ct Oakville
,,3606 & 3610 176th Street,3606 176th Street,Surrey,3606 176th Street Surrey
,,1626 & 1642 164th Street,1626 & 1642 164th Street,Surrey,1626 & 1642 164th Street Surrey
49.1188722,-122.7991542,15238 64 AVE,15238 64 AVE,Surrey,15238 64 AVE Surrey
46.84040833,-71.23918152,530 Rue Des Peupliers E,530 Rue Des Peupliers E,Quebec,530 Rue Des Peupliers E Quebec
45.5180477,-73.4560619,50 Rémy,50 Rémy,Longueuil,50 Rémy Longueuil
43.84176504,-79.23202133,Steeles Ave,Steeles Ave,Toronto,Steeles Ave Toronto
45.75909023,-73.46205425,45 Hervieux Street,45 Hervieux Street,Repentigny,45 Hervieux Street Repentigny
43.51613617,-79.65158081,1578 - 1588 Finfar Court,1578 Finfar Court,Mississauga,1578 Finfar Court Mississauga
43.51845932,-79.68708801,3235 Dundas Street West,3235 Dundas Street West,Mississauga,3235 Dundas Street West Mississauga
,,9643 186th Street,9643 186th Street,Surrey,9643 186th Street Surrey
44.18883211,-79.70716219,48 & 52 Queen Street,48 & 52 Queen Street,Innisfil,48 & 52 Queen Street Innisfil
,,11323/35 University Ave,11323/35 University Ave,McKernan,11323/35 University Ave McKernan
44.48194868,-80.23032115,420 High Street,420 High Street,Collingwood,420 High Street Collingwood
,,7-515 boul. de l'Amerique-Francaise,7-515 boul. de l'Amerique-Francaise,Gatineau,7-515 boul. de l'Amerique-Francaise Gatineau
49.70107269,-112.7964096,210-303 31 Street North,210 31 St N,Lethbridge,210 31 St N Lethbridge
43.8695174,-79.7327671,500 Wilton Drive,500 Wilton Drive,Caledon,500 Wilton Drive Caledon
49.2221455,-122.9442392,7530-7548 Edmonds Street,7530 Edmonds Street,Burnaby,7530 Edmonds Street Burnaby
43.87082291,-79.72740936,500 Queen Street South,500 Queen St S,Caledon,500 Queen St S Caledon
43.37825534,-80.4066299,228 Old Mill Road,228 Old Mill Road,Cambridge,228 Old Mill Road Cambridge
49.2820235,-122.7558056,HUB,HUB,Port Coquitlam,HUB Port Coquitlam
43.14645677,-79.92178488,Hampton Brook Way,Hampton Brook Way,Hamilton,Hampton Brook Way Hamilton
46.31399843,-72.58300257,Les Terrasses Chavigny,561 Rue Beauchamps,Trois-Rivieres,561 Rue Beauchamps Trois-Rivieres
43.817088,-79.2758132,McNicoll Avenue,McNicoll Avenue,Scarborough,McNicoll Avenue Scarborough
49.0311472,-122.7995311,15654 & 15674  North Bluff Road,15654 North Bluff Road,White Rock,15654 North Bluff Road White Rock
51.3003698,-114.0247955,Silvercreek Shopping Centre,800 Veterans Boulevard NW,Airdrie,800 Veterans Boulevard NW Airdrie
,,3 Highway No. 7 East Road,3 Highway No. 7 East Road,Kawartha Lakes,3 Highway No. 7 East Road Kawartha Lakes
49.88660049,-119.4944229,426 Bernard Avenue,426 Bernard Ave,Kelowna,426 Bernard Ave Kelowna
49.20816803,-124.0326309,4311 Boban Dr,4311 Boban Dr,Nanaimo,4311 Boban Dr Nanaimo
49.1698637,-123.1139956,3640 NO. 4 RD,3640 NO. 4 RD,Richmond,3640 NO. 4 RD Richmond
44.60148621,-79.45285797,2 Hunter Valley Rd,2 Hunter Valley Rd,Orillia,2 Hunter Valley Rd Orillia
43.53944064,-80.31799494,50 Malcolm Road,50 Malcolm Road,Guelph,50 Malcolm Road Guelph
45.39026395,-75.72544086,1111 Carling Avenue,1111 Carling Avenue,Ottawa,1111 Carling Avenue Ottawa
43.72108841,-79.59427643,227 Queens Plate Dr,227 Queens Plate Dr,Toronto,227 Queens Plate Dr Toronto
51.07375336,-114.1634445,Victoria Gardens,4816 17 Ave NW,Calgary,4816 17 Ave NW Calgary
51.03744662,-114.1770587,40 Christie Park View SW,40 Christie Park View SW,Calgary,40 Christie Park View SW Calgary
44.330464,-79.70318806,Mapleview Drive West,#NAME?,Barrie,#NAME?
46.03553554,-73.12669659,1605 Rue de La Marine,1605 Rue de La Marine,Sorel-Tracy,1605 Rue de La Marine Sorel-Tracy
43.7747477,-79.18043583,4624-4626 Kingston Road,4624 Kingston Road,Scarborough,4624 Kingston Road Scarborough
43.3615248,-79.8502839,2500 Brant Street,2500 Brant Street,Burlington,2500 Brant Street Burlington
49.2674692,-123.1127761,The Yukon,The Yukon,Vancouver,The Yukon Vancouver
49.25276735,-123.0808755,1143 KINGSWAY,1143 KINGSWAY,Vancouver,1143 KINGSWAY Vancouver
,,701-707 837 W HASTINGS,701-707 837 W HASTINGS,Vancouver,701-707 837 W HASTINGS Vancouver
49.2864723,-123.115257,Terminal City Club Tower,Terminal City Club Tower,Vancouver,Terminal City Club Tower Vancouver
,,14540 1st Street NW,14540 1st Street NW,Calgary,14540 1st Street NW Calgary
43.7477305,-79.34912441,"Units A303, A302,& A305 A306 16 Mallard Road",16 Mallard Road,North York,16 Mallard Road North York
45.44425583,-73.63168335,2701 Lapierre Street,2701 Lapierre Street,LaSalle,2701 Lapierre Street LaSalle
,,101 6625 152A ST,101 6625 152A ST,Surrey,101 6625 152A ST Surrey
53.46978142,-113.4933735,Super 8 Hotel - Edmonton South,3610 Gateway Blvd N,Edmonton,3610 Gateway Blvd N Edmonton
44.2606163,-76.95227051,151 Industrial Boulevard,151 Industrial Blvd,Napanee,151 Industrial Blvd Napanee
,,"Rue de la Gondoliere, lot vacant","Rue de la Gondoliere, lot vacant",Québec,"Rue de la Gondoliere, lot vacant Québec"
45.5117569,-73.677742,1456-1464 de l'Église Street,1456 de l'Église Street,Saint-Laurent,1456 de l'Église Street Saint-Laurent
45.49913823,-73.67960435,2170 Rue Scott,2170 Rue Scott,Montreal,2170 Rue Scott Montreal
49.2674692,-123.1127761,The Yukon,The Yukon,Vancouver,The Yukon Vancouver
49.2783354,-123.0635852,1325 & 1333 East Georgia Street,1325 & 1333 East Georgia Street,Vancouver,1325 & 1333 East Georgia Street Vancouver
43.54512283,-80.24814397,15 Wyndham Street North,15 Wyndham Street North,Guelph,15 Wyndham Street North Guelph
50.8688278,-113.9517805,227 Seton Road SE,227 Seton Road SE,Calgary,227 Seton Road SE Calgary
48.42628098,-123.3276062,1841 Oak Bay Ave,1841 Oak Bay Ave,Victoria,1841 Oak Bay Ave Victoria
45.4936409,-73.73072052,2250-2300 Cohen Street,2250 Cohen Street,Saint-Laurent,2250 Cohen Street Saint-Laurent
45.5650207,-73.7614341,Jean-Béraud,Jean-Béraud,Laval,Jean-Béraud Laval
,,LOT de L'Industrie Road,LOT de L'Industrie Road,Beloeil,LOT de L'Industrie Road Beloeil
42.24858856,-82.96401215,4785 Walker Rd,4785 Walker Rd,Windsor,4785 Walker Rd Windsor
44.3332416,-79.6944473,#NAME?,Mapleview Drive West,Barrie,Mapleview Drive West Barrie
44.4382814,-80.0836203,299 Mowat Street North,299 Mowat Street North,Clearview,299 Mowat Street North Clearview
44.11259674,-79.63080877,3538 8th Line,3538 8th Line,West Gwillimbury,3538 8th Line West Gwillimbury
44.43974443,-79.14966965,Mara Rd,Mara Rd,Brock,Mara Rd Brock
45.3772185,-75.73294759,1083-1095 Merivale Road,1083 Merivale Road,Ottawa,1083 Merivale Road Ottawa
45.42817307,-75.69238281,54 York St,54 York St,Ottawa,54 York St Ottawa
45.4568003,-75.7345267,20-30 Adrien-Robert Street ,20-30 Adrien-Robert Street ,Ville de Gatineau,20-30 Adrien-Robert Street  Ville de Gatineau
46.38908768,-72.38075256,500 Blvd Alphonse-Deshaies,500 Blvd Alphonse-Deshaies,Becancour,500 Blvd Alphonse-Deshaies Becancour
46.78987503,-71.16300964,5700 Rue J.-B.- Michaud,5700 Rue J -B - Michaud,Levis,5700 Rue J -B - Michaud Levis
46.73197937,-71.29455566,770 Rte Des Rivieres,770 Rte Des Rivieres,Levis,770 Rte Des Rivieres Levis
43.40643311,-80.28966522,CR Wall,55 Thompson Dr,Cambridge,55 Thompson Dr Cambridge
43.57863617,-80.224617,320 Eastview Road,320 Eastview Road,Guelph,320 Eastview Road Guelph
43.16413879,-80.32792664,99 Savannah Oaks Dr,99 Savannah Oaks Dr,Brantford,99 Savannah Oaks Dr Brantford
,,Anderson Street & Thickson Road North,Anderson Street & Thickson Road North,Whitby,Anderson Street & Thickson Road North Whitby
43.8251462,-79.3000734,Silver Star Boulevard,Silver Star Boulevard,Scarborough,Silver Star Boulevard Scarborough
43.67043304,-79.39144897,108 Cumberland Street,108 Cumberland Street,Old Toronto,108 Cumberland Street Old Toronto
43.67044449,-79.3914032,106 Cumberland St,106 Cumberland St,Toronto,106 Cumberland St Toronto
43.68442917,-79.48343658,975 Weston Rd,975 Weston Rd,Toronto,975 Weston Rd Toronto
43.71480942,-79.57289886,17 Racine Road,17 Racine Road,Etobicoke,17 Racine Road Etobicoke
44.4342705,-79.1519918,Mara Road,Mara Road,Brock,Mara Road Brock
43.93827814,-79.84258257,17084 Duffy's Lane,17084 Duffy's Lane,Caledon,17084 Duffy's Lane Caledon
43.93115372,-79.85633062,17181 Humber Station Road,17181 Humber Station Road,Caledon,17181 Humber Station Road Caledon
43.785934,-79.6637373,Clarkway Drive,Clarkway Drive,Brampton,Clarkway Drive Brampton
49.0050228,-122.2774508,90 Winson Road,90 Winson Road,Abbotsford,90 Winson Road Abbotsford
49.118179,-122.4927183,7790 264th Street,7790 264th Street,Langley,7790 264th Street Langley
49.136717,-122.853885,13315 Comber Way,13315 Comber Way,Surrey,13315 Comber Way Surrey
49.1938716,-122.9355881,856 Boyd Street,856 Boyd Street,New Westminster,856 Boyd Street New Westminster
49.0357997,-122.7641192,1861 165A ST,1861 165A ST,Surrey,1861 165A ST Surrey
49.04828369,-122.4827023,2542 267th Street,2542 267th Street,Langley,2542 267th Street Langley
43.44561005,-80.50965881,332 Patricia Avenue,332 Patricia Ave,Kitchener,332 Patricia Ave Kitchener
43.44595718,-80.51035309,352 Patricia Avenue,352 Patricia Ave,Kitchener,352 Patricia Ave Kitchener
43.15795135,-80.22364044,333 Henry Street,333 Henry St,Brantford,333 Henry St Brantford
46.85103607,-71.24871063,5280 Blvd Henri-Bourassa,5280 Blvd Henri-Bourassa,Quebec,5280 Blvd Henri-Bourassa Quebec
46.49230576,-80.948349,40 Barry St,40 Barry St,Sudbury,40 Barry St Sudbury
45.78894424,-74.06297302,Rona Saint-Jerome,903 Blvd de La Salette,Saint-Jerome,903 Blvd de La Salette Saint-Jerome
48.83996964,-67.51626587,331 Rue Saint Joseph,331 Rue Saint Joseph,Matane,331 Rue Saint Joseph Matane
46.56407547,-80.85858154,375 Pine St,375 Pine St,Garson,375 Pine St Garson
48.84326757,-67.51250279,380 Avenue St Redempteur,380 Avenue St Redempteur,Matane,380 Avenue St Redempteur Matane
46.00213623,-73.13263702,Rona Sorel-Tracy,1293 Chemin Des Patriotes,Sorel-Tracy,1293 Chemin Des Patriotes Sorel-Tracy
46.24187469,-72.59855652,Rona Nicolet,2145 Blvd Louis Frechette,Nicolet,2145 Blvd Louis Frechette Nicolet
48.84301204,-67.5434593,311 Rue Blais,311 Rue Blais,Matane,311 Rue Blais Matane
48.84272766,-67.54367065,495 Rue du Grand Pre,495 Rue du Grand Pre,Matane,495 Rue du Grand Pre Matane
43.16116714,-80.21862793,60 Bury Court,60 Bury Ct,Brantford,60 Bury Ct Brantford
48.84296166,-67.54444581,515 Rue du Grand Pre,515 Rue du Grand Pre,Matane,515 Rue du Grand Pre Matane
46.8380661,-71.2525177,144 Rue Des Lilas O,144 Rue Des Lilas O,Quebec,144 Rue Des Lilas O Quebec
46.37663651,-72.49563599,Rona Cap-de-la-Madeleine,15 Rue Philippe-Francoeur,Cap-de-la-Madeleine,15 Rue Philippe-Francoeur Cap-de-la-Madeleine
46.83512115,-71.24975586,135 Rue Des Pins O,135 Rue Des Pins O,Quebec,135 Rue Des Pins O Quebec
46.84664917,-71.22940826,2045 26E Rue,2045 26E Rue,Quebec,2045 26E Rue Quebec
46.8467865,-71.22917175,2055 26E Rue,2055 26E Rue,Quebec,2055 26E Rue Quebec
46.83295059,-71.25170135,212 rue des Bouleaux O ,212 Rue Des Bouleaux O,Quebec,212 Rue Des Bouleaux O Quebec
46.83396149,-71.24668121,2550 Ave du Colisee,2550 Ave du Colisee,Quebec,2550 Ave du Colisee Quebec
46.83095551,-71.25539398,355 Rue Des Bouleaux O,355 Rue Des Bouleaux O,Quebec,355 Rue Des Bouleaux O Quebec
46.85582352,-71.25255585,560 64E Rue E,560 64E Rue E,Quebec,560 64E Rue E Quebec
48.84156036,-67.52410889,183 Rue Côté,183 Rue Cote,Matane,183 Rue Cote Matane
48.84091949,-67.52214813,229 Rue Coté,229 Rue Cote,Matane,229 Rue Cote Matane
48.84198761,-67.51919556,335 Ave Jacques Cartier,335 Ave Jacques Cartier,Matane,335 Ave Jacques Cartier Matane
46.3999176,-72.2793808,Rona Becancour,3365 Blvd Becancour,Becancour,3365 Blvd Becancour Becancour
46.72493744,-72.56352997,Rona Saint-Tite,700 Rue Notre Dame,Saint-Tite,700 Rue Notre Dame Saint-Tite
48.84604263,-67.53366852,210 Rue Saint Pierre,210 Rue Saint Pierre,Matane,210 Rue Saint Pierre Matane
48.84204865,-67.54510498,510 Rue du Général Vanier,510 Rue du General Vanier,Matane,510 Rue du General Vanier Matane
48.8396759,-67.5168457,332 Rue Bouillon,332 Rue Bouillon,Matane,332 Rue Bouillon Matane
48.84646988,-67.53691101,251 Ave Fraser,251 Ave Fraser,Matane,251 Ave Fraser Matane
